TAG,ID,ID_ORG,ORGANISATION,ADDRESS,LOCATION,STATE,POSTCODE,REGION,PHONE,TOLLFREE,MOBILE,FAX,EMAIL,WEBSITE,CATEGORIES,ANZSIC_CODE,ANZSIC_DESCRIPTION
ABS,23655,11523657,Cheveux By Anthony Anjoul,Shop 6 459-463 Church St,North Parramatta,NSW,1750,SYDNEY,02 96302000,,,,cheveuxbyanthonyanjoul@gmail.com,www.cheveuxbyanthonyanjoul.com/,Hair,9511,Hairdressing and Beauty Services
ABS,24654,11524656,Absolute Perfection,Parramatta Great Western Hwy,Sydney,NSW,2000,SYDNEY,,,0419 269499,,robyn.vernon@optusnet.com.au,www.absoluteperfection.com.au,Beauty,9511,Hairdressing and Beauty Services
ABS,25462,11525464,Amy-Jean Brows,Suite 918 Level 9 185 Elizabeth St,Sydney,NSW,2000,SYDNEY,,,0414 288533,,sydney@amyjean.com.au,www.amyjean.com.au,Beauty,9511,Hairdressing and Beauty Services
ABS,25574,11525576,Ania's Mobile Hairdressing,,Sydney,NSW,2000,SYDNEY,,,0422 818638,,anna.lelek@wp.pl,,Hair,9511,Hairdressing and Beauty Services
ABS,25852,11525854,Artful Romance - Bridal hair,,Sydney,NSW,2000,SYDNEY,,,0416 073445,,info@artfulromance.com.au,www.artfulromance.com.au,Hair,9511,Hairdressing and Beauty Services
ABS,25862,11525864,Artis Hairdressing,6 Bridge St,Sydney,NSW,2000,SYDNEY,02 92522100,,,,info@artishairdressing.com.au,www.artishairdressing.com.au,Hair,9511,Hairdressing and Beauty Services
ABS,26634,11526636,Ayurve Spa,1 / 436 George St,Sydney,NSW,2000,SYDNEY,02 82974844,,,,feelgood@ayurve.com,www.ayurve.com,Massage and Spa,9511,Hairdressing and Beauty Services
ABS,26674,11526676,Babylon Barbershop,Shop 119/ 289 Sussex,Sydney,NSW,2000,SYDNEY,02 92836776,,,,aroundyou@babylonbarbaershop.com.au,,Hair,9511,Hairdressing and Beauty Services
ABS,26704,11526706,Bailey Joh Hairdressers Pty Ltdu00A0,1 Martin Pl,Sydney,NSW,2000,SYDNEY,02 92314411,,,,charlotte.laight@yahoo.com,,Hair,9511,Hairdressing and Beauty Services
ABS,26989,11526991,Beauty Grace,Level 5 61-63 Market St,Sydney,NSW,2000,SYDNEY,02 92663200,,0468 326900,,accounts@beautygrace.com.au,www.beautygrace.com.au/,Beauty,9511,Hairdressing and Beauty Services
ABS,26996,11526998,Beauty Salon Upstairs,Level 1 Suite 106 / 375 George St,Sydney,NSW,2000,SYDNEY,02 92993533,,,,kasiunia@tpg.com.au,www.beautysalonupstairs.com.au,Beauty,9511,Hairdressing and Beauty Services
ABS,27441,11527443,Body Ethics Institute,Suite 602/ 72 Pitt St,Sydney,NSW,2000,SYDNEY,02 80338354,,,,info@bodyethics.com.au,www.bodyethics.com.au,Beauty,9511,Hairdressing and Beauty Services
ABS,27469,11527471,Bombay Brow Bar,The Dymocks Building/ Level 4/Shop 15b/ 424 George St,Sydney,NSW,2000,SYDNEY,,,0404 111233,,hello@bombaybrowbar.com.au,www.bombaybrow.bar,Beauty,9511,Hairdressing and Beauty Services
ABS,27777,11527779,Bruno F Hair Face Body,Shop 8A 76 Castlereagh Strs,Sydney,NSW,2000,SYDNEY,02 92324447,,,,brunofhair@bigpond.com,www.brunof.com.au,Hair,9511,Hairdressing and Beauty Services
ABS,27778,11527780,Bruno F. Hair. Face. Body,"Shop 8, St James Arcade, 76 Castlereagh Street",Sydney,NSW,2000,SYDNEY,02 92324447,,,,flambard@bigpond.net.au,www.brunof.com.au,Hair,9511,Hairdressing and Beauty Services
ABS,28713,11528716,Cherie Hair Design,Shop 115 8 Quay St,Haymarket,NSW,2000,SYDNEY,02 92812776,,,,cherie_alex00@yahoo.com,,Hair,9511,Hairdressing and Beauty Services
ABS,28729,11528732,Chi The Spa at Shangri La,176 Cumberland St,The Rocks,NSW,2000,SYDNEY,02 92506032,,,,chispa.slsn@sharila.com,,Massage and Spa,9511,Hairdressing and Beauty Services
ABS,28894,11528897,Christopher Hanna Platinum,Sheriton On The Park 128 Castlereagh St,Sydney,NSW,2000,SYDNEY,02 92830151,,,,info@christopherhanna.com.au,,Hair,9511,Hairdressing and Beauty Services
ABS,29145,11529148,Classic Beauty Salon,5 Hunter St,Sydney,NSW,2000,SYDNEY,02 92315025,,,,info@classicbeauty.com.au,www.classicbeauty.com.au/facialsydney.html,Beauty,9511,Hairdressing and Beauty Services
ABS,29317,11529320,Coco Beauty,Sky View Shopping Plaza Shop 5 537 George St,Sydney,NSW,2000,SYDNEY,02 83867673,,,,info@cocobeauty.com.au,www.cocobeauty.com.au,Beauty,9511,Hairdressing and Beauty Services
ABS,30244,11530247,David Jones Men's Hair Salon,1st Floor Market St Store Market St,Sydney,NSW,2000,SYDNEY,02 92665264,,,,jtanios@bigpond.net.au,,Hair,9511,Hairdressing and Beauty Services
ABS,30280,11530283,Day Spa Sydney (The),89-113 Kent St,Sydney,NSW,2000,SYDNEY,02 82485250,,,,tlsyd.info@langhamhotels.com,www.langhamhotels.com,Massage and Spa,9511,Hairdressing and Beauty Services
ABS,30445,11530448,Detail For Men,Shop 3 6 O''Connell St,Sydney,NSW,2000,SYDNEY,02 92315999,,,,info@detailformen.com,www.detailformen.com,Hair,9511,Hairdressing and Beauty Services
ABS,30446,11530449,Detail Woman,8 Spring St,Sydney,NSW,2000,SYDNEY,02 92519966,,,,info@detailwoman.com,www.detailwoman.com/,Beauty,9511,Hairdressing and Beauty Services
ABS,30869,11530872,Dream Reflection,,Sydney,NSW,2000,SYDNEY,,,0402 243622,,info@dreamreflection.com.au,www.dreamreflection.com.au,Hair,9511,Hairdressing and Beauty Services
ABS,31040,11531043,Ebony Hair Extensions,Pitt St,Sydney,NSW,2000,SYDNEY,,,0403 741874,,info@ebonyhairextensions.com,www.ebonyhairextensions.com,Hair,9511,Hairdressing and Beauty Services
ABS,31161,11531164,EHE Spa,7 Hickson Rd,The Rocks,NSW,2000,SYDNEY,02 92561633,,,,phsydney.spa@hyatt.com,www.sydney.park.hyatt.com,Massage and Spa,9511,Hairdressing and Beauty Services
ABS,31243,11531246,Ella Rouge Beauty,"Wynyard Centre, Shop G 48-50, Georgie St",Sydney,NSW,2000,SYDNEY,02 92625358,,,,wynyard@ellarouge.com.au,,Beauty,9511,Hairdressing and Beauty Services
ABS,31244,11531247,Ella Rouge Beauty,"Sydney Centrepoint Westfield, Shop 2008, Level 2, 1050/188 Pitt St",Sydney,NSW,2000,SYDNEY,02 92625358,,,,centrepoint@ellarouge.com.au,,Beauty,9511,Hairdressing and Beauty Services
ABS,31245,11531248,Ella Rouge Beauty,"Wynyard Metcentre, Shop G 16c, Cnr George and Margaret Sts",Sydney,NSW,2000,SYDNEY,02 92473555,,,,metcentre@ellarouge.com.au,,Beauty,9511,Hairdressing and Beauty Services
ABS,31246,11531249,Ella Rouge Beauty,"Sydney Central Plaza Westfield, Shop 15, Lower Ground, 450 George St",Sydney,NSW,2000,SYDNEY,02 92390800,,,,sydneycentral@ellarouge.com.au,,Beauty,9511,Hairdressing and Beauty Services
ABS,31266,11531269,Elvis Hair Studio,Harbourside Shopping Centre Shop 241/ 10 Darling Dr,Sydney,NSW,2000,SYDNEY,02 92802190,,,,info@elvishairstudio.com.au,www.elvishairstudio.com.au,Hair,9511,Hairdressing and Beauty Services
ABS,31272,11531275,Elyston Hayden Hair,139 York St,Sydney,NSW,2000,SYDNEY,02 92612031,,,,contact@elystonhaydenhair.com.au,www.elystonhaydenhair.com.au,Hair,9511,Hairdressing and Beauty Services
ABS,31284,11531287,Emilio Boutique,429-481 George St,Sydney,NSW,2000,SYDNEY,02 92611153,,,,emilio@emilio.com.au,www.emilio.com.au,Hair,9511,Hairdressing and Beauty Services
ABS,31427,11531430,Ernest Bonnefoy,28 Lime St,Sydney,NSW,2000,SYDNEY,02 92996221,,,,bonnefoy@bigpond.com,,Hair,9511,Hairdressing and Beauty Services
ABS,31540,11531543,Evolution Laser Clinic,"Stockland Picadilly Shopping Centre, Shop 19/ 210 Pitt St",Sydney,NSW,2000,SYDNEY,02 97124188,,,,fivedock@evolutionlaser.com.au,www.evolutionlaser.com.au,Beauty,9511,Hairdressing and Beauty Services
ABS,31611,11531614,Eye Of Envy Hair Extensions,,Sydney,NSW,2000,SYDNEY,,,0411 335077,,info@eyeofenvy.com,www.eyeofenvy.com,Hair,9511,Hairdressing and Beauty Services
ABS,31645,11531648,Face of Man,Watson House Level 10 300 George St,Sydney,NSW,2000,SYDNEY,02 92327138,,,,info@faceofman.com.au,www.faceofman.com.au,Beauty,9511,Hairdressing and Beauty Services
ABS,31662,11531665,Fairybeauty,91 Liverpool St,Sydney,NSW,2000,SYDNEY,,,0420 736298,,ferresferres@hotmail.com,www.fairybeauty.com.au,Beauty,9511,Hairdressing and Beauty Services
ABS,32328,11532331,Future Cutz Hair Design,Corner Hunter and Elizabeth Street,Sydney,NSW,2000,SYDNEY,02 92300011,,,,officeofhair@bigpond.com,www.officeofhair.com.au,Hair,9511,Hairdressing and Beauty Services
ABS,32605,11532608,Get Threaded,Ground Floor 18/ 273 George St,Sydney,NSW,2000,SYDNEY,,1300 277122,,,admin@getthreadednow.com,www.getthreadednow.com/,Beauty,9511,Hairdressing and Beauty Services
ABS,32665,11532668,Ginger Hair,Centanial Plaza Tower Basement Shop 9 Ground Floor 280 Elizabeth St,Sydney,NSW,2000,SYDNEY,02 92813898,,,,pauline@gingerhair.com.au,www.gingerhair.com.au,Hair,9511,Hairdressing and Beauty Services
ABS,33237,11533240,Hair & Make Up by Rowena,,Sydney,NSW,2000,SYDNEY,,,0412 299168,,allinarow@hotmail.com,www.makeupbyrowena.com,Hair,9511,Hairdressing and Beauty Services
ABS,33238,11533241,Hair @ Wentworth,61 Phillip St,Sydney,NSW,2000,SYDNEY,02 92352162,,,,info@hairatwentworth.com.au,www.hairatwentworth.com.au,Hair,9511,Hairdressing and Beauty Services
ABS,33241,11533244,Hair by Jessica Leanne,6 Netherbyes Way,Sydney,NSW,2000,SYDNEY,,,0415 585285,,jessicapirie@gmail.com,,Hair,9511,Hairdressing and Beauty Services
ABS,33252,11533255,Hair Solutions Sydney London New York,Shop G 10 77 York St,Sydney,NSW,2000,SYDNEY,02 92992664,,,,hairsolutions.sydney@gmail.com,,Hair,9511,Hairdressing and Beauty Services
ABS,33255,11533258,HairFree,424 428 George St,Sydney,NSW,2000,SYDNEY,,1300 424737,,,info@hairfreeplus.com.au,www.hairremovalbyhairfree.com.au,Beauty,9511,Hairdressing and Beauty Services
ABS,33508,11533511,Healthpac Medical Centre,Lower Ground 59 Goulburn St,Sydney,NSW,2000,SYDNEY,02 92829725,,,02 92829721,info@healthpac.com.au,www.healthpac.com.au,Beauty,9511,Hairdressing and Beauty Services
ABS,33931,11533934,"How-to Beauty Tips, Advice, Celebrity Beauty Secrets - Rouge Mag Australia",,Sydney,NSW,2000,SYDNEY,,,0435 820093,,Rougemagmedia@gmail.com,www.rougemag.com.au/,Beauty,9511,Hairdressing and Beauty Services
ABS,34181,11534184,Illusion Hair,Shop 5/ 61-79 Quay St,Haymarket,NSW,2000,SYDNEY,02 80846676,,,,illusionhair.art@gmail.com,,Hair,9511,Hairdressing and Beauty Services
ABS,34393,11534397,Instyle Hair Artistry Pty Ltd,Market City/ R 1.19/ Hay St,Haymarket,NSW,2000,SYDNEY,02 92819088,,,,instylehair2014@hotmail.com,,Hair,9511,Hairdressing and Beauty Services
ABS,34562,11534566,"IPL, RF, Laser beauty equipments",Park Street St,Sydney,NSW,2000,SYDNEY,02 67619636,,,,zcjzcj45@sina.com,www.neugoal.com,Beauty,9511,Hairdressing and Beauty Services
ABS,35134,11535138,Kamil's Hairdressing,"Shop 20, Piccadilly Arcade, 210 Pitt St Sydney",Sydney,NSW,2000,SYDNEY,02 92337774,,,,kamilshairdressing@hotmail.com,www.kamilshairdressing.com,Hair,9511,Hairdressing and Beauty Services
ABS,35173,11535177,Karl Azzi Hairdressers,Shp 2015/188 Pitt Street Mall,Sydney,NSW,2000,SYDNEY,02 92219404,,,,info@karlazzi.com,www.karlazzi.com,Hair,9511,Hairdressing and Beauty Services
ABS,35408,11535412,Know Your Own Skin,Level 13 338 Pitt St,Sydney,NSW,2000,SYDNEY,02 92680242,,,,jay@knowyourownskin.com.au,www.knowyourownskin.com.au/,Beauty,9511,Hairdressing and Beauty Services
ABS,35610,11535614,Laser Hair Removal by Sia Sydney,2001/ 109 Pitt St,Sydney,NSW,2000,SYDNEY,02 92320626,,,,info@laserhairremovalbysia.com.au,www.laserhairremovalbysia.com.au,Beauty,9511,Hairdressing and Beauty Services
ABS,35616,11535620,Lash Blossom,Level 1 Suite 109 147 King St,Sydney,NSW,2000,SYDNEY,,,0415 706836,,eyelashblossom@gmail.com,www.lashblossom.com,Beauty,9511,Hairdressing and Beauty Services
ABS,35622,11535626,L'atelier,Shop 7/ 352 Sussex St,Sydney,NSW,2000,SYDNEY,02 80406828,,,,latelierbykn1207@gmail.com,,Hair,9511,Hairdressing and Beauty Services
ABS,35939,11535943,Liquid Sun Spray Tanning,171 Gloucester St,The Rocks,NSW,2000,SYDNEY,,,0423 251135,,dburton2010@live.com.au,,Solarium and Tanning,9511,Hairdressing and Beauty Services
ABS,36059,11536063,Lo'Sasso Nicholas Hair & Beauty Salon,Lvl 5/ 424-428 George St,Sydney,NSW,2000,SYDNEY,02 92325156,,,,nlosasso57@gmail.com,www.nicholaslosassohairandbeauty.com,Hair,9511,Hairdressing and Beauty Services
ABS,36402,11536406,Manipulate Hair Studio,Ground Floor 1/ 152 Clarence St,Sydney,NSW,2000,SYDNEY,02 92990707,,,,info@manipulatehair.com.au,www.manipulatehair.com.au,Hair,9511,Hairdressing and Beauty Services
ABS,37417,11537421,MOHS HAIR & BEAUTY,Shop 1/ 21 Nurses Walk,The Rocks,NSW,2000,SYDNEY,,,0405 907137,,mohsrocks@yahoo.com.au,www.mohsrocks.com.au,Hair,9511,Hairdressing and Beauty Services
ABS,37812,11537816,Mystique Beauty Bar,Shop 463-464/ Hay St,Sydney,NSW,2000,SYDNEY,,,0401 855700,,rupi_rupika@yahoo.co.in,www.mystiquebeautybar.com.au,Beauty,9511,Hairdressing and Beauty Services
ABS,37813,11537817,Mystique Beauty Bar,Paddy''s Markets,Sydney,NSW,2000,SYDNEY,,,0423 616053,,mystiquebeautybar@gmail.com,www.mystiquebeautybar.com.au,Beauty,9511,Hairdressing and Beauty Services
ABS,37849,11537853,Nail Candi,,Sydney,NSW,2000,SYDNEY,,,0415 560057,,kerri22@fsmail.net,,Beauty,9511,Hairdressing and Beauty Services
ABS,37929,11537933,Native Beauty & Hair,Shop 3 Tower 2 201 Sussex St,Sydney,NSW,2000,SYDNEY,02 95199575,,,,native_beauty@bigpond.com,www.nativebeauty.com.au,Hair,9511,Hairdressing and Beauty Services
ABS,39330,11539334,Permanence,"Suite 5, Level 3, 428 George St",Sydney,NSW,2000,SYDNEY,02 92218594,,,,info@permanence.com.au,www.permanence.com.au,Beauty,9511,Hairdressing and Beauty Services
ABS,39334,11539338,Permanence Electrolysis,"Dymocks Building, Suite 5, Level 3, 428 George St",Sydney,NSW,2000,SYDNEY,02 97191391,,,,noreen@permanence.com.au,www.permanence.com.au,Beauty,9511,Hairdressing and Beauty Services
ABS,39542,11539546,Pierre Haddad Hair Management,Chifley Plaza Bent St,Sydney,NSW,2000,SYDNEY,02 92353500,,,,info@pierrehaddad.com,www.pierrehaddad.com,Hair,9511,Hairdressing and Beauty Services
ABS,40301,11540305,Quintessential Health & Beauty Centre,Suite 405/ Level 4/ 250 Pitt St,Sydney,NSW,2000,SYDNEY,,,0407 286186,,quinthealthbeauty@yahoo.com.au,www.qhealthbeauty-911.com,Beauty,9511,Hairdressing and Beauty Services
ABS,40650,11540654,Renya Xydis City,172 Castlereagh St,Sydney,NSW,2000,SYDNEY,02 92648888,,,,renyaxydiscity@valonz.com.au,www.valonz.com.au/salons/renya-xydis-city/,Hair,9511,Hairdressing and Beauty Services
ABS,40687,11540691,Results Laser Hair Removal Clinic,Suite 101 Level 1 280 George St,Sydney,NSW,2000,SYDNEY,02 92234088,1300 722432,,,info@resultslaserclinic.com.au,www.resultslaserclinic.com.au,Beauty,9511,Hairdressing and Beauty Services
ABS,41204,11541208,Sabby Hair Boutique,Shop 4/ 50 Hunter St,Sydney,NSW,2000,SYDNEY,02 92390899,,,,enquiries@sabbyhairboutique.com.au,www.sabbyhairboutique.com.au,Hair,9511,Hairdressing and Beauty Services
ABS,41380,11541384,Savvy Hair Boutique - Hair Salon Sydney,Shop 4/ 50 Hunter St,Sydney,NSW,2000,SYDNEY,02 92390988,,,,enquiries@savvyhairboutique.com.au,www.savvyhairboutique.com.au,Beauty,9511,Hairdressing and Beauty Services
ABS,41509,11541513,Sebastian Salons,Level 9 117 Macquarie St,Sydney,NSW,2000,SYDNEY,02 92472083,,,,sebastian@sebastiansalons.com.au,www.sebastiansalons.com.au,Hair,9511,Hairdressing and Beauty Services
ABS,42204,11542208,Solace,The Grace Hotel 77 York St,Sydney,NSW,2000,SYDNEY,02 92332961,,,,bookingsolace@gmail.com,www.solacehair.com.au,Hair,9511,Hairdressing and Beauty Services
ABS,42308,11542312,Spa & Sport Sydney,Level 10/ 68 Market St,Sydney,NSW,2000,SYDNEY,02 92387777,,,,spasport.sydney@swissotel.com,www.cityspaandsport.com.au,Massage and Spa,9511,Hairdressing and Beauty Services
ABS,43091,11543096,Sydney Barber Shops Pty Ltd,GrndFlr/ 142 Clarence St,Sydney,NSW,2000,SYDNEY,,,0416 574461,,sydneybarbershops@hotmail.com,www.sydneybarbershops.com.au,Hair,9511,Hairdressing and Beauty Services
ABS,43238,11543243,Sydney Eyelashes,Ground Floor 77 York St,Sydney,NSW,2000,SYDNEY,,,0430 410113,,kate@sydneyeyelashes.com.au,www.SydneyEyelashes.com.au,Beauty,9511,Hairdressing and Beauty Services
ABS,43326,11543331,Sydney Lashes,135 137 Macquarie St,Sydney,NSW,2000,SYDNEY,,,0431 025604,,info@sydneylashes.com.au,,Beauty,9511,Hairdressing and Beauty Services
ABS,43915,11543920,V Beauty International,Level 3 95 Bathurst St,Sydney,NSW,2000,SYDNEY,02 89644998,,,,vbeauty810@gmail.com,,Beauty,9511,Hairdressing and Beauty Services
ABS,44340,11544345,Sydney Wedding Makeup Artistry,22 Margaret St,Sydney,NSW,2001,SYDNEY,,,0406 212050,,sarahsponberg@gmail.com,www.sydneyweddingmakeupartistry.com.au,Hair,9511,Hairdressing and Beauty Services
ABS,44738,11544743,Collagen Treatment,37 Bay St,Broadway,NSW,2007,SYDNEY,02 95526277,,,,advice@heberdavis.com.au,,Beauty,9511,Hairdressing and Beauty Services
ABS,44865,11544870,Ella Bache Broadway,"L 1, Shop 108 1 Bay St The Broadway Centre Broadway",Broadway,NSW,2007,SYDNEY,02 92118102,,,,ebbroadway@optusnet.com.au,www.ellabache.com.au/broadway,Beauty,9511,Hairdressing and Beauty Services
ABS,46070,11546075,I YOU STUDIO,Ste 9/ 822 George St,Chippendale,NSW,2008,SYDNEY,,,0420 377041,,info@iyoustudio.com,www.iyoustudio.com/,Beauty,9511,Hairdressing and Beauty Services
ABS,46509,11546514,Asian Hair & Makeup,,Pyrmont,NSW,2009,SYDNEY,,,0406 922891,,info@asianhairandmakeup.com.au,www.asianhairandmakeup.com.au,Beauty,9511,Hairdressing and Beauty Services
ABS,46658,11546663,Cheeky's Hair Studio,147/ 313 Harris St,Pyrmont,NSW,2009,SYDNEY,02 95185999,,,,zacharias.sara68@gmail.com,,Hair,9511,Hairdressing and Beauty Services
ABS,47042,11547047,Madame Korner,One Union Sq,Pyrmont,NSW,2009,SYDNEY,02 95189979,,,02 95189989,mkorners@aol.com,www.madamekorner.com,Beauty,9511,Hairdressing and Beauty Services
ABS,47104,11547109,navilash (eyelash extension&waxing),115A Harris St,Pyrmont,NSW,2009,SYDNEY,,,0450 882667,,navilash@yahoo.com.au,,Beauty,9511,Hairdressing and Beauty Services
ABS,47163,11547168,Panpuri Organic Spa Sydney,55 Miller St,Pyrmont,NSW,2009,SYDNEY,02 96601916,,,,reservation@panpuriorganicspa.com.au,www.panpuriorganicspa.com.au,Massage and Spa,9511,Hairdressing and Beauty Services
ABS,47305,11547310,Salon 27,194 Harris St,Pyrmont,NSW,2009,SYDNEY,02 95719678,,,,info@salon27.com.au,,Hair,9511,Hairdressing and Beauty Services
ABS,47381,11547386,Styling Station,243 Pyrmont St,Pyrmont,NSW,2009,SYDNEY,,,0418 471175,,katie@stylingstation.com.au,www.stylingstation.com.au,Hair,9511,Hairdressing and Beauty Services
ABS,47429,11547434,Taboo Hair Studio,Shop 1/ 104 Pyrmont St,Pyrmont,NSW,2009,SYDNEY,02 96604666,,,,taboohairstudios@hotmail.com.au,,Hair,9511,Hairdressing and Beauty Services
ABS,47521,11547526,Vinci Hair Clinic,1 Union St,Pyrmont,NSW,2009,SYDNEY,02 89166144,,,,ken@vincihairlcinic.com,www.vinciscalppigmentation.com,Beauty,9511,Hairdressing and Beauty Services
ABS,47758,11547763,Aleisha-Jane Beauty,340 Crown St,Surry Hills,NSW,2010,SYDNEY,02 93313236,,,,info@aleisha-jane.com.au,www.aleisha-jane.com.au,Beauty,9511,Hairdressing and Beauty Services
ABS,47762,11547767,alexpfjackson Hair and Make up,Level 1 397 Liverpool St,Darlinghurst,NSW,2010,SYDNEY,,,0403 217122,,alexpfjackson@gmail.com,www.alexpfjackson-hairandmakeup.com,Hair,9511,Hairdressing and Beauty Services
ABS,48070,11548075,Babi Colour Lounge,185 Crown St,Darlinghurst,NSW,2010,SYDNEY,,,0406 982570,,babicolourlounge@hotmail.com,www.babicolourlounge.com.au,Hair,9511,Hairdressing and Beauty Services
ABS,48343,11548348,Brow Guy,Suite 8/ 596 Crown St,Surry Hills,NSW,2010,SYDNEY,,,0410 520440,,MyBrowGuy@hotmail.com,www.BrowGuy.com,Beauty,9511,Hairdressing and Beauty Services
ABS,48362,11548367,Budget Safe Haircut,Shop 2 84-86 Mary St,Surry Hills,NSW,2010,SYDNEY,,,0422 661441,,marwan_dawood@yahoo.com.au,,Hair,9511,Hairdressing and Beauty Services
ABS,48428,11548433,caitlin coleman hairdressing,672 Bourke St,Surry Hills,NSW,2010,SYDNEY,,,0412 021700,,caitlin@caitlincolemanhairdressing.com,www.caitlincolemanhairdressing.com,Hair,9511,Hairdressing and Beauty Services
ABS,48432,11548437,California Nails,Oxford Square Shop 25/ 61-65 Oxford St,Darlinghurst,NSW,2010,SYDNEY,02 92830830,,,,yenlinh21@yahoo.com.au,,Nails,9511,Hairdressing and Beauty Services
ABS,48612,11548617,Chops N Charlie,6 Stanley St,Darlinghurst,NSW,2010,SYDNEY,02 80659910,,,,chopsncharlie@gmail.com,www.chopsncharlie.com,Hair,9511,Hairdressing and Beauty Services
ABS,48629,11548634,Ciao Bella Salon,Suite 6 Lower Ground 32A Oxford St,Darlinghurst,NSW,2010,SYDNEY,,,,,enquiry@ciaobellabeautysalons.com.au,www.ciaobellaonline.com.au,Beauty,9511,Hairdressing and Beauty Services
ABS,48630,11548635,Ciao Bella Salon,"Suite 2, Level 1, 32a Oxford Street",Darlinghurst,NSW,2010,SYDNEY,02 93610612,,,,inaclow@hotmail.com,www.ciaobellaonline.com.au,Beauty,9511,Hairdressing and Beauty Services
ABS,48690,11548695,Coder Factory,91 Campbell St,Surry Hills,NSW,2010,SYDNEY,,1300 884095,,,info@thecoderfactory.com,www.coderfactory.co,Beauty,9511,Hairdressing and Beauty Services
ABS,48906,11548911,Dario Salon,36 Kings Lane,Darlinghurst,NSW,2010,SYDNEY,02 93802246,,,,salon@dario.com.au,www.dcieducation.com,Hair,9511,Hairdressing and Beauty Services
ABS,49046,11549051,District Salon,352 Bourke St,Surry Hills,NSW,2010,SYDNEY,02 93318635,,,,hello@districtsalon.com.au,www.districtsalon.com.au,Hair,9511,Hairdressing and Beauty Services
ABS,49063,11549068,Dollface Beauty,187 Crown St,Darlinghurst,NSW,2010,SYDNEY,,,0401 704901,,info@dollfacebeauty.com.au,www.dollfacebeauty.com.au,Beauty,9511,Hairdressing and Beauty Services
ABS,49213,11549218,Eloura Lifestyle Salon & Spa,507 Crown St,Surry Hills,NSW,2010,SYDNEY,02 83993814,,,,info@elouralifestyle.com.au,www.elouralifestyle.com.au,Hair,9511,Hairdressing and Beauty Services
ABS,49361,11549366,Fiona Hay,1/ 255 Riley St,Surry Hills,NSW,2010,SYDNEY,02 92127516,,,,enquiries@fionahay.com,www.fionahay.com,Nails,9511,Hairdressing and Beauty Services
ABS,49556,11549561,Ginardi Hair,314 Bourke Street Taylor Square,Surry Hills,NSW,2010,SYDNEY,02 93315911,,,,ginardihair@bigpond.com,www.ginardihair.com/,Hair,9511,Hairdressing and Beauty Services
ABS,49668,11549673,Hair By Christos,102 Oxford St,Darlinghurst,NSW,2010,SYDNEY,,,0411 363609,,christoshair@hotmail.com,,Hair,9511,Hairdressing and Beauty Services
ABS,49670,11549675,Hair By Jorge Alfaro,Studio 3/ 220 Liverpool St,Darlinghurst,NSW,2010,SYDNEY,02 83540544,,,,jorge@jorgealfaro.com,www.jorgealfaro.com,Hair,9511,Hairdressing and Beauty Services
ABS,49671,11549676,Hair By Sa,Shop 2/ 256 Crown St,Darlinghurst,NSW,2010,SYDNEY,02 93571140,,,,hairbysa@gmail.com,www.hairbysa.com,Hair,9511,Hairdressing and Beauty Services
ABS,50021,11550026,jake mccall,69 Stanley St,Darlinghurst,NSW,2010,SYDNEY,,,0401 207895,,jake.a.mccall@gmail.com,,Hair,9511,Hairdressing and Beauty Services
ABS,50097,11550102,Just Spa&Nails,318 Bourke St,Surry Hills,NSW,2010,SYDNEY,02 80416813,,,,justspaandnails@gmail.com,,Nails,9511,Hairdressing and Beauty Services
ABS,50191,11550196,Kiti Katto,331 South Dowling St,Darlinghurst,NSW,2010,SYDNEY,02 80658595,,,,kat@kitikatto.com,www.kitikatto.com.au,Hair,9511,Hairdressing and Beauty Services
ABS,50331,11550336,Lily Jackson Hair & Makeup,Level 1/ 227 Victoria St,Darlinghurst,NSW,2010,SYDNEY,02 93608708,,,,mail@lilyjackson.com.au,www.lilyjackson.com.au,Hair,9511,Hairdressing and Beauty Services
ABS,50457,11550462,Makeup by Milla,60 Sophia St,Surry Hills,NSW,2010,SYDNEY,02 80066775,,,,hello@bymilla.com,www.bymilla.com,Beauty,9511,Hairdressing and Beauty Services
ABS,50479,11550484,Mankind,425 Crown St,Surry Hills,NSW,2010,SYDNEY,02 90810222,,,,info@mankind.com.au,www.mankind.com.au,Beauty,9511,Hairdressing and Beauty Services
ABS,50628,11550633,Michael.Geoffrey.Jardine.Hair.Design,10A Fitzroy Pl,Surry Hills,NSW,2010,SYDNEY,,,0415 917540,,jardinemichael@yahoo.com,www.michaelgjardinehairdesign.vpweb.com.au,Hair,9511,Hairdressing and Beauty Services
ABS,50642,11550647,Millk Medi Spa,Lvl 1 / 177 Oxford St,Darlinghurst,NSW,2010,SYDNEY,02 83540318,,,,peter@millkstudios.com,www.millkstudios.com,Massage and Spa,9511,Hairdressing and Beauty Services
ABS,50658,11550663,Minx Hair Studio,729 Bourke St,Surry Hills,NSW,2010,SYDNEY,02 93193989,,,,minxhairstudio@gmail.com,www.minxhairstudio.com,Hair,9511,Hairdressing and Beauty Services
ABS,50664,11550669,Mirror Mirror Beauty,Level 1/ 351 Riley St,Surry Hills,NSW,2010,SYDNEY,02 92801113,,,,info@mmbeauty.com.au,www.mirrormirrorbeauty.com.au,Beauty,9511,Hairdressing and Beauty Services
ABS,50777,11550782,Muse Hair Pty Ltd,429 Crown St,Surry Hills,NSW,2010,SYDNEY,02 96991137,,,,shampoo@musehair.com.au,www.musehair.com.au,Hair,9511,Hairdressing and Beauty Services
ABS,50800,11550805,Mystic Tan UV Free Private 28sec Spray Booth,88 Oxford St,Darlinghurst,NSW,2010,SYDNEY,02 93572870,,,,shane@courtneyact.com,www.wigsbyvanity.citysearch.com.au,Beauty,9511,Hairdressing and Beauty Services
ABS,50964,11550969,One Fine Day,686 Bourke St,Surry Hills,NSW,2010,SYDNEY,02 96989648,,,,info@onefineday.com.au,www.onefineday.com.au,Beauty,9511,Hairdressing and Beauty Services
ABS,51110,11551115,Pebble Hair,157 Campbell St,Surry Hills,NSW,2010,SYDNEY,02 92114455,,,,info@pebblehair.com.au,www.pebblehair.com.au,Hair,9511,Hairdressing and Beauty Services
ABS,51169,11551174,Phoebe Dawson Makeup Artist,,Surry Hills,NSW,2010,SYDNEY,,,0405 961120,,phoebe.dawson@gmail.com,,Beauty,9511,Hairdressing and Beauty Services
ABS,51356,11551361,QUE colour,185 Crown St,Darlinghurst,NSW,2010,SYDNEY,02 93314444,,,,info@quecolour.com,www.moniquemcmahoncolor.com,Hair,9511,Hairdressing and Beauty Services
ABS,51388,11551393,Raw Hair Sydney,30 Burton St,Darlinghurst,NSW,2010,SYDNEY,02 93805370,,,,rawhair@rawhair.com.au,www.rawhair.com.au,Hair,9511,Hairdressing and Beauty Services
ABS,51718,11551723,Sexy Nails,430 Cleveland St,Surry Hills,NSW,2010,SYDNEY,02 96988990,,,,sexy.nails@optusnet.com.au,,Beauty,9511,Hairdressing and Beauty Services
ABS,51722,11551727,Shairspace,1 336 Victoria St,Darlinghurst,NSW,2010,SYDNEY,,,0401 773378,,info@shairspace.com.au,www.shairspace.com.au,Hair,9511,Hairdressing and Beauty Services
ABS,52040,11552045,Surry Cutters,525A Crown St,Surry Hills,NSW,2010,SYDNEY,02 96986827,,0413 694928,,surrycutters@bigpond.com,www.surrycuttersforhair.com,Hair,9511,Hairdressing and Beauty Services
ABS,52168,11552173,Sydney Salon Supplies,100 Commonwealth St,Surry Hills,NSW,2010,SYDNEY,02 92114444,,,,sydneysalonsupplies@statua.com.au,www.sydneysalonsupplies.com.au,Beauty,9511,Hairdressing and Beauty Services
ABS,52290,11552295,The Beauty Room,220 Goulburn St,Darlinghurst,NSW,2010,SYDNEY,02 92124844,,,,thebeautyroommosman@bigpond.com,www.thebeautyroom.com.au,Beauty,9511,Hairdressing and Beauty Services
ABS,52324,11552329,The Empress Hair,355 Crown St,Surry Hills,NSW,2010,SYDNEY,,,0405 310216,,emeliegrace83@gmail.com,www.TheEmpressHair.com.au,Hair,9511,Hairdressing and Beauty Services
ABS,52345,11552350,The Last Strand,214 Devonshire St,Surry Hills,NSW,2010,SYDNEY,02 93182299,,,,info@thelaststrand.com.au,,Hair,9511,Hairdressing and Beauty Services
ABS,52378,11552383,The Prep Room,Shop 1/ 37 Foster St,Surry Hills,NSW,2010,SYDNEY,02 80686845,,,,kl@thepreproom.com.au,www.thepreproom.com.au,Hair,9511,Hairdressing and Beauty Services
ABS,52489,11552494,Tonique Hair,69 Stanley St,Darlinghurst,NSW,2010,SYDNEY,02 93313895,,,,darlinghurst@toniquehair.com,www.toniquehair.com,Hair,9511,Hairdressing and Beauty Services
ABS,52894,11552900,Zen Day Spa,116-118 Darlinghurst Rd,Darlinghurst,NSW,2010,SYDNEY,02 93614590,,,,woollahra@zendayspa.com.au,www.zendayspa.com.au,Beauty,9511,Hairdressing and Beauty Services
ABS,52964,11552970,Amy Nails & Waxing,3/ 188 McElhone St,Woolloomooloo,NSW,2011,SYDNEY,02 93680340,,,,hoai.amy18@gmail.com,,Nails,9511,Hairdressing and Beauty Services
ABS,53043,11553049,Beauty Odyssey,13 Darlinghurst Rd,Potts Point,NSW,2011,SYDNEY,02 93310880,,,,beautyodyssey@outlook.com,www.beauty-odyssey.com.au/,Beauty,9511,Hairdressing and Beauty Services
ABS,53181,11553187,Cut Plus Hairdressing,Kings Cross Center Shop TG 07/ 82 Darlinghurst Rd,Potts Point,NSW,2011,SYDNEY,02 93581661,,,,lnagi@bigpond.com,,Hair,9511,Hairdressing and Beauty Services
ABS,53241,11553247,Edo Hair Design & Beauty,102 Cathedral St,Woolloomooloo,NSW,2011,SYDNEY,02 93603453,,,,edohair@optusnet.com.au,www.edohair.com.au,Hair,9511,Hairdressing and Beauty Services
ABS,54043,11554049,Tatjana Vaune,Shop 3 51 Bayswater Rd Rd,Potts Point,NSW,2011,SYDNEY,,,0406 053005,,NydiaDamm30@gmail.com,,Hair,9511,Hairdressing and Beauty Services
ABS,54109,11554115,Therapy Hair & Makeup Pty Ltd,Suite 1 27 Challis Ave,Potts Point,NSW,2011,SYDNEY,02 93600000,,,,therapy000@aol.com,www.therapyhairandmakeup.com,Hair,9511,Hairdressing and Beauty Services
ABS,54208,11554214,Viva Hair Salon,1/ 75 Macleay St,Potts Point,NSW,2011,SYDNEY,02 80840228,,,,reception@vivasalon.com.au,www.vivasalon.com.au,Hair,9511,Hairdressing and Beauty Services
ABS,54758,11554764,BEAUTYcrew,8 Central Ave,Eveleigh,NSW,2015,SYDNEY,02 93942000,,,,beautycrew@pacificmags.com.au,www.beautycrew.com.au,Beauty,9511,Hairdressing and Beauty Services
ABS,55843,11555850,Luxe Skincare,1.1 Graphix Row,Alexandria,NSW,2015,SYDNEY,02 96693246,,,,beauty@salon65.com.au,www.luxeskincare.com.au,Beauty,9511,Hairdressing and Beauty Services
ABS,55875,11555882,Marli Rose Hairdressing,21 Fountain St,Alexandria,NSW,2015,SYDNEY,02 96984809,,,,info@marlirose.com.au,www.marlirose.com.au,Hair,9511,Hairdressing and Beauty Services
ABS,56569,11556576,Style Patisserie,Unit 7/ 51 Bourke Rd,Alexandria,NSW,2015,SYDNEY,02 80958112,,,,sales@stylepatisserie.com,www.stylepatisserie.com/,Beauty,9511,Hairdressing and Beauty Services
ABS,56677,11556684,Tanning Angel,,Alexandria,NSW,2015,SYDNEY,,,0424 700577,,info@tanningangel.com.au,www.tanningangel.com.au,Solarium and Tanning,9511,Hairdressing and Beauty Services
ABS,56944,11556951,White Runway,Suite 21 Collins St,Alexandria,NSW,2015,SYDNEY,,1300 133839,,,shop@whiterunway.com.au,www.whiterunway.com.au/,Hair,9511,Hairdressing and Beauty Services
ABS,56958,11556965,Wise Education Group,110-116 Bourke Rd,Alexandria,NSW,2015,SYDNEY,,1300 771192,,,enquiry@wise.edu.au,www.wise.edu.au,Beauty,9511,Hairdressing and Beauty Services
ABS,57188,11557195,Chicanos Barber Shop,157 Regent St,Redfern,NSW,2016,SYDNEY,02 80846660,,,,hola@chicanos.com.au,www.chicanos.com.au,Hair,9511,Hairdressing and Beauty Services
ABS,57403,11557410,Jad Hair LANY Sydney,Shop 8/ 159-161 Redfern St,Redfern,NSW,2016,SYDNEY,02 96994422,,,,salon@jadhairlanysydney.com.au,www.jadhairlanysydney.com.au,Hair,9511,Hairdressing and Beauty Services
ABS,57618,11557625,Redfern Barber Shop,3/ 1-3 Botany Rd,Redfern,NSW,2016,SYDNEY,,,0401 979187,,redfernbarbershop@gmail.com,www.redfernbarbershop.com.au,Hair,9511,Hairdressing and Beauty Services
ABS,57719,11557726,Stanley & Co,15 Woodburn St,Redfern,NSW,2016,SYDNEY,,,0449 264839,,joe@stanislawandco.com,www.stanleyandcohair.com,Hair,9511,Hairdressing and Beauty Services
ABS,57955,11557962,Crown Royal Barbers,U 262/ 2 Potter St,Waterloo,NSW,2017,SYDNEY,02 83991376,,,,crownroyalbarbers@hotmail.com,www.crownroyalbarbers.com.au,Hair,9511,Hairdressing and Beauty Services
ABS,58115,11558122,Mobile Spray Tans by Jac,Defries Ave,Zetland,NSW,2017,SYDNEY,,,0414 762455,,jaclynsainsbury85@hotmail.com,,Solarium and Tanning,9511,Hairdressing and Beauty Services
ABS,58214,11558221,Urban Escape,27B Botany Rd,Waterloo,NSW,2017,SYDNEY,02 96997788,,,,urbanescape@bigpond.com,,Beauty,9511,Hairdressing and Beauty Services
ABS,58323,11558330,Arganeco,4 Spring St,Rosebery,NSW,2018,SYDNEY,,,0424 241306,,info@arganeco.com.au,www.arganeco.com.au,Beauty,9511,Hairdressing and Beauty Services
ABS,58376,11558383,Beauty At Shine,Shop 4/ Crewe Pl,Rosebery,NSW,2018,SYDNEY,02 90163886,,,,info@beautyatshine.com.au,www.beautyatshine.com.au,Beauty,9511,Hairdressing and Beauty Services
ABS,58636,11558643,Fresh Skin Care,343 Gardeners Rd,Rosebery,NSW,2018,SYDNEY,02 96691143,,,,freshskincare@bigpond.com,www.freshskinandbrowbar.com.au,Beauty,9511,Hairdressing and Beauty Services
ABS,58839,11558846,Navajo Hair Co. - Feather Hair Extensions,,Rosebery,NSW,2018,SYDNEY,,1300 304858,,,sales@navajohairco.com.au,www.featherhairextensions.com.au,Hair,9511,Hairdressing and Beauty Services
ABS,59227,11559234,About Face Salon Supplies,Unit 9 10-18 Ocean St,Banksmeadow,NSW,2019,SYDNEY,02 80847311,,,,aboutfacesydney@gmail.com,www.aboutfaceonline.com.au/,Beauty,9511,Hairdressing and Beauty Services
ABS,60207,11560214,Misty Hair,1407 Botany Rd,Botany,NSW,2019,SYDNEY,02 96957771,,,,benedettalos@yahoo.com,,Hair,9511,Hairdressing and Beauty Services
ABS,60209,11560216,MM Beauty Equipment Service P/ L,60 Banksia St,Botany,NSW,2019,SYDNEY,02 96951960,,,,mmbsydney@optusnet.com.au,www.beautyequipment.com.au,Beauty,9511,Hairdressing and Beauty Services
ABS,60831,11560838,Aero Hair Design,Shop 3/ 635 Gardeners Rd,Mascot,NSW,2020,SYDNEY,02 97008992,,,,aerohair@exemail.com.au,www.aero-hairdesign.com.au,Hair,9511,Hairdressing and Beauty Services
ABS,61036,11561043,Botanica99,99 King St,Mascot,NSW,2020,SYDNEY,,1300 754699,,,cardiapatterson@live.com.au,www.botanica99.com.au,Beauty,9511,Hairdressing and Beauty Services
ABS,61377,11561384,Hair Extensions,,Mascot,NSW,2020,SYDNEY,,,0410 788261,,secretbeauty@hotmail.com.au,,Hair,9511,Hairdressing and Beauty Services
ABS,61416,11561423,Hyatt\'s Hair Studio,Shop 9 1-5 Bourke St,Mascot,NSW,2020,SYDNEY,02 83380072,,,,hyattssalon@gmail.com,www.hyattssalon.com.au,Hair,9511,Hairdressing and Beauty Services
ABS,61417,11561424,Hyatt's Salon,Shop 9a/ 1-5 Bourke St,Mascot,NSW,2020,SYDNEY,02 83380072,,,,harleyshair5@gmail.com,www.hyattssalon.com.au,Hair,9511,Hairdressing and Beauty Services
ABS,61537,11561544,Lara Nails,3/ 1135 Botany Rd,Mascot,NSW,2020,SYDNEY,02 83388773,,,,hoanglietho@yahoo.com.au,,Nails,9511,Hairdressing and Beauty Services
ABS,61580,11561587,Maj Hizaji Salon,966 Botany Rd,Mascot,NSW,2020,SYDNEY,02 93173824,,,,majid.mokhtari2006@gmail.com,www.majhizaji.com.au,Hair,9511,Hairdressing and Beauty Services
ABS,62029,11562036,Suri Rejuvenate & Relaxation,100 Maloney St,Mascot,NSW,2020,SYDNEY,,,0420 626877,,info.suri.rejuvenate@gmail.com,www.surirejuvenate.com.au,Beauty,9511,Hairdressing and Beauty Services
ABS,62304,11562311,Advanced Electrolysis Centre,9 George St,Paddington,NSW,2021,SYDNEY,02 93621992,,,,aec10000@hotmail.com,www.aecsydney.com.au,Beauty,9511,Hairdressing and Beauty Services
ABS,62334,11562341,Amy Erbacher Beauty,42 Gurner St,Paddington,NSW,2021,SYDNEY,,,0423 222422,,amy@amyerbacher.com.au,www.amyerbachertans.com/,Beauty,9511,Hairdressing and Beauty Services
ABS,62362,11562369,Ardino,40 Oxford St,Paddington,NSW,2021,SYDNEY,02 93313220,,,,salon@ardino.com,www.ardino.com,Hair,9511,Hairdressing and Beauty Services
ABS,62632,11562639,Cosmetic tattooing Sydney,69-75 Cook Rd,Centennial Park,NSW,2021,SYDNEY,,,0420 972893,,sarahiwata086@gmail.com,,Beauty,9511,Hairdressing and Beauty Services
ABS,62922,11562929,Headcase Hair Paddington,242 Oxford St,Paddington,NSW,2021,SYDNEY,02 93809988,,,,headcase@headcasehair.com,www.headcasehair.com,Hair,9511,Hairdressing and Beauty Services
ABS,63140,11563147,Love Those Lashes,274 Oxford St,Paddington,NSW,2021,SYDNEY,,1300 527437,,,info@lovethoselashes.com.au,www.lovethoselashes.com.au/,Beauty,9511,Hairdressing and Beauty Services
ABS,63187,11563194,Marie Gai Beauty Therapy,110D Boundary St,Paddington,NSW,2021,SYDNEY,02 93615188,,,,mariegaibeauty@bigpond.com,www.mariegaibeauty.com.au,Beauty,9511,Hairdressing and Beauty Services
ABS,63301,11563308,Norman & Brown Hair Group,46 Oxford St,Paddington,NSW,2021,SYDNEY,02 93312889,,,,normanbrownoxfordst@gmail.com,www.normanandbrown.com/,Hair,9511,Hairdressing and Beauty Services
ABS,63390,11563397,Papillon Hair,1 Begg Lane,Paddington,NSW,2021,SYDNEY,02 93321121,,,,info@papillonhair.com.au,www.papillonhair.com.au,Hair,9511,Hairdressing and Beauty Services
ABS,63504,11563511,Riccardo's Barber Shop,306 Oxford St,Paddington,NSW,2021,SYDNEY,02 93564488,,,,info@riccardos.com.au,www.riccardos.com.au,Hair,9511,Hairdressing and Beauty Services
ABS,63525,11563532,Safir Beauty,62 Oxford St,Paddington,NSW,2021,SYDNEY,02 93575700,,,,info@safirbeauty.com.au,www.safirbeauty.com.au,Beauty,9511,Hairdressing and Beauty Services
ABS,63561,11563568,Shairspace,Level 4 17 Oxford St,Paddington,NSW,2021,SYDNEY,,,0452 225364,,timothy@shairspace.com.au,www.shairspace.com.au,Hair,9511,Hairdressing and Beauty Services
ABS,63743,11563750,The Murphy Gozzard Hair Community,447 Oxford St,Paddington,NSW,2021,SYDNEY,02 93602189,,,,commuinty@murphygozzard.com.au,,Hair,9511,Hairdressing and Beauty Services
ABS,63747,11563754,The Paddington Beauty Room,212 Glenmore Rd,Paddington,NSW,2021,SYDNEY,02 93568700,,,,askus@thepaddingtonbeautyroom.com.au,www.thepaddingtonbeautyroom.com.au,Beauty,9511,Hairdressing and Beauty Services
ABS,63910,11563917,Your Sanctuary Day Spa,495 Oxford St,Paddington,NSW,2021,SYDNEY,02 93809380,,,,contact@yoursanctuary.com.au,www.yoursanctuary.com.au,Beauty,9511,Hairdressing and Beauty Services
ABS,64054,11564061,Alan Coban,"Shop 2008, Level 2, Westfield Shopping Centre",Bondi Junction,NSW,2022,SYDNEY,02 93695858,,,,bondi@alancoban.com.au,www.alancoban.com.au,Hair,9511,Hairdressing and Beauty Services
ABS,64335,11564342,Bondi Beauty Spot,195 Old South Head Rd,Bondi Junction,NSW,2022,SYDNEY,02 93877166,,,,bondibeautyspot@yahoo.com.au,,Beauty,9511,Hairdressing and Beauty Services
ABS,64529,11564536,Cassie's mobile spray tanning,,Bondi Junction,NSW,2022,SYDNEY,,,0426 202015,,cassieoates1@hotmail.com,,Solarium and Tanning,9511,Hairdressing and Beauty Services
ABS,64543,11564550,Catwalk Platinum,Unit 1/ 35 Spring St,Bondi Junction,NSW,2022,SYDNEY,02 80958000,,,,info@catwalkplatinum.com.au,www.catwalkplatinum.com.au,Beauty,9511,Hairdressing and Beauty Services
ABS,64624,11564631,Coco Beaute,Shop 2/ 191 - 195 Oxford St,Bondi Junction,NSW,2022,SYDNEY,02 93692003,,,,clinic@cocobeaute.com.au,www.cocobeaute.com.au,Beauty,9511,Hairdressing and Beauty Services
ABS,64964,11564971,Ella Bache Bondi Junction,"Shop 5024, Level 5, Westfield Bondi Junction, 500 Oxford St",Bondi Junction,NSW,2022,SYDNEY,02 93872099,,,,bondijunction@ellabachesalons.com.au,www.bondijunction.ellabache.com.au,Beauty,9511,Hairdressing and Beauty Services
ABS,64967,11564974,Ella Rouge Beauty,"Bondi Junction Westfield, Shop 4004, Level 4, 500 Oxford St",Bondi Junction,NSW,2022,SYDNEY,02 93889733,,,,bondi@ellarouge.com.au,www.ellarouge.com.au,Beauty,9511,Hairdressing and Beauty Services
ABS,65005,11565012,Evin Austin Hairdressing,Level 1/ 201 Oxford St,Bondi Junction,NSW,2022,SYDNEY,02 93899505,,,,salon@evinaustin.com,www.evinaustin.com,Hair,9511,Hairdressing and Beauty Services
ABS,65233,11565240,Hairhousewarehouse Bondi,1038 500 Oxford Street Ctr,Bondi Junction,NSW,2022,SYDNEY,02 93896874,,,,mgr.bondi@hairhousewarehouse.com.au,www.hairhousewarehouse.com.au,Hair,9511,Hairdressing and Beauty Services
ABS,65314,11565321,HoneySpot Waxing & Beauty,Shop 8/ 2-14 Gray St,Bondi Junction,NSW,2022,SYDNEY,02 89646670,,,,info@honeyspot.com.au,www.honeyspot.com.au,Beauty,9511,Hairdressing and Beauty Services
ABS,65457,11565464,Jenny Magic Lash,116 Spring St,Bondi Junction,NSW,2022,SYDNEY,,,0424 989234,,jandk@gmail.com,www.magiclash.com.au,Beauty,9511,Hairdressing and Beauty Services
ABS,65608,11565615,Lash Life Eyelash Extension Specialist,Suite 11 552 Oxford St,Bondi Junction,NSW,2022,SYDNEY,,,0423 835824,,info@lashlife.com.au,www.lashlife.com.au,Beauty,9511,Hairdressing and Beauty Services
ABS,65740,11565747,Maureen Cole,552 Oxford St,Bondi Junction,NSW,2022,SYDNEY,,,0450 458545,,maureencole11@gmail.com,www.maureencole.wordpress.com/,Beauty,9511,Hairdressing and Beauty Services
ABS,65849,11565856,Ms Sophy Dennett,0 Bondi Junction St,Bondi Junction,NSW,2022,SYDNEY,,,0488 110190,,sophydennett@yahoo.com.au,,Beauty,9511,Hairdressing and Beauty Services
ABS,66061,11566068,Patricks,245 Oxford St,Bondi Junction,NSW,2022,SYDNEY,02 93864010,,,,aimee@patricks.com.au,www.patricks.com.au,Hair,9511,Hairdressing and Beauty Services
ABS,66134,11566141,Politix Hair,74 Spring St,Bondi Junction,NSW,2022,SYDNEY,02 93860826,,,02 93860827,info@politixhair.com.au,www.politixhair.com.au,Hair,9511,Hairdressing and Beauty Services
ABS,66319,11566326,SABIHA,12 308 Oxford St,Bondi Junction,NSW,2022,SYDNEY,,,0401 197632,,debbie@sabiha.com.au,www.sabiha.com.au,Beauty,9511,Hairdressing and Beauty Services
ABS,66326,11566333,Scalone Salon,1st Floor 231 Oxford St,Bondi Junction,NSW,2022,SYDNEY,02 93899000,,,,info@salonscalone.com,www.salonscalone.com,Hair,9511,Hairdressing and Beauty Services
ABS,66425,11566432,Skin Matrix,Suite 2/ 262 Oxford St,Bondi Junction,NSW,2022,SYDNEY,,1300 455792,,,sales@skinmatrix.com.au,www.skinmatrix.com.au,Beauty,9511,Hairdressing and Beauty Services
ABS,66567,11566574,Sunworld Bondi Junction,257 Oxford St,Bondi Junction,NSW,2022,SYDNEY,02 93691404,,,,info@sunworldtanning.com.au,www.sunworldtanning.com.au,Solarium and Tanning,9511,Hairdressing and Beauty Services
ABS,66569,11566576,Superb Lashes,Suite 6x/ Level 6/ 9-13 Bronte Rd,Bondi Junction,NSW,2022,SYDNEY,,,0405 580663,,noons29@icloud.com,www.fadeawaylasertattooremoval.com.au,Beauty,9511,Hairdressing and Beauty Services
ABS,66598,11566605,Sydney Body Tattoo Removal,Suite 603 Level 6 26-30 Spring St,Bondi Junction,NSW,2022,SYDNEY,,,0419 432254,,michelecurran49@tpg.com.au,www.sydneybodytattooremoval.com.au,Beauty,9511,Hairdressing and Beauty Services
ABS,66775,11566782,Toni & Guy Hairdresser,Level 1 197 Oxford St,Bondi Junction,NSW,2022,SYDNEY,02 93874922,,,,bondij@toniandguy.com.au,www.toniandguy.com.au,Hair,9511,Hairdressing and Beauty Services
ABS,66990,11566997,You Got Nail,175 Oxford St,Bondi Junction,NSW,2022,SYDNEY,02 93872882,,,,yougotnailsydney@gmail.com,,Nails,9511,Hairdressing and Beauty Services
ABS,67366,11567373,Tammy's Beauty,4 Rosslyn St,Bellevue Hill,NSW,2023,SYDNEY,,,0405 320153,,tam_clifford@hotmail.com,,Beauty,9511,Hairdressing and Beauty Services
ABS,67443,11567450,Art of Massage,42 MacPherson St,Bronte,NSW,2024,SYDNEY,02 93898333,,,,cheryl@artofmassage.com.au,www.artofmassage.com.au,Beauty,9511,Hairdressing and Beauty Services
ABS,67497,11567504,Brush Hair and Make-Up,22 Macpherson St,Bronte,NSW,2024,SYDNEY,02 93898649,,,,brush_brush@hotmail.com,www.brushhair.com,Hair,9511,Hairdressing and Beauty Services
ABS,67765,11567772,Peache Rose Hair,145C Macpherson St,Bronte,NSW,2024,SYDNEY,,,0406 961795,,peache.rose.hair@gmail.com,,Hair,9511,Hairdressing and Beauty Services
ABS,67775,11567782,Pink Parasol,,Bronte,NSW,2024,SYDNEY,,,0439 992216,,pinkparasoltanning@yahoo.com.au,,Solarium and Tanning,9511,Hairdressing and Beauty Services
ABS,67809,11567816,Shagg,Shop 3/ 50 Macpherson St,Bronte,NSW,2024,SYDNEY,02 93895483,,,,shagghairstudio@hotmail.com,,Hair,9511,Hairdressing and Beauty Services
ABS,68034,11568041,Blondies On Woollahra,227 Edgecliff Rd,Woollahra,NSW,2025,SYDNEY,02 93889032,,,,blondies@pacific.net.au,www.blondiesonwoollahra.com.au,Hair,9511,Hairdressing and Beauty Services
ABS,68186,11568193,Element Hair,42 Ocean St,Woollahra,NSW,2025,SYDNEY,02 93273701,,,,info@elementhair.com.au,www.elementhair.com.au,Hair,9511,Hairdressing and Beauty Services
ABS,68205,11568212,Eyebrowexperts,,Woollahra,NSW,2025,SYDNEY,,,0439 359745,,eyebrowexperts@gmail.com,,Beauty,9511,Hairdressing and Beauty Services
ABS,68243,11568250,George Giavis Hair and Beauty Salon,110A Queen St,Woollahra,NSW,2025,SYDNEY,02 93286700,,,,info@theblonderoom.com.au,www.theblonderoom.com,Hair,9511,Hairdressing and Beauty Services
ABS,68351,11568358,Just Bea,8 Ocean St,Woollahra,NSW,2025,SYDNEY,,,0418 282236,,justbepresent71@gmail.com,,Beauty,9511,Hairdressing and Beauty Services
ABS,68418,11568426,Maya and John Beauty and Hair,158 Queen St,Woollahra,NSW,2025,SYDNEY,02 93286514,,,,reception@queenstbeautyandhair.com.au,www.reception@queenstbeautyandhair.com.au,Beauty,9511,Hairdressing and Beauty Services
ABS,68516,11568524,Polished Beauty Bar,Level 1 132 Queen St,Woollahra,NSW,2025,SYDNEY,02 93285028,,,,info@polishedbeautybar.com.au,www.polishedbeautybar.com.au,Beauty,9511,Hairdressing and Beauty Services
ABS,68873,11568881,Aesthete Hair Salon,99 O''Brien St,Bondi Beach,NSW,2026,SYDNEY,02 93650227,,,,hello@aesthetehair.com,www.aesthetehair.com,Hair,9511,Hairdressing and Beauty Services
ABS,69105,11569113,Bliss Beauty,Old South Head Rd,North Bondi,NSW,2026,SYDNEY,02 93654855,,,,blissbeauty@hotmail.com,www.chanti.intuits.com,Beauty,9511,Hairdressing and Beauty Services
ABS,69138,11569146,Bondi Barber Lounge,124B Roscoe St,Bondi Beach,NSW,2026,SYDNEY,,1300 768399,,,bondibarberlounge@gmail.com,www.bondibarberlounge.com.au,Hair,9511,Hairdressing and Beauty Services
ABS,69148,11569156,Bondi Beach Chop Shop,2A Jacques Ave,Bondi Beach,NSW,2026,SYDNEY,02 91303684,,,,info@thechopshops.com,www.thechopshops.com,Hair,9511,Hairdressing and Beauty Services
ABS,69220,11569228,Bondi Lashes,1/ 204 Hastings Parade,North Bondi,NSW,2026,SYDNEY,,,0421 677027,,emily@bondilashes.com.au,www.bondilashes.com.au,Beauty,9511,Hairdressing and Beauty Services
ABS,69323,11569331,Brown Sugar Spray Tanning,,Bondi Beach,NSW,2026,SYDNEY,,,0412 600929,,tan@brownsugartan.com.au,www.brownsugartan.com.au,Beauty,9511,Hairdressing and Beauty Services
ABS,69648,11569656,Escape Day Spa & Laser Clinic,168 Bondi Rd,Bondi,NSW,2026,SYDNEY,02 93880000,,,,relax@escapebeauty.com.au,www.australiabusinessforsale.net,Beauty,9511,Hairdressing and Beauty Services
ABS,69659,11569667,Eyelash Empire,Shop 1/ 135 Curlewis St,Bondi,NSW,2026,SYDNEY,,,0420 239485,,info@eyelashempireaustralia.com,www.eyelashempireaustralia.com,Beauty,9511,Hairdressing and Beauty Services
ABS,69761,11569769,Glow Bar,151 Glenayr Ave,Bondi Beach,NSW,2026,SYDNEY,,,0432 672065,,info@glowbar.net.au,www.glowbar.net.au,Solarium and Tanning,9511,Hairdressing and Beauty Services
ABS,69802,11569810,Hair by Jennifer Barker,79 Murriverrie Rd,North Bondi,NSW,2026,SYDNEY,02 91302810,,,,info@hairbyjenniferbarker.com,www.hairbyjenniferbarker.com,Hair,9511,Hairdressing and Beauty Services
ABS,69803,11569811,Hair Cartel,Shop 6/ 178 Campbell Parade,Bondi Beach,NSW,2026,SYDNEY,02 93652683,,,,hello@haircartel.com.au,www.haircartel.com.au,Hair,9511,Hairdressing and Beauty Services
ABS,69806,11569814,Hair Tamers,Shop 7 54 Hall St,Bondi Beach,NSW,2026,SYDNEY,02 91302312,,,,silvamuz@gmail.com,,Hair,9511,Hairdressing and Beauty Services
ABS,69890,11569898,indulgeyourself Mobile Beauty and Tarot,9 Mitchell St,North Bondi,NSW,2026,SYDNEY,,,0414 353086,,ruthseagull@gmail.com,,Beauty,9511,Hairdressing and Beauty Services
ABS,69967,11569975,Judena Taylor Hair Salon,100 Brighton Blv,North Bondi,NSW,2026,SYDNEY,02 93656104,,,,info@judenataylor.com.au,www.judenataylor.com.au,Hair,9511,Hairdressing and Beauty Services
ABS,70059,11570067,Lena's Sydney Nails,103 Bondi Rd,Bondi,NSW,2026,SYDNEY,02 93891197,,,,ethan0303@hotmail.com,www.lenassydneynails.com.au,Nails,9511,Hairdressing and Beauty Services
ABS,70197,11570205,MOB HAIR,373 Old South Head Rd,North Bondi,NSW,2026,SYDNEY,02 80685303,,,,mobhair@hotmail.com,www.mobhair.com.au/,Hair,9511,Hairdressing and Beauty Services
ABS,70347,11570355,Orshi M. Nails,Warners Ave,North Bondi,NSW,2026,SYDNEY,,,0433 627147,,orshim@rocketmail.com,www.orshimnails.com,Nails,9511,Hairdressing and Beauty Services
ABS,70549,11570557,RW Hair Extensions,Shop 3/ 96 Glenayr Ave,Bondi,NSW,2026,SYDNEY,,,0413 726353,,rwaddle@rwhairextensions.com.au,www.rwhairextensions.com.au,Hair,9511,Hairdressing and Beauty Services
ABS,70557,11570565,Sage Beauty,292 Campbell Parade,North Bondi,NSW,2026,SYDNEY,02 91307064,,,,info@sagebeauty.com.au,www.sagebeauty.com.au,Beauty,9511,Hairdressing and Beauty Services
ABS,70655,11570663,Smooth Waxing Studio,228 Bondi Rd,Bondi,NSW,2026,SYDNEY,02 91304955,,,,info@smoothwaxing.com.au,www.smoothwaxing.com.au,Beauty,9511,Hairdressing and Beauty Services
ABS,70878,11570886,Toni&Guy Bondi Beach,70 Hall St,Bondi Beach,NSW,2026,SYDNEY,02 93652655,,,,bondibeach@toniandguy.com.au,www.toniandguy.com.au/salons/nsw-locations/bondi-beach/,Beauty,9511,Hairdressing and Beauty Services
ABS,71017,11571025,Absolute Hair Design,Shop 1 20 New South Head Rd,Edgecliff,NSW,2027,SYDNEY,02 93871600,,,,absolutehairdesign@live.com.au,www.absolutehairdesign.com.au,Hair,9511,Hairdressing and Beauty Services
ABS,71115,11571123,Belle Journee Spa & Beauty Salon,503/ 180 Ocean St,Edgecliff,NSW,2027,SYDNEY,02 93312885,,0412 544055,,bellejourneebeauty@gmail.com,www.bellejournee.com.au,Beauty,9511,Hairdressing and Beauty Services
ABS,71191,11571199,Clearskincare Clinics,Level 1/ 100 New South Head Rd,Edgecliff,NSW,2027,SYDNEY,02 93287111,,,,annie@clearskincareclinics.com.au,www.clearskincareclinics.com.au,Beauty,9511,Hairdressing and Beauty Services
ABS,71371,11571379,Fountain of Youth,178 New South Head Rd,Edgecliff,NSW,2027,SYDNEY,,,0414 793790,,info@fountainofyouth.net.au,www.fountainofyouth.net.au,Beauty,9511,Hairdressing and Beauty Services
ABS,71378,11571386,Fuss Beauty College,Shop 2/ 161 New South Head Rd,Edgecliff,NSW,2027,SYDNEY,02 93262211,,,,admin@fuss.com.au,www.fuss.com.au,Beauty,9511,Hairdressing and Beauty Services
ABS,71402,11571410,Great Hair Fibres by Great Directions,3A/2 New Mclean St,Edgecliff,NSW,2027,SYDNEY,02 91910393,,,,info@greathairfibres.com.au,www.greathairfibres.com.au,Hair,9511,Hairdressing and Beauty Services
ABS,71504,11571512,Levali Hair Studio,203-233 New South Head Rd,Edgecliff,NSW,2027,SYDNEY,02 79016499,,,,info@levalihairstudio.com.au,www.levali.com.au,Hair,9511,Hairdressing and Beauty Services
ABS,71762,11571770,Sydney Beauty & Dermal Institute,Shop 2/ 161 New South Head Rd,Edgecliff,NSW,2027,SYDNEY,02 93275256,,,,info@sbdi.com.au,www.sbdi.com.au,Beauty,9511,Hairdressing and Beauty Services
ABS,72051,11572059,BIO Beauty Inside Out,Lvl 1/ Ste 8/ 402-404 New South Head Rd,Double Bay,NSW,2028,SYDNEY,,,0410 885511,,bio@beautyinsideout.com.au,www.beautyinsideout.com.au,Beauty,9511,Hairdressing and Beauty Services
ABS,72071,11572079,Body Bound,4 Anderson St,Double Bay,NSW,2028,SYDNEY,,,0404 742728,,bookings@bodybound.com.au,www.bodybound.com.au,Beauty,9511,Hairdressing and Beauty Services
ABS,72302,11572310,Elite Body and Beauty Clinics,Level 1 402-402 New South Head Rd,Double Bay,NSW,2028,SYDNEY,02 81881965,,,,info@elitebodyandbeauty.com.au,www.elitebodyandbeauty.com.au,Solarium and Tanning,9511,Hairdressing and Beauty Services
ABS,72354,11572362,Fuse Hair Nails Beauty,Shop 1/15 Chapel Court Cross Street,Double Bay,NSW,2028,SYDNEY,02 93261222,,,,fusebeauty@yahoo.com.au,,Hair,9511,Hairdressing and Beauty Services
ABS,72472,11572480,James Salon,Shop 1/ 23-25 Bay St,Double Bay,NSW,2028,SYDNEY,02 93585188,,0421 721605,,hamer.suarez@yahoo.com,www.jamesrichardson.com.au,Hair,9511,Hairdressing and Beauty Services
ABS,72489,11572497,Joseph Mourad Hair & Beauty,Level 1/ 29 Bay St,Double Bay,NSW,2028,SYDNEY,02 93281377,,,,contact@josephmourad.com.au,,Hair,9511,Hairdressing and Beauty Services
ABS,72512,11572520,Kelly`s Nail & Beauty,Shop 4 4-10 Bay St,Double Bay,NSW,2028,SYDNEY,02 93275440,,,,fonglor79@gmail.com,www.fongandbee.wixsite.com/kellysnailandbeauty,Beauty,9511,Hairdressing and Beauty Services
ABS,72534,11572542,La Dashing Body,1/ 53 Cross St,Double Bay,NSW,2028,SYDNEY,02 93276956,,,,ladashingbody@outlook.com.au,www.ladashingbody.com.au,Beauty,9511,Hairdressing and Beauty Services
ABS,72655,11572663,MNBrowbar,Shop 3 12 Cross St,Double Bay,NSW,2028,SYDNEY,02 93282269,,,,mnbrowbar@gmail.com,,Beauty,9511,Hairdressing and Beauty Services
ABS,72711,11572719,Olimpia,"Suite 3 and 4, Lvl 1, 21-25 Knox St",Double Bay,NSW,2028,SYDNEY,02 93275417,,,,olimpia@olimpia.com.au,www.olimpia.com.au,Beauty,9511,Hairdressing and Beauty Services
ABS,72760,11572768,Pierre Jourdain,First Floor Suite 7/ 3 Knox St,Double Bay,NSW,2028,SYDNEY,02 93272342,,,,henri.beaudouin@gmail.com,,Hair,9511,Hairdressing and Beauty Services
ABS,72810,11572818,Rena Kan Cosmetics Pty Ltd,Suite 6 17 Knox St,Double Bay,NSW,2028,SYDNEY,02 93272221,,,,renakan@renakan.com.au,www.renakan.com.au/,Beauty,9511,Hairdressing and Beauty Services
ABS,72873,11572881,Shane Jones Blonde Boutique,9 Bay St,Double Bay,NSW,2028,SYDNEY,02 93278222,,,,blondeboutique@bigpond.com.au,www.shanejones.com.au,Hair,9511,Hairdressing and Beauty Services
ABS,73022,11573030,Unique Hair By Joanne,479 New South Head Rd,Double Bay,NSW,2028,SYDNEY,02 93271944,,,,uniquebyjo@gmail.com,,Hair,9511,Hairdressing and Beauty Services
ABS,73025,11573033,USA Nails & Foot Spa,3 19-27 Cross St,Double Bay,NSW,2028,SYDNEY,02 93620006,,,,usafootspa@gmail.com,,Nails,9511,Hairdressing and Beauty Services
ABS,73059,11573067,Wild Orchid Beauty Pty Ltd,14 Transvaal Ave,Double Bay,NSW,2028,SYDNEY,02 93276777,,,,wildorchid_beauty@hotmail.com,www.wildorchidbeauty.com.au,Beauty,9511,Hairdressing and Beauty Services
ABS,73110,11573118,A Head of the Rest,523C Old South Head Rd,Rose Bay,NSW,2029,SYDNEY,02 93711058,,,,info@aheadoftherest.com.au,www.aheadoftherest.com.au,Beauty,9511,Hairdressing and Beauty Services
ABS,73148,11573156,Alana Kristian,Shop 1/ 656 New South Head Rd,Rose Bay,NSW,2029,SYDNEY,02 93718334,,,,info@alanakristian.com,www.alanakristian.com,Hair,9511,Hairdressing and Beauty Services
ABS,73200,11573208,Bay Pelle Beauty Clinic & Day Spa,1/ 17 Newcastle St,Rose Bay,NSW,2029,SYDNEY,02 93884300,,,,info@baypelle.com.au,www.baypelle.com.au,Beauty,9511,Hairdressing and Beauty Services
ABS,73399,11573407,Hair By Dora K,825A New South Head Rd,Rose Bay,NSW,2029,SYDNEY,02 93710500,,,,hairbydorak@hotmail.com,,Hair,9511,Hairdressing and Beauty Services
ABS,73505,11573513,Lulu Belle,9 Plumer Rd,Rose Bay,NSW,2029,SYDNEY,02 93285533,,,,info@lulubelle.com.au,www.lulubelle.com.au,Beauty,9511,Hairdressing and Beauty Services
ABS,73635,11573643,R & N Hair,Shop/5 14 Ian St,Rose Bay,NSW,2029,SYDNEY,02 93714668,,,,rguddat@me.com,,Hair,9511,Hairdressing and Beauty Services
ABS,73730,11573738,Skin Intuition by Sophie Ashton,5/712 New South Head Rd,Rose Bay,NSW,2029,SYDNEY,,,0417 481304,,skin.intuition@gmail.com,,Beauty,9511,Hairdressing and Beauty Services
ABS,73760,11573768,Suntastic Mobile Spray Tan,,Rose Bay,NSW,2029,SYDNEY,,,0404 954374,,suntasticinfo@gmail.com,,Solarium and Tanning,9511,Hairdressing and Beauty Services
ABS,73791,11573799,The Blonde Fox,11 Plumer Rd,Rose Bay,NSW,2029,SYDNEY,02 93272684,,,,info@theblondefox.com.au,www.theblondefox.com.au,Hair,9511,Hairdressing and Beauty Services
ABS,73802,11573810,The Society,712 New South Head Rd,Rose Bay,NSW,2029,SYDNEY,02 93882230,,,,info@thesocietysalon.com.au,,Hair,9511,Hairdressing and Beauty Services
ABS,73848,11573856,Your Beauty Salon,533A Old South Head Rd,Rose Bay,NSW,2029,SYDNEY,,,0437 547555,,mila@yourbeautysalon.net,www.yourbeautysalon.net,Beauty,9511,Hairdressing and Beauty Services
ABS,74227,11574235,Nordik Hair & Beauty,698-704 Old South Head Rd,Rose Bay North,NSW,2030,SYDNEY,02 93888344,,,,info@nordik.com.au,www.nordik.com.au,Hair,9511,Hairdressing and Beauty Services
ABS,74684,11574692,"Beauty At Home, Sydney",,Randwick,NSW,2031,SYDNEY,,,0414 183551,,amba_burgess@hotmail.com,,Beauty,9511,Hairdressing and Beauty Services
ABS,74685,11574693,Beauty First,Shop 1/ 71 Arthur St,Randwick,NSW,2031,SYDNEY,02 93998908,,,,beautyfirstrandwick@yahoo.com.au,www.beautyfirst.com.au,Beauty,9511,Hairdressing and Beauty Services
ABS,74688,11574696,Beauty With Michele,170 Clovelly Rd,Clovelly,NSW,2031,SYDNEY,,,0404 012022,,beautywithmichele@gmail.com,www.beautywithmichele.com.au,Beauty,9511,Hairdressing and Beauty Services
ABS,74968,11574976,Complete Body Care,8 Lingard Street St,Randwick,NSW,2031,SYDNEY,02 93145449,,,,VenitaReisenbeck20@gmail.com,www.completebodycare.com.au/,Beauty,9511,Hairdressing and Beauty Services
ABS,75202,11575210,Ella Bache,"Royal Randwick Shopping Centre, 73 Belmore Rd",Randwick,NSW,2031,SYDNEY,02 93996718,,,,ebrandwick@optusnet.com.au,www.randwick.ellabache.com.au,Beauty,9511,Hairdressing and Beauty Services
ABS,75236,11575244,Evolution Laser Clinic,"Shop 15, Belmore Rd, Royal Randwick Shopping Centre",Randwick,NSW,2031,SYDNEY,02 93989550,,,,fairfield@evolutionlaser.com.au,www.evolutionlaser.com.au,Beauty,9511,Hairdressing and Beauty Services
ABS,75494,11575502,Inch Salon & Cafe Randwick,126 Belmore Rd,Randwick,NSW,2031,SYDNEY,02 80658222,,,,inchhd@gmail.com,www.inchhairdesigns.com,Hair,9511,Hairdressing and Beauty Services
ABS,75676,11575684,Lash Doll Sydney Eyelash Extensions,Shop 67/ 73 Belmore Rd,Randwick,NSW,2031,SYDNEY,,,0409 741662,,kath@lashdoll.com.au,www.sydneyeyelashextension.com.au,Beauty,9511,Hairdressing and Beauty Services
ABS,76115,11576123,Pure Lvx,200 Avoca St,Randwick,NSW,2031,SYDNEY,02 89649881,,,,info@purelvx.com,www.purelvx.com,Hair,9511,Hairdressing and Beauty Services
ABS,76258,11576266,RNR Hair & Beauty,36 Perouse Rd,Randwick,NSW,2031,SYDNEY,02 93981717,,,,info@rnrhairandbeauty.com.au,www.rnrhairandbeauty.com.au,Hair,9511,Hairdressing and Beauty Services
ABS,77449,11577457,Skin Perfect Health and Beauty Salon,496 Anzac Parade,Kingsford,NSW,2032,SYDNEY,02 96627189,,,,skinperfectbeauty@hotmail.com,www.skinperfectbeauty.com.au,Beauty,9511,Hairdressing and Beauty Services
ABS,77796,11577804,Extend Me Hair,,Kensington,NSW,2033,SYDNEY,,,0403 405426,,liza@extendmehair.com,www.extendmehair.com,Beauty,9511,Hairdressing and Beauty Services
ABS,78012,11578020,Odessa Hair Salon,111B Doncaster Ave,Kensington,NSW,2033,SYDNEY,,,0425 011919,,yours.barber@gmail.com,,Hair,9511,Hairdressing and Beauty Services
ABS,78613,11578621,Forever Make Up,85A Bream St,Coogee,NSW,2034,SYDNEY,,,0431 743466,,forevemake1@reliable-mail.com,www.forevermakeup.com.au,Hair,9511,Hairdressing and Beauty Services
ABS,78616,11578624,FOXY Nails at Coogee,59A Dudley St,Coogee,NSW,2034,SYDNEY,02 81888089,,,,foxynails89@gmail.com,,Beauty,9511,Hairdressing and Beauty Services
ABS,78863,11578871,Pixie Hair & Makeup,Sutie 3/ 202 Coogee Bay Rd,Coogee,NSW,2034,SYDNEY,,,0415 475285,,pixie@pixiehairandmakeup.com.au,www.pixiehairandmakeup.com.au,Hair,9511,Hairdressing and Beauty Services
ABS,79050,11579058,thp Haircutters,127 Coogee Bay Rd,Coogee,NSW,2034,SYDNEY,02 96658419,,,,info@thphaircutters.com.au,www.thphaircutters.com.au,Hair,9511,Hairdressing and Beauty Services
ABS,79068,11579076,Tranzitions Hair Studio,105A Coogee Bay Rd,Coogee,NSW,2034,SYDNEY,02 96647006,,,,marzt79@hotmail.com,,Hair,9511,Hairdressing and Beauty Services
ABS,79194,11579202,ACM Hair,777 Anzac Parade,Maroubra,NSW,2035,SYDNEY,02 93443942,,,,contact@acmhair.com.au,www.acmhair.com.au,Hair,9511,Hairdressing and Beauty Services
ABS,79299,11579307,Astrology Hair Extension Salon,,Maroubra,NSW,2035,SYDNEY,,,0413 132756,,des@epk.com.au,,Hair,9511,Hairdressing and Beauty Services
ABS,79359,11579367,Beautifeyes Lash Extensions,Unit 2/ 166 Maroubra Rd,Maroubra,NSW,2035,SYDNEY,,,0410 591320,,amyrodgers.ar@gmail.com,www.beautifeyes.com.au,Beauty,9511,Hairdressing and Beauty Services
ABS,79391,11579399,Blue Ocean Beauty & Skin Care Clinic,Shop 1 36 McKeon St,Maroubra,NSW,2035,SYDNEY,02 93444139,,,,blueoceanbeauty@exemail.com.au,www.blueoceanbeauty.net.au,Beauty,9511,Hairdressing and Beauty Services
ABS,79609,11579617,Dalia Isles Natural Beauty Salon and Facial Rejuvenation,425 Malabar Road St,Maroubra,NSW,2035,SYDNEY,02 80657840,,,,daliaisles912@gmail.com,www.naturaltherapypages.com.au/connect/maroubrarejuvenation/service/20572,Beauty,9511,Hairdressing and Beauty Services
ABS,79742,11579750,Ella Rouge Beauty,"Eastgardens Westfield, Shop 312, Level 3, 152 Bunnerong Road",Pagewood,NSW,2035,SYDNEY,02 93142111,,,,eastgardens@ellarouge.com.au,www.ellarouge.com.au,Beauty,9511,Hairdressing and Beauty Services
ABS,79886,11579894,Gosia's Beauty Studio,777 Anzac Parade,Maroubra,NSW,2035,SYDNEY,,,0416 434442,,gosiabeautystudio@gmail.com,,Beauty,9511,Hairdressing and Beauty Services
ABS,80137,11580146,LJ Hair Gallery,Shop 3/ 181-191 Maroubra Rd,Maroubra,NSW,2035,SYDNEY,02 93140040,,,,leejooforlife@gmail.com,,Hair,9511,Hairdressing and Beauty Services
ABS,80395,11580404,Nirvana Beauty,Level 1 Shop 230 Westfield Eastgardens,Pagewood,NSW,2035,SYDNEY,02 93143111,,,,eastgardens@nirvanabeauty.com.au,,Beauty,9511,Hairdressing and Beauty Services
ABS,80554,11580563,Pulse Hair,"Shop 16, Pacific Square Shopng Cntr, 737 Anzac Pde",Maroubra,NSW,2035,SYDNEY,02 93440044,,,,clintpjpiper@hotmail.com,www.pulsehair.com,Hair,9511,Hairdressing and Beauty Services
ABS,80639,11580648,RupunzelsRoom,1/ 805-813 Anzac Parade,Maroubra,NSW,2035,SYDNEY,02 93141220,,,,info@rupunzelsroom.com.au,www.rupunzelsroom.com.au/,Hair,9511,Hairdressing and Beauty Services
ABS,80948,11580957,Walsh's Village Pharmacy,Cnr Malabar Rd and Meagher Ave,Maroubra South,NSW,2035,SYDNEY,02 93110088,,,,orders@walshspharmacy.com.au,www.walshspharmacy.com.au,Beauty,9511,Hairdressing and Beauty Services
ABS,81709,11581718,Kelly Hart Hair,Level 1 496 Bunnerong Rd,Matraville,NSW,2036,SYDNEY,,,0415 363846,,kellyharthair@yahoo.com.au,,Beauty,9511,Hairdressing and Beauty Services
ABS,81753,11581762,Laser Clinics Australia Eastgardens,"Shop 227/28, Eastgardens Westfield 152 Bunnerong Rd",Eastgardens,NSW,2036,SYDNEY,02 80941271,,,,eastgardens@laserclinics.com.au,www.laserclinics.com.au,Beauty,9511,Hairdressing and Beauty Services
ABS,81816,11581825,Mango Beauty,,Matraville,NSW,2036,SYDNEY,,,0410 571200,,beauty.mango@gmail.com,www.mangobeauty.com.au,Beauty,9511,Hairdressing and Beauty Services
ABS,81896,11581905,Mobile Spray Tanning,306 7 Jenner St,Little Bay,NSW,2036,SYDNEY,,,0404 113488,,clarekarensweeney@hotmail.com,,Solarium and Tanning,9511,Hairdressing and Beauty Services
ABS,82529,11582538,Australasian College Broadway,87 Bay St,Glebe,NSW,2037,SYDNEY,02 85878888,,,,info@tac.edu.au,www.tac.edu.au,Beauty,9511,Hairdressing and Beauty Services
ABS,82834,11582843,Firm.n.Fold,31 Glebe Point Rd,Glebe,NSW,2037,SYDNEY,,,,,sales@firm-n-fold.com.au,,Beauty,9511,Hairdressing and Beauty Services
ABS,83191,11583200,Melissa Young Beauty,"Shop 2 / 197 Glebe Point, Glebe",Glebe,NSW,2037,SYDNEY,02 80688477,,,,info@melissayoungbeauty.com.au,www.melissayoungbeauty.com.au/,Beauty,9511,Hairdressing and Beauty Services
ABS,83223,11583232,My Face My Body My Soul,121 Glebe Point Rd,Glebe,NSW,2037,SYDNEY,,1300 784455,,,myfacemybodymysoul@iinet.net.au,www.myfacemybodymysoul.com.au,Beauty,9511,Hairdressing and Beauty Services
ABS,83234,11583243,Nature's Energy,105 Glebe Point Rd,Glebe,NSW,2037,SYDNEY,02 95555533,,,,naturesenergynsw@hotmail.com,www.naturesenergy.com.au,Beauty,9511,Hairdressing and Beauty Services
ABS,83537,11583546,The Girl You Love,Lvl 1/ 194 St Johns Rd,Glebe,NSW,2037,SYDNEY,02 80846858,,,,girl@thegirlyoulove.com,www.thegirlyoulove.com/,Beauty,9511,Hairdressing and Beauty Services
ABS,83824,11583833,Booth St Salon,35 Booth St,Annandale,NSW,2038,SYDNEY,02 96603937,,,,salon@boothstsalon.com,,Hair,9511,Hairdressing and Beauty Services
ABS,84419,11584429,Tais Hair Studio,101A Johnston St West,Annandale,NSW,2038,SYDNEY,02 96601373,,,,info@taishairstudio.com.au,,Hair,9511,Hairdressing and Beauty Services
ABS,84697,11584708,Canvas Essential Therapies,1A Hancock St,Rozelle,NSW,2039,SYDNEY,02 98187273,,,,lesley@canvastherapies.com.au,www.canvastherapies.com.au,Beauty,9511,Hairdressing and Beauty Services
ABS,84922,11584933,HoneyTusk Eyebrow Studio,748 Darling St,Rozelle,NSW,2039,SYDNEY,02 98108335,,0420 515827,,info@honeytusk.com,www.honeytusk.com,Beauty,9511,Hairdressing and Beauty Services
ABS,85220,11585231,Salon 2,Servicing Both Rozelle and Balmain Areas - Located At 8 Batty Street,Rozelle,NSW,2039,SYDNEY,,,0412 998449,,shane.mcm@hotmail.com,,Hair,9511,Hairdressing and Beauty Services
ABS,85717,11585729,Beauty by Juanita Taglio,374 Norton St,Lilyfield,NSW,2040,SYDNEY,02 95729213,,,,jkandmh@hotmail.com,,Beauty,9511,Hairdressing and Beauty Services
ABS,85994,11586006,"Dalux Hair, Nails & Beauty",33 Norton St,Leichhardt,NSW,2040,SYDNEY,02 89649784,,,,dalucbeauty@gmail.com,,Beauty,9511,Hairdressing and Beauty Services
ABS,86193,11586205,Forever Hair Leichhardt,Shop 4a/ 1A Lords Rd,Leichhardt,NSW,2040,SYDNEY,02 95180179,,,,foreverhairleichhardt@gmail.com,www.foreverhairleichhardt.com.au,Hair,9511,Hairdressing and Beauty Services
ABS,86297,11586309,Hair At Home,1/12 Wetherill Street,Leichhardt,NSW,2040,SYDNEY,,1300 132533,,,kerrie@hairathome.com.au,www.hairathome.com.au,Hair,9511,Hairdressing and Beauty Services
ABS,86435,11586447,James Alexander Hair Design,2/ 365 Parramatta Rd,Leichhardt,NSW,2040,SYDNEY,,,0423 267201,,info@jamesalexanderhairdesign.com.au,www.jamesalexanderhairdesign.com.au,Hair,9511,Hairdressing and Beauty Services
ABS,86536,11586548,La Beautique,10 Renwick St,Leichhardt,NSW,2040,SYDNEY,,,0410 253014,,michaelacondoluci@hotmail.com,www.labeautique.com.au,Beauty,9511,Hairdressing and Beauty Services
ABS,86685,11586697,Luke Karra Hair,409 Parramatta Rd,Leichhardt,NSW,2040,SYDNEY,02 95729915,,,,lukekarahair@bigpond.com,www.lukekarahair.com,Hair,9511,Hairdressing and Beauty Services
ABS,86775,11586787,Mii Beauty,29 Renwick St,Leichhardt,NSW,2040,SYDNEY,,,0403 678502,,yhyunjeong@hotmail.com,,Beauty,9511,Hairdressing and Beauty Services
ABS,86791,11586803,Mk Hair and Makeup Artistry,21 Norton St,Leichhardt,NSW,2040,SYDNEY,,,0425 231043,,info@mkhairmakeup.com,www.mkhairmakeup.com,Hair,9511,Hairdressing and Beauty Services
ABS,87090,11587102,Rita's Beauty Bar,Lvl 1/ 100-112 Flood St,Leichhardt,NSW,2040,SYDNEY,,,0498 397547,,ritasbeautybar@gmail.com,www.ritasbeautybar.com.au,Beauty,9511,Hairdressing and Beauty Services
ABS,87330,11587343,Temptress Makeup And Hair,,Leichhardt,NSW,2040,SYDNEY,,,0404 189913,,temptressmakeup@gmail.com,www.temptressmakeup.com,Hair,9511,Hairdressing and Beauty Services
ABS,87357,11587370,The Hair Palace,"3 Renwick Street,",Leichhardt,NSW,2040,SYDNEY,02 95726999,,,,thehairpalace@unwired.com.au,www.thehairpalace.com.au,Hair,9511,Hairdressing and Beauty Services
ABS,87651,11587664,Anne Marie's Balmain Beauty Centre,Shop 4 269- 271 Darling St,Balmain,NSW,2041,SYDNEY,02 98100365,,,,info@balmainspa.com.au,www.balmainspa.com.au,Beauty,9511,Hairdressing and Beauty Services
ABS,87791,11587804,Balmain Skin Sense,Shop 3 189 Darling St,Balmain,NSW,2041,SYDNEY,02 98100601,,,,Balmainss@live.com,www.balmain.ellabache.com.au/,Beauty,9511,Hairdressing and Beauty Services
ABS,87869,11587882,Boko Hair & Day Spa,485 Darling St,Balmain,NSW,2041,SYDNEY,02 98104988,,,,boko@digisurf.com.au,,Beauty,9511,Hairdressing and Beauty Services
ABS,88032,11588045,Daniela's Professional Beauty Therapy,106 Curtis Rd,Balmain,NSW,2041,SYDNEY,02 95551999,,,,danielasbeauty@gmail.com,www.danielabeauty.com.au,Beauty,9511,Hairdressing and Beauty Services
ABS,88133,11588146,Elizabeth Skin Care & Electrolysis Clinic,Shop 1/ 442 Darling St,Balmain,NSW,2041,SYDNEY,02 95559543,,,,elizabethskincare@hotmail.com,,Beauty,9511,Hairdressing and Beauty Services
ABS,88134,11588147,Ella Bache Balmain,Shop 3 189 Darling St,Balmain,NSW,2041,SYDNEY,02 98100601,,,,balmain@ellabachesalons.com.au,www.balmain.ellabache.com.au/,Beauty,9511,Hairdressing and Beauty Services
ABS,88498,11588511,Locks Hair,236 Darling St,Balmain,NSW,2041,SYDNEY,02 98182153,,,,info@lockshair.com.au,www.lockshair.com.au,Hair,9511,Hairdressing and Beauty Services
ABS,88650,11588663,Oaks Hair,565 Darling St,Balmain,NSW,2041,SYDNEY,02 95559021,,,,griffin@theoaksgroup.com.au,www.oakshair.com.au,Hair,9511,Hairdressing and Beauty Services
ABS,88712,11588725,Planet Beauty,Upper Level 371 Darling St,Balmain,NSW,2041,SYDNEY,02 98109999,,,02 98109998,planetbeauty@bigpond.com.au,www.planetbeauty.com.au,Beauty,9511,Hairdressing and Beauty Services
ABS,88834,11588847,Seature Hair,Shop 5/ 332 Darling St,Balmain,NSW,2041,SYDNEY,02 95558880,,,,info@seaturehair.com,www.seaturehair.com,Hair,9511,Hairdressing and Beauty Services
ABS,88859,11588872,Simple Beauty Spa,220 Darling St,Balmain,NSW,2041,SYDNEY,02 80410783,,,,beauty@zerodestiny.com,www.zerodestiny.com,Beauty,9511,Hairdressing and Beauty Services
ABS,89061,11589074,Veev,Shop 3 13 Beattie St,Balmain,NSW,2041,SYDNEY,02 98109200,,,,veev@bigpond.com,www.veev.com.au,Hair,9511,Hairdressing and Beauty Services
ABS,89135,11589148,153 Unisex Hair Studio,153 Enmore Rd,Enmore,NSW,2042,SYDNEY,02 95199976,,,,melissa.trian@gmail.com,,Hair,9511,Hairdressing and Beauty Services
ABS,89148,11589161,African Pride Salon,53 Enmore Rd,Enmore,NSW,2042,SYDNEY,02 95171251,,,,sales@salondeafricanpride.com.au,www.salondeafricanpride.com.au,Hair,9511,Hairdressing and Beauty Services
ABS,89213,11589226,Ctrl X,,Enmore,NSW,2042,SYDNEY,,,0414 386431,,angelaf.robertson@googlemail.com,www.ctrlxhair.com,Hair,9511,Hairdressing and Beauty Services
ABS,89289,11589302,I Scream Nails,Shop 11/ 130 Carillon Ave,Newtown,NSW,2042,SYDNEY,02 95160536,,,,sydney@iscreamnails.com.au,www.iscreamnails.com.au,Beauty,9511,Hairdressing and Beauty Services
ABS,89339,11589352,Mr Burrows Hair,27 Enmore Rd,Newtown,NSW,2042,SYDNEY,02 80685487,,,,reception@mrburrows.com.au,www.mrburrows.com.au,Hair,9511,Hairdressing and Beauty Services
ABS,89410,11589423,Smooth As Silk Laser Clinic,120 King St,Newtown,NSW,2042,SYDNEY,02 95191878,,,,info@smoothassilk.com.au,www.smoothassilk.com.au,Beauty,9511,Hairdressing and Beauty Services
ABS,89423,11589436,Sublime Skin Care,216 Enmore Rd,Enmore,NSW,2042,SYDNEY,,,0402 016029,,info@sublimeskincare.com.au,,Beauty,9511,Hairdressing and Beauty Services
ABS,90791,11590804,Emporio Nails & Beauty,Shop 11/ 191 Ramsay St,Haberfield,NSW,2045,SYDNEY,02 85402451,,0402 549721,,emporionails@live.com.au,www.beauty-salon-haberfield.websyte.com.au,Beauty,9511,Hairdressing and Beauty Services
ABS,90810,11590823,FMK Hair,70 Dalhousie St,Haberfield,NSW,2045,SYDNEY,02 97991857,,,,info@fmkhair.com.au,www.fmkhair.com.au,Hair,9511,Hairdressing and Beauty Services
ABS,91099,11591112,The Beauty Signture,Upper Level 86 Ramsey St,Haberfield,NSW,2045,SYDNEY,,,0400 979922,,beautysignature@bigpond.com,,Beauty,9511,Hairdressing and Beauty Services
ABS,91374,11591387,Beauty Warehouse The,106 Queens Rd,Five Dock,NSW,2046,SYDNEY,02 97125666,,,02 97139501,sales@beautywarehouse.com.au,www.beautywarehouse.com.au,Beauty,9511,Hairdressing and Beauty Services
ABS,91600,11591613,Dee's Hair & Beauty,141 Thompson Lane,Five Dock,NSW,2046,SYDNEY,02 97125965,,,,deeshairandbeauty@gmail.com,,Hair,9511,Hairdressing and Beauty Services
ABS,91681,11591694,Emma Walsh Luxury Mobile Beauty Treatments,52 Hampden Rd,Russell Lea,NSW,2046,SYDNEY,,,0410 480565,,info@emmawalsh.com.au,www.emmawalsh.com.au,Beauty,9511,Hairdressing and Beauty Services
ABS,91837,11591850,Grace Beauty Salon,71A Great North Rd,Five Dock,NSW,2046,SYDNEY,02 97135908,,,,sales@gracebeautysalon.com.au,www.gracebeautysalon.com.au,Beauty,9511,Hairdressing and Beauty Services
ABS,92182,11592195,NJ. Moods Beauty Salon,138 Great North Rd,Five Dock,NSW,2046,SYDNEY,02 97122553,,,,njmoods@hotmail.com.au,,Beauty,9511,Hairdressing and Beauty Services
ABS,92203,11592216,Organic Hair Studio Sydney,"101a Great North Rd,",Five Dock,NSW,2046,SYDNEY,02 97134143,,,,studio@organichairstudiosydney.com.au,www.organichairstudiosydney.com.au,Hair,9511,Hairdressing and Beauty Services
ABS,92405,11592418,Sexy Nails Five Dock,103 Great North Rd,Five Dock,NSW,2046,SYDNEY,02 97125999,,,,sexynailsfivedock@yahoo.com.au,www.sexynailsfivedock.com.au,Beauty,9511,Hairdressing and Beauty Services
ABS,92561,11592574,The Skin And Laser Clinic Sydney,1/ 157 Great North Rd,Five Dock,NSW,2046,SYDNEY,,,0416 779989,,info@theskinandlaserclinic.com.au,www.theskinandlaserclinic.com.au,Beauty,9511,Hairdressing and Beauty Services
ABS,92837,11592850,Beauty Full,38-50 Lyons Rd,Drummoyne,NSW,2047,SYDNEY,02 98196999,,,,info@beautyfull.net.au,www.beautyfull.net.au,Beauty,9511,Hairdressing and Beauty Services
ABS,93016,11593029,D'Lush Hair,114 Lyons Rd,Drummoyne,NSW,2047,SYDNEY,02 97193825,,,,dlushhair@optusnet.com.au,,Hair,9511,Hairdressing and Beauty Services
ABS,93073,11593086,Drummoyne Skin Revision Pty Ltd,11/ 52 Lyons Rd,Drummoyne,NSW,2047,SYDNEY,02 97191149,,,,clinic@drummoyneskinrevision.com.au,www.drummoyneskinrevision.com.au,Beauty,9511,Hairdressing and Beauty Services
ABS,93514,11593527,Permanence Drummoyne,186A Victoria Rd,Drummoyne,NSW,2047,SYDNEY,02 97191391,,,,hadachan@hotmail.com,www.permanence.com.au,Beauty,9511,Hairdressing and Beauty Services
ABS,93515,11593528,Permanence Drummoyne Electrolysis,186A Victoria Rd,Drummoyne,NSW,2047,SYDNEY,02 97191391,,,,hodacham@hotmail.com,,Beauty,9511,Hairdressing and Beauty Services
ABS,93591,11593604,Rita Ferraina Makeup Design,114 Lyons Rd,Drummoyne,NSW,2047,SYDNEY,,,0406 062943,,rfmakeupdesign@outlook.com,www.rfmakeupdesign.com.au/,Beauty,9511,Hairdressing and Beauty Services
ABS,94061,11594074,Endless Youth & Beauty Clinic,59 Harrow Rd,Stanmore,NSW,2048,SYDNEY,02 90116963,,,,info@endlessyouthandbeauty.com.au,www.endlessyouthandbeauty.com.au,Beauty,9511,Hairdressing and Beauty Services
ABS,94104,11594117,Hair by Arthur George,14 Salisbury Rd,Stanmore,NSW,2048,SYDNEY,,,0406 992932,,hairbyarthurgeorge@hotmail.com,www.hairbyarthurgeorge.com.au,Hair,9511,Hairdressing and Beauty Services
ABS,94198,11594211,Monstrosity Dreadlocks,160 Parramatta Rd,Stanmore,NSW,2048,SYDNEY,,,0490 060116,,info@monstrosity.com.au,www.monstrositydreadlocks.com,Hair,9511,Hairdressing and Beauty Services
ABS,94597,11594610,Chrissy's Hair House,275 Stanmore Rd,Petersham,NSW,2049,SYDNEY,02 95699806,,,,andrewjaroyan@hotmail.com,,Hair,9511,Hairdressing and Beauty Services
ABS,94664,11594677,"ENC BEAUTY, BODY & ACCESORIES PTY LTD",Shop B/ 118 New Canterbury Rd,Petersham,NSW,2049,SYDNEY,02 95682937,,,,lorena@ecologienaturalcosmetics.com,www.ecologienaturalcosmetics.com,Beauty,9511,Hairdressing and Beauty Services
ABS,95090,11595103,St Patricks Institute of Education,2C West St,Lewisham,NSW,2049,SYDNEY,02 95091266,,,,admin@spie.edu.au,www.spie.edu.au/courses/diploma-of-business-administration/,Beauty,9511,Hairdressing and Beauty Services
ABS,95518,11595531,Home Beauty Therapy,,Camperdown,NSW,2050,SYDNEY,,,0434 488814,,info@homebeautytherapy.com,www.homebeautytherapy.com,Beauty,9511,Hairdressing and Beauty Services
ABS,95528,11595541,I Love Perfect Lashes - Eyelash Extension Technician,25 Barr St,Camperdown,NSW,2050,SYDNEY,,,0414 352762,,sugar.boutique@icloud.com,,Beauty,9511,Hairdressing and Beauty Services
ABS,95606,11595619,Manic Cure,35 Gibbens St,Camperdown,NSW,2050,SYDNEY,02 95570517,,,,info@manic-cure.com.au,www.manic-cure.com.au,Beauty,9511,Hairdressing and Beauty Services
ABS,95754,11595768,Signature Day Spa,77 Parramatta Rd,Camperdown,NSW,2050,SYDNEY,02 95172525,,,,enquiries@signaturedayspa.com.au,www.signaturedayspa.com.au,Massage and Spa,9511,Hairdressing and Beauty Services
ABS,95807,11595821,Tan Empire,Sterling Cct,Camperdown,NSW,2050,SYDNEY,,,0404 994024,,tanempire@yahoo.com.au,,Solarium and Tanning,9511,Hairdressing and Beauty Services
ABS,95841,11595855,Travis George Hair,105 Parramatta Rd,Camperdown,NSW,2050,SYDNEY,02 95655551,,,,tg@travisgeorgehair.com,www.travisgeorgehair.com,Hair,9511,Hairdressing and Beauty Services
ABS,96378,11596392,Orchid Nails & Beauty,Shop 460/ 1 Anderson St,Chatswood,NSW,2057,SYDNEY,02 94115050,,,,nuraysbeautyservices@hotmail.com,,Nails,9511,Hairdressing and Beauty Services
ABS,96873,11596888,Afrodita Beauty,Miller St Via Zalmhair,North Sydney,NSW,2060,SYDNEY,02 99558873,,,,info@afroditabeauty.com,www.afroditabeauty.com,Beauty,9511,Hairdressing and Beauty Services
ABS,97241,11597256,Beauty At Greenwood,36 Blue St,North Sydney,NSW,2060,SYDNEY,02 99556897,,,,greenwoodbeauty@bigpond.com,www.beautywonderland.com.au,Beauty,9511,Hairdressing and Beauty Services
ABS,98001,11598016,Ella Bach,Level 2 77 Berry St,North Sydney,NSW,2060,SYDNEY,02 84235655,1300 856166,,,study@ellabachecollege.edu.au,www.ellabachecollege.edu.au,Beauty,9511,Hairdressing and Beauty Services
ABS,99255,11599270,Mobile Spray Tanning by Karina,,North Sydney,NSW,2060,SYDNEY,,,0415 917991,,o0karina0o@hotmail.com,,Solarium and Tanning,9511,Hairdressing and Beauty Services
ABS,99281,11599296,Morgan & Elwood,242 Miller St,North Sydney,NSW,2060,SYDNEY,,,0425 407114,,enquiries@morganelwood.com,www.morganelwood.com,Beauty,9511,Hairdressing and Beauty Services
ABS,99336,11599351,Nailed It! Nails by Nicole Lauren,9 William St,North Sydney,NSW,2060,SYDNEY,,,0468 712793,,appointments@nailsbynicolelauren.com.au,www.nailsbynicole.com.au,Nails,9511,Hairdressing and Beauty Services
ABS,99505,11599521,Northside Hair Workshop,Shop 12A Berry Square 77 Berry St,North Sydney,NSW,2060,SYDNEY,02 99594104,,,,northsidehair@yahoo.com.au,www.berrysquare.com.au/stores/healthbeauty/northsidehairworkshop.amx,Hair,9511,Hairdressing and Beauty Services
ABS,100179,11600195,Sheado On Walker,123 Walker St,North Sydney,NSW,2060,SYDNEY,02 99223773,,,,sheado@bigpond.com,,Hair,9511,Hairdressing and Beauty Services
ABS,100593,11600609,The Medi Spa At North Sydney,100 Miller St,North Sydney,NSW,2060,SYDNEY,02 99546962,,,,info@themedispanorthsydney.com.au,www.themedispanorthsydney.com.au,Beauty,9511,Hairdressing and Beauty Services
ABS,101026,11601042,Beauty On Cliff,Shop 2 Cliff St,Milsons Point,NSW,2061,SYDNEY,02 89201868,,,,info@beautyoncliff.com.au,www.beautyoncliff.com.au/,Beauty,9511,Hairdressing and Beauty Services
ABS,101306,11601322,Les Smooth,21 Glen St,Milsons Point,NSW,2061,SYDNEY,02 84567588,,,,info@lessmooth.com,www.lessmooth.com,Beauty,9511,Hairdressing and Beauty Services
ABS,101691,11601707,Body Essentials,445 Miller St,Cammeray,NSW,2062,SYDNEY,02 89200111,1300 275180,,,info@bodyessentials.com.au,www.bodyessentials.com.au,Beauty,9511,Hairdressing and Beauty Services
ABS,101812,11601828,Glow Medispa,473 Miller St,Cammeray,NSW,2062,SYDNEY,02 99551027,,,,info@glowbeauty.com.au,www.glowbeauty.com.au,Beauty,9511,Hairdressing and Beauty Services
ABS,101885,11601901,Louisa Grant Hairdressing,79 Rosalind St,Cammeray,NSW,2062,SYDNEY,,,0433 909178,,louisa.grant@live.com.au,,Hair,9511,Hairdressing and Beauty Services
ABS,101996,11602012,Silk Beauty Clinic,20 Cammeray Rd,Cammeray,NSW,2062,SYDNEY,02 99041902,,,,elizabeth@silkbeautyclinic.com.au,www.silkbeautyclinic.com.au,Beauty,9511,Hairdressing and Beauty Services
ABS,102373,11602389,Manhattan Nails,Shop 1/ 147 Sailors Bay Rd,Northbridge,NSW,2063,SYDNEY,02 99588050,,0450 655132,,tuanau@gmail.com,www.manhattannails.com.au,Beauty,9511,Hairdressing and Beauty Services
ABS,102489,11602505,Portfolio Hair,Shp26/ Northridge Plz,Northbridge,NSW,2063,SYDNEY,02 99584099,,,,northbridge@portfoliohair.com.au,www.portfoliohair.com.au,Hair,9511,Hairdressing and Beauty Services
ABS,102579,11602595,The Laser Lounge Northbridge,177 Sailors Bay Rd,Northbridge,NSW,2063,SYDNEY,02 99675733,,,,northbridge@thelaserlounge.com.au,www.thelaserlounge.com.au,Beauty,9511,Hairdressing and Beauty Services
ABS,104386,11604402,Amazing Lashes,98A Willoughby Rd,Crows Nest,NSW,2065,SYDNEY,,,0452 527437,,amazinglashessydney@gmail.com,,Beauty,9511,Hairdressing and Beauty Services
ABS,104960,11604976,Cybertan Tanning Solarium,Level 1 19- 21 Falcon St,Crows Nest,NSW,2065,SYDNEY,,,0421 941759,,tansmart@cybertansolarium.com.au,www.cybertansolarium.com.au,Solarium and Tanning,9511,Hairdressing and Beauty Services
ABS,105505,11605521,Greenwich Point Beauty,123 Greenwich Rd,Greenwich,NSW,2065,SYDNEY,02 94381164,,,,greenwichpointbeauty@yahoo.com.au,,Beauty,9511,Hairdressing and Beauty Services
ABS,105554,11605570,Hair Takeaway For Him,,Crows Nest,NSW,2065,SYDNEY,,,0421 832493,,hairtakeaway4him@gmail.com,,Beauty,9511,Hairdressing and Beauty Services
ABS,106014,11606030,L.I.K.E STYLE Hairdressing,Shop 7 504 Pacific Hwy,St Leonards,NSW,2065,SYDNEY,02 80844590,,,,info@likestyle.com.au,www.likestyle.com.au,Hair,9511,Hairdressing and Beauty Services
ABS,106419,11606435,Mozarts Hair Studio,Suite 1/ 81 Alexander St,Crows Nest,NSW,2065,SYDNEY,02 99065586,,,,mayneconcrete@bigpond.com,www.mozartshair.com.au,Hair,9511,Hairdressing and Beauty Services
ABS,107054,11607070,Rejuvenate Hair And Body Spa,"Suite 4, 599 Pacific Hwy,",St Leonards,NSW,2065,SYDNEY,02 99660766,,,,info@splitenz.com.au,www.rejuvenatesalonspa.com,Massage and Spa,9511,Hairdressing and Beauty Services
ABS,107398,11607414,Souk & Bizar Hair,17 Falcon St,Crows Nest,NSW,2065,SYDNEY,02 94395337,,,,info@soukbizarhair.com.au,www.soukbizarhair.com.au,Hair,9511,Hairdressing and Beauty Services
ABS,107689,11607705,The Hairdresser,93 Greenwich Rd,Greenwich,NSW,2065,SYDNEY,02 94396397,,,,info@thehairdresser.com.au,www.thehairdresser.com.au,Hair,9511,Hairdressing and Beauty Services
ABS,107692,11607708,The International Beauty Institute Orange,Suit 201 25 Falcon St,Crows Nest,NSW,2065,SYDNEY,,1300 655169,,,tibio@colourcity.com,www.tibiorange.com.au,Beauty,9511,Hairdressing and Beauty Services
ABS,107937,11607953,Waterbrook Hair & Beauty,6 Ulonga Ave,Greenwich,NSW,2065,SYDNEY,02 94338109,,,,hairandbeauty@waterbrookgreenwich.com.au,,Beauty,9511,Hairdressing and Beauty Services
ABS,108420,11608436,Body By Design,16 Birdwood Lane,Lane Cove,NSW,2066,SYDNEY,,,0410 199338,,info@bodybydesign.com.au,www.bodybydesign.com.au,Beauty,9511,Hairdressing and Beauty Services
ABS,108613,11608629,Communities at Work - Education.farranstreet.com.au,11 Farran St,Lane Cove,NSW,2066,SYDNEY,,,0417 237734,,education@farranstreet.com.au,www.education.farranstreet.com.au/,Beauty,9511,Hairdressing and Beauty Services
ABS,108759,11608775,Elizabeth's Beauty Clinic,Shop 5 105 Longueville Rd,Lane Cove,NSW,2066,SYDNEY,02 94285049,,,,elizabeth.beauty@bigpond.com.au,,Beauty,9511,Hairdressing and Beauty Services
ABS,108935,11608951,Hair Suite,Shop 22/ 43-45 Burns Bay Rd,Lane Cove,NSW,2066,SYDNEY,02 94285522,,,,polyxeni@optusnet.com.au,,Hair,9511,Hairdressing and Beauty Services
ABS,109428,11609444,Nails & Tanning By Kel - Mobile Salon,,Lane Cove,NSW,2066,SYDNEY,,,0424 563372,,kellyu84@gmail.com,,Beauty,9511,Hairdressing and Beauty Services
ABS,110128,11610144,YF Beauty / You First Beauty,Shop 1a 79-83 Longueville Rd,Lane Cove,NSW,2066,SYDNEY,02 90071128,,,,yf.beauty@hotmail.com,,Beauty,9511,Hairdressing and Beauty Services
ABS,110158,11610174,@Head Office,Shop 6/ 465 Victoria Ave,Chatswood,NSW,2067,SYDNEY,02 94111110,,,,songfam3@gmail.com,,Hair,9511,Hairdressing and Beauty Services
ABS,110295,11610311,ACT ON SKIN CARE CLINIC,Shop 10 2nd Floor 284 Victoria Ave,Chatswood,NSW,2067,SYDNEY,,,0410 636969,,actonskincare88@gmail.com,,Beauty,9511,Hairdressing and Beauty Services
ABS,110426,11610442,ANGELIC Nails & Beauty,Shop 238/ Westfield,Chatswood,NSW,2067,SYDNEY,02 94193639,,,,angelicnailsandbeauty@yahoo.com.au,,Beauty,9511,Hairdressing and Beauty Services
ABS,110439,11610455,Annie's Beauty,Level 1/ 86 Archer St,Chatswood,NSW,2067,SYDNEY,02 98847123,,,,jeffreyhang2002@yahoo.com.au,,Beauty,9511,Hairdressing and Beauty Services
ABS,110564,11610580,Australian Academy Of Beauty And Spa Therapy,"Shop 36, Lemongrove Shopping Centre, 427 Victoria Ave",Chatswood,NSW,2067,SYDNEY,,1300 277785,,,ausacadbeauty@aol.com,www.australianacademyofbeautytherapy.com,Beauty,9511,Hairdressing and Beauty Services
ABS,110686,11610702,Beauty Pilgrim,15 Lone Pine Ave,Chatswood,NSW,2067,SYDNEY,02 84172398,,,,info@beautypilgrim.com,www.beautypilgrim.com/,Beauty,9511,Hairdressing and Beauty Services
ABS,110721,11610737,Best of Beauty,Suite 3 / first floor 414 Victoria Ave,Chatswood,NSW,2067,SYDNEY,,,0422 314406,,info@cosmetictattooqueen.com,www.cosmetictattooqueen.com,Beauty,9511,Hairdressing and Beauty Services
ABS,110852,11610868,BV Beauty & Laser Clinic,Suite 1 95 Fullers Rd,Chatswood,NSW,2067,SYDNEY,02 94134340,,,,bvlaser@gmail.com,www.bvbeauty.com.au,Beauty,9511,Hairdressing and Beauty Services
ABS,110853,11610869,BV Laser Hair Removal,S 6 95 Cnr Greville & Fullers Rd,Chatswood,NSW,2067,SYDNEY,02 94111177,,,,info@bvlaser.com.au,www.bvlaser.com.au,Beauty,9511,Hairdressing and Beauty Services
ABS,111543,11611559,Ella Rouge Beauty,"Chatswood Westfield, Shop 510, Level 5, 1 Anderson St",Chatswood,NSW,2067,SYDNEY,02 94131222,,,,chatswood@ellarouge.com.au,www.ellarouge.com.au,Beauty,9511,Hairdressing and Beauty Services
ABS,111544,11611560,Ella Rouge Beauty,"Chatswood Chase, Shop B 024, Lower Ground, 345 Victoria Ave",Chatswood,NSW,2067,SYDNEY,02 94100626,,,,chatswoodchase@ellarouge.com.au,,Beauty,9511,Hairdressing and Beauty Services
ABS,111556,11611572,Emma's Secret,Shop 36 Lemongrove Shopping Ctr,Chatswood,NSW,2067,SYDNEY,02 94113444,,,,info@urbanspa.com.au,,Beauty,9511,Hairdressing and Beauty Services
ABS,111585,11611601,Esclava hair,Shop 8/ 370 Victoria Ave,Chatswood,NSW,2067,SYDNEY,02 94194280,,,,enquiries@esclavahair.com.au,www.esclavahair.com.au,Hair,9511,Hairdressing and Beauty Services
ABS,111805,11611821,Glamour Lash Bar Pty Ltd,813 Pacific Hwy,Chatswood,NSW,2067,SYDNEY,02 86685969,,,,support@glamourlashbar.com.au,www.glamourlashbar.com.au,Beauty,9511,Hairdressing and Beauty Services
ABS,111896,11611912,Hair Organics Australia,164 Victoria Ave,Chatswood,NSW,2067,SYDNEY,02 80958801,,,,info@hairorganics.com.au,www.hairorganics.com.au,Hair,9511,Hairdressing and Beauty Services
ABS,112050,11612066,I-Beaute Skin & Body,"Shop 8, Victoria Plaza, 369 Victoria Avenue,",Chatswood,NSW,2067,SYDNEY,02 94198999,,,,portia789@hotmail.com,,Beauty,9511,Hairdressing and Beauty Services
ABS,112055,11612071,Ienjoy Hair & Beauty Salon,Shop 2/ 72-76 Archer St,Chatswood,NSW,2067,SYDNEY,02 94103929,,,,angelachan888@yahoo.com,,Beauty,9511,Hairdressing and Beauty Services
ABS,112137,11612153,JAL Hairdresser,Shop 1/ 77 Archer St,Chatswood,NSW,2067,SYDNEY,02 85414279,,,,jalchatswood@gmail.com,www.jalhairdresser.com.au,Hair,9511,Hairdressing and Beauty Services
ABS,112190,11612206,Just Bronze,Shop 1/ 396 Victoria Rd,Chatswood,NSW,2067,SYDNEY,02 94112346,,,,info@justbronze.com.au,www.justbronze.com.au,Solarium and Tanning,9511,Hairdressing and Beauty Services
ABS,112301,11612317,Laser Hair Removal Chatswood,1 Anderson St,Chatswood,NSW,2067,SYDNEY,,1800 537371,,,chatswood@laserclinics.com.au,www.laserclinics.com.au,Beauty,9511,Hairdressing and Beauty Services
ABS,112359,11612375,LHD Organic Hair,Suite 102/ 379 Victoria Ave,Chatswood,NSW,2067,SYDNEY,02 94134747,,,,info@lhdorganic.com.au,www.lhdorganic.com.au,Hair,9511,Hairdressing and Beauty Services
ABS,112430,11612446,Luc Espace,"Shop 17, Level 1, Chatswood Chase",Chatswood,NSW,2067,SYDNEY,02 94101033,,,,chatswood@lucespace.com,www.lucespace.com,Hair,9511,Hairdressing and Beauty Services
ABS,112436,11612452,Luxe Concept Salon,Shop G 059/ 345 Victoria Ave,Chatswood,NSW,2067,SYDNEY,02 94121244,,,,imagineuk@bigpond.com,,Hair,9511,Hairdressing and Beauty Services
ABS,112597,11612613,Minas Beauty Salon,Ste 102/ 379 Victoria Ave,Chatswood,NSW,2067,SYDNEY,02 94194788,,,,minasbeautysalon@gmail.com,,Beauty,9511,Hairdressing and Beauty Services
ABS,112868,11612884,Oriental Spa,1/ 67 Archer St,Chatswood,NSW,2067,SYDNEY,02 99046455,,,,sydneychatswood@orientalspa.com.au,www.orientalspa.com.au,Massage and Spa,9511,Hairdressing and Beauty Services
ABS,112948,11612964,People Studio,66-70 Archer St,Chatswood,NSW,2067,SYDNEY,02 91998599,,,,chatswood@peoplestudio.com.au,www.peoplestudio.com.au,Hair,9511,Hairdressing and Beauty Services
ABS,113286,11613302,Salon Repbulic Co,Shop 4/ 70 Archer St,Chatswood,NSW,2067,SYDNEY,02 94195285,,,,chatswood@salonrepublic.co,www.salonrepublic.co,Hair,9511,Hairdressing and Beauty Services
ABS,113786,11613802,Toni&Guy Chatswood,Shop 3 282 Victoria Ave,Chatswood,NSW,2067,SYDNEY,02 94101755,,,,chatswood@toniandguy.com.au,www.toniandguy.com.au/salons/nsw-locations/chatswood/,Beauty,9511,Hairdressing and Beauty Services
ABS,113835,11613851,Tribe Lifestyle,Westfield Shopping Centre Lvl 5 Shop 512 1 Anderson St,Chatswood,NSW,2067,SYDNEY,02 92665660,,,,info@tribehair.com.au,www.tribelifestyle.com.au,Hair,9511,Hairdressing and Beauty Services
ABS,113906,11613922,Vault Hair,"Shop 18/ 455 Victoria Ave, Orchard Centre",Chatswood,NSW,2067,SYDNEY,02 94100600,,,,vault.hair@gmail.com,www.vaulthair.com.au,Hair,9511,Hairdressing and Beauty Services
ABS,113984,11614000,Weena Rehabilitation & Skincare Centre,3 A/ 379 Victoria Ave,Chatswood,NSW,2067,SYDNEY,02 94152893,,,,yanjin1229@hotmail.com,www.weenaskincare.hopout.com.au/,Beauty,9511,Hairdressing and Beauty Services
ABS,114208,11614224,Clipso Hairdressing,18/ 100 Edinburgh Rd,Castlecrag,NSW,2068,SYDNEY,02 99580170,,,,info@clipsohairdressing.com.au,www.clipsohairdressing.com.au/,Hair,9511,Hairdressing and Beauty Services
ABS,114489,11614505,AM Studios,27 Hill St,Roseville,NSW,2069,SYDNEY,,,0412 988322,,alicemillerstudios@gmail.com,,Hair,9511,Hairdressing and Beauty Services
ABS,115360,11615376,Bruno The Hair Stylist,,Lindfield,NSW,2070,SYDNEY,02 94165934,,0408 461096,,ddimarzo@bigpond.net.au,www.brunothehairstylist.com.au,Hair,9511,Hairdressing and Beauty Services
ABS,115487,11615503,Eve & The Apple,,Lindfield,NSW,2070,SYDNEY,,,0414 194269,,eveandtheapplebeauty@gmail.com,,Solarium and Tanning,9511,Hairdressing and Beauty Services
ABS,115933,11615949,Sun days tans and wraps,,Lindfield,NSW,2070,SYDNEY,02 94161171,,,,mariajnorn@gmail.com,,Solarium and Tanning,9511,Hairdressing and Beauty Services
ABS,115975,11615991,Total Hair Indulgence,Shop 3/27- 31 Lindfield Ave,Lindfield,NSW,2070,SYDNEY,02 98808864,,,,jards@optusnet.com.au,www.thi.net.au,Hair,9511,Hairdressing and Beauty Services
ABS,116439,11616455,"Stop, Chop & Roll",1-7 Bruce Ave,Killara,NSW,2071,SYDNEY,,,0415 062913,,stopchopandroll@outlook.com,www.stopchopandroll.com.au/,Hair,9511,Hairdressing and Beauty Services
ABS,116643,11616659,Body Sense Solutions,Lvl 1/ 773 Pacific Hwy,Gordon,NSW,2072,SYDNEY,02 94982188,,,,bssolutions@optusnet.com.au,www.bodysensesolutions.com.au,Beauty,9511,Hairdressing and Beauty Services
ABS,116645,11616661,Bodysense Solutions,Lvl 1/ 773 Pacific Hwy,Gordon,NSW,2072,SYDNEY,02 94982188,,,,hmcnamara@optusnet.com.au,www.bodysensesolutions.com.au,Massage and Spa,9511,Hairdressing and Beauty Services
ABS,117625,11617641,Cynosure Pty Ltd,14-16 Suakin St,Pymble,NSW,2073,SYDNEY,02 94844546,,,,cynosureaustralia@hotmail.com,www.cynosureaustralia.com/,Beauty,9511,Hairdressing and Beauty Services
ABS,117733,11617749,Fresh Image Beauty,,Pymble,NSW,2073,SYDNEY,,,0452 477300,,freshimagebeauty@hotmail.com,,Beauty,9511,Hairdressing and Beauty Services
ABS,118069,11618085,PrettyShop,2073 West Pymble St,West Pymble,NSW,2073,SYDNEY,,,0423 165773,,chuajullieann@gmail.com,,Beauty,9511,Hairdressing and Beauty Services
ABS,118479,11618495,Beauty Atelier,1390 Pacific Hwy,Turramurra,NSW,2074,SYDNEY,02 80685617,1300 885766,,,customercare@beautyatelier.com.au,www.beautyatelier.com.au,Hair,9511,Hairdressing and Beauty Services
ABS,118480,11618496,Beauty Insights,,Turramurra,NSW,2074,SYDNEY,,,0405 299447,,beautyinsights@gmail.com,www.beautyinsights.com.au,Beauty,9511,Hairdressing and Beauty Services
ABS,118722,11618738,Gillian Adams Salon & Spa,1356 Pacific Hwy,Turramurra,NSW,2074,SYDNEY,02 94889944,,,,enquiry@gillianadams.com.au,www.gillianadams.com.au,Beauty,9511,Hairdressing and Beauty Services
ABS,118941,11618957,Mason Anthony Hairdressing,1370 Pacific Hwy,Turramurra,NSW,2074,SYDNEY,02 99883404,,,,anthony.speziale@bigpond.net,,Hair,9511,Hairdressing and Beauty Services
ABS,119744,11619761,Emma's Secret,27 Coonanbarra Rd,Wahroonga,NSW,2076,SYDNEY,02 94877311,,,,emmasec1@aol.com,,Massage and Spa,9511,Hairdressing and Beauty Services
ABS,120054,11620071,Natalie Cummins Beauty Therapy,56 Denman Parade,Normanhurst,NSW,2076,SYDNEY,02 94877090,,,,yuvask@hotmail.com,,Beauty,9511,Hairdressing and Beauty Services
ABS,120338,11620355,tee,79 Pennant Hills Rd,Normanhurst,NSW,2076,SYDNEY,02 94877482,,,,email@teesalon.com.au,www.teesalon.com.au,Beauty,9511,Hairdressing and Beauty Services
ABS,120353,11620370,The Goddess Beauty & Aromatherapy Salon,Suite 2/ 5 Redleaf Ave,Wahroonga,NSW,2076,SYDNEY,02 94898740,,,,info@thegoddess.com.au,www.thegoddess.com.au,Beauty,9511,Hairdressing and Beauty Services
ABS,121517,11621534,Ella Rouge Beauty,"Hornsby Westfield, Shop 2058, Level 2, 236 Pacific Highway",Hornsby,NSW,2077,SYDNEY,02 94821225,,,,hornsby@ellarouge.com.au,,Beauty,9511,Hairdressing and Beauty Services
ABS,121533,11621550,Endota Spa Hornsby,Shop 3104/ 236 Pacific Hwy,Hornsby,NSW,2077,SYDNEY,02 90115444,,,,hornsby@endota.com.au,www.endota.com.au,Massage and Spa,9511,Hairdressing and Beauty Services
ABS,121629,11621646,For The Love Of Beauty,3A William St,Hornsby,NSW,2077,SYDNEY,02 94829272,,0412 476262,,fortheloveofbeauty@hotmail.com,www.fortheloveofbeauty.com.au,Beauty,9511,Hairdressing and Beauty Services
ABS,121833,11621850,HOPI hair design,88-90 George St,Hornsby,NSW,2077,SYDNEY,02 94467430,,,,hopihairdesign@gmail.com,,Beauty,9511,Hairdressing and Beauty Services
ABS,122508,11622525,Mister Cuts Barbershop Hornsby,Shop 3074/ Level 3/ 236 Pacific Hwy,Hornsby,NSW,2077,SYDNEY,02 94821111,,,,mistercutsbarbershop@gmail.com,,Hair,9511,Hairdressing and Beauty Services
ABS,122819,11622836,Perrott Sister Electrolysis,Room 11/151- 153 Pacific Hwy,Hornsby,NSW,2077,SYDNEY,02 94827774,,0412 747774,,lorrainemtaylor@yahoo.com,,Beauty,9511,Hairdressing and Beauty Services
ABS,122996,11623013,Reiki Retreat,236 Pacific Hwy,Hornsby,NSW,2077,SYDNEY,,,0457 160151,,reikiretreat@outlook.com,,Massage and Spa,9511,Hairdressing and Beauty Services
ABS,123364,11623381,Sydney Paramount Service Pty Ltd,Shop 129/ 121-131 Pacific Hwy,Hornsby,NSW,2077,SYDNEY,02 94773493,,,,admin@sydneyparamountservice.com.au,www.sydneyparamountservice.com.au,Hair,9511,Hairdressing and Beauty Services
ABS,123436,11623453,The Nail & Lash,Suite 1/level 1 165-167 Pacific Hwy,Hornsby,NSW,2077,SYDNEY,,,0404 859928,,cher.beauty.clare@gmail.com,,Beauty,9511,Hairdressing and Beauty Services
ABS,123757,11623774,Beauty in Berowra,,Berowra,NSW,2081,SYDNEY,,,0407 432322,,beautyinberowra@bigpond.com,,Beauty,9511,Hairdressing and Beauty Services
ABS,123968,11623985,Sensory Waxing & Tanning Studio,11a Yeramba Cres,Berowra,NSW,2081,SYDNEY,,,0413 623800,,sensorywax@gmail.com,www.sensorywaxingstudio.com,Solarium and Tanning,9511,Hairdressing and Beauty Services
ABS,124040,11624057,Akishma Skin & Body,118 Turner Rd,Berowra Heights,NSW,2082,SYDNEY,,,0418 890043,,rebecca@akishma.com,www.akishma.com,Beauty,9511,Hairdressing and Beauty Services
ABS,124158,11624175,Glamourous,,Berowra Heights,NSW,2082,SYDNEY,,,0417 680293,,glamourous@iinet.net.au,,Solarium and Tanning,9511,Hairdressing and Beauty Services
ABS,124182,11624199,Infinity Hair Design,Shop 7/ 19 Turner Rd,Berowra Heights,NSW,2082,SYDNEY,02 94564487,,,,Infinityhair@bigpond.com,www.infinityhairdesign.com.au,Hair,9511,Hairdressing and Beauty Services
ABS,124557,11624574,Equipmed,283 Mona Vale Rd,Terrey Hills,NSW,2084,SYDNEY,02 98893636,1300 668755,,,dermapenworld@gmail.com,,Beauty,9511,Hairdressing and Beauty Services
ABS,124669,11624686,Anesi,6E Narabang Way,Belrose,NSW,2085,SYDNEY,02 94863211,,,,james@intbeauty.com.au,,Beauty,9511,Hairdressing and Beauty Services
ABS,124978,11624995,GlamaBronze Mobile Tanning,,Davidson,NSW,2085,SYDNEY,,,0423 789139,,glamabronzemt@live.com.au,www.glamabronze.com.au,Solarium and Tanning,9511,Hairdressing and Beauty Services
ABS,125056,11625073,International Beauty Supplies,Unit E/ 6 Narrabang Way,Belrose,NSW,2085,SYDNEY,02 94863211,1300 656353,,02 94863233,info@intbeauty.com.au,www.intbeauty.com.au,Beauty,9511,Hairdressing and Beauty Services
ABS,125096,11625113,Km Hair Design,Shop 7 2-6 Yindela St,Davidson,NSW,2085,SYDNEY,02 99751382,,,,kaye_newell@hotmail.com,www.kmhair.com.au,Hair,9511,Hairdressing and Beauty Services
ABS,125747,11625764,Cure Hairdressing,Shop 1 55 Sorlie Rd,Frenchs Forest,NSW,2086,SYDNEY,02 94511150,,,,cure@curehairdressing.com,www.curehairdressing.com,Hair,9511,Hairdressing and Beauty Services
ABS,125787,11625804,Distinction,Shop 5/ 63 Sorlie Rd,Frenchs Forest,NSW,2086,SYDNEY,02 94510342,,,,lucyshair@live.com.au,,Hair,9511,Hairdressing and Beauty Services
ABS,126407,11626424,Sigalit Skin Care & Beauty Salon,12 Pound Ave,Frenchs Forest,NSW,2086,SYDNEY,02 94530785,,0402 326829,,galitmarlow@gmail.com,,Beauty,9511,Hairdressing and Beauty Services
ABS,126611,11626629,You Little Beauty,,Frenchs Forest,NSW,2086,SYDNEY,,,0430 372786,,enquiries@youlittlebeauty.com.au,www.youlittlebeauty.com.au,Beauty,9511,Hairdressing and Beauty Services
ABS,126736,11626754,Bodysense Solutions,Shop 1/ 23 Tramore Pl,Killarney Heights,NSW,2087,SYDNEY,02 94535800,,,,info@therabeautic.com.au,,Massage and Spa,9511,Hairdressing and Beauty Services
ABS,126739,11626757,Bound For Beauty,2/ 51 Arthur St,Forestville,NSW,2087,SYDNEY,02 94522005,,,,kpm_inc@iprimus.com.au,,Beauty,9511,Hairdressing and Beauty Services
ABS,127005,11627023,HQ Hair Design,Shop 12 Starkey St,Forestville,NSW,2087,SYDNEY,02 99751934,,,,hqhairdesign@hotmail.com,www.hqhairdesign.com.au,Hair,9511,Hairdressing and Beauty Services
ABS,127121,11627139,Medihair Hairdressing,8-14 Starkey St,Forestville,NSW,2087,SYDNEY,02 85417601,,,,info@medihair.com.au,www.medihair.com.au,Hair,9511,Hairdressing and Beauty Services
ABS,127252,11627270,Savvy Skin,2 Laurel Ch,Forestville,NSW,2087,SYDNEY,02 94019504,,,,savvyskin@optusnet.com.au,www.savvyskin.com.au,Beauty,9511,Hairdressing and Beauty Services
ABS,127296,11627314,Studio Hair And Makeup,Shop 41 Tramore Pl,Killarney Heights,NSW,2087,SYDNEY,02 94534023,,,,Info@studio-hair.com.au,www.studio-hair.com.au,Hair,9511,Hairdressing and Beauty Services
ABS,127663,11627681,Bassam Hair & Beauty Salon,Shop 4/ 599 Military Rd,Mosman,NSW,2088,SYDNEY,02 99696595,,,,info@bassam.com.au,www.bassam.com.au,Hair,9511,Hairdressing and Beauty Services
ABS,127694,11627712,Body Blush,,Mosman,NSW,2088,SYDNEY,,,0405 934580,,jacquitealey@iprimus.com.au,,Solarium and Tanning,9511,Hairdressing and Beauty Services
ABS,127722,11627740,Bronze Avenue,Unit 3/ 8 Spit Rd,Mosman,NSW,2088,SYDNEY,02 99693994,,,,info@bronzeavenue.com.au,www.bronzeavenue.com.au,Beauty,9511,Hairdressing and Beauty Services
ABS,127759,11627777,Carlo & Elise Hair Salon,3 5 Spit Rd,Mosman,NSW,2088,SYDNEY,02 80680299,,,,salon@carloandelise.com.au,www.carloandelise.com.au,Hair,9511,Hairdressing and Beauty Services
ABS,127844,11627862,CooshCabana Pty Limited,3 19 Shadforth St,Mosman,NSW,2088,SYDNEY,,,0431 138896,,cooshcabana123@gmail.com,www.cooshcabana.com.au/,Beauty,9511,Hairdressing and Beauty Services
ABS,128017,11628035,Electrolysis Works,39 Bond St,Mosman,NSW,2088,SYDNEY,02 99696474,,,,enquiries@electrolysisworks.com.au,www.electrolysisworks.com.au,Beauty,9511,Hairdressing and Beauty Services
ABS,128185,11628203,Glow & Grace The Beauty Specialist,34 Spit Rd,Mosman,NSW,2088,SYDNEY,02 99695417,,,,info@glowngrace.com.au,www.glowngrace.com.au,Beauty,9511,Hairdressing and Beauty Services
ABS,128218,11628236,HairBar Mosman,940 Military Rd,Mosman,NSW,2088,SYDNEY,02 99681740,,,,victoria.hairbar@hairdresser.net,www.hairbar.sydney,Hair,9511,Hairdressing and Beauty Services
ABS,128338,11628356,Jo Bellamy Hairdressers,32 Spit Rd,Mosman,NSW,2088,SYDNEY,02 99601611,,,,info@jobellamyhairdressers.com.au,www.jobellamyhair.com.au,Hair,9511,Hairdressing and Beauty Services
ABS,128404,11628422,LAUREN BARFIELD,29 Countess St,Mosman,NSW,2088,SYDNEY,,,0410 530485,,mosmancarpetcleaners@gmail.com,www.carpetcleaningmosman.net,Beauty,9511,Hairdressing and Beauty Services
ABS,128459,11628477,Made In Paris International Hair Design,Shop 1/ 934-936 Military Rd,Mosman,NSW,2088,SYDNEY,02 99684714,,,,salon@madeinparishair.com.au,www.madeinparishair.com.au/,Hair,9511,Hairdressing and Beauty Services
ABS,128536,11628554,Mosman Beauty Studio,"Shop 30, Level 1, Bridgepoint Snopping Cntr, 1-3 Brady St",Mosman,NSW,2088,SYDNEY,02 99682197,,,,zarasapounas@hotmail.com,,Beauty,9511,Hairdressing and Beauty Services
ABS,128789,11628807,Renee Sallustio Hair Stylist / Colour Tecnician,104 Glover St,Mosman,NSW,2088,SYDNEY,,,0420 613173,,reneesallustio@yahoo.com.au,www.reneesallustiohair.com.au,Hair,9511,Hairdressing and Beauty Services
ABS,128853,11628871,Shambala Day Spa,717 Military Rd,Mosman,NSW,2088,SYDNEY,02 99681588,,,,info@shambaladayspa.com.au,www.shambaladayspa.com.au,Beauty,9511,Hairdressing and Beauty Services
ABS,128879,11628897,Spa Mosman,3/ 8 Spit Rd,Mosman,NSW,2088,SYDNEY,02 99693994,,,,info@spamosman.com.au,www.spamosman.com.au,Beauty,9511,Hairdressing and Beauty Services
ABS,129142,11629160,Allure Eyelash Extensions,42A Education Lane,Cremorne,NSW,2090,SYDNEY,,,0431 999533,,allureeyelashextension@gmail.com,www.allureeyelashextensions.com.au/,Beauty,9511,Hairdressing and Beauty Services
ABS,129203,11629221,Belle's Bronzed Bodies,Wycombe Rd,Cremorne,NSW,2090,SYDNEY,,,0404 834046,,belleriddle@hotmail.com,,Solarium and Tanning,9511,Hairdressing and Beauty Services
ABS,129280,11629298,Colour My Hair Down There,316-346A 8 Military Rd,Cremorne Point,NSW,2090,SYDNEY,02 99044086,,,,social@colourmyhairdownthere.com.au,www.colourmyhairdownthere.com.au,Hair,9511,Hairdressing and Beauty Services
ABS,129556,11629574,Mimi's Beauty & Skin Care Clinic,"Shop G 11, Cremorne Town Centre 287 Military Rd",Cremorne,NSW,2090,SYDNEY,02 99091117,,,,info@mimisbeauty.com.au,www.mimisbeautyandskincare.com.au,Beauty,9511,Hairdressing and Beauty Services
ABS,129576,11629594,Natural Pubic Hair Dye - Colour My Hair Down There,140 Cremorne Junction St,Cremorne Point,NSW,2090,SYDNEY,02 99044086,,,,sales@colourmyhairdownthere.com.au,www.colourmyhairdownthere.com.au,Beauty,9511,Hairdressing and Beauty Services
ABS,129670,11629688,Rosalina's Secrets,,Cremorne Point,NSW,2090,SYDNEY,02 86685997,,,,info@rosalinassecrets.com,,Beauty,9511,Hairdressing and Beauty Services
ABS,129697,11629715,Shine,Unit 21/ 332 Military Rd,Cremorne,NSW,2090,SYDNEY,02 99530093,,,,shinehairandbeauty@bigpond.com,www.shinehairandbeautysite.com,Hair,9511,Hairdressing and Beauty Services
ABS,129797,11629815,Toni Curtis Hair Design,3/2 Langley Ave,Cremorne,NSW,2090,SYDNEY,02 99081423,,,,jzucc@three.com.au,,Hair,9511,Hairdressing and Beauty Services
ABS,129822,11629840,U 4 Hair,Suit 4 271 Military Rd,Cremorne,NSW,2090,SYDNEY,02 99093158,,,,ulrik@u4hair.com.au,www.u4hair.com.au/,Hair,9511,Hairdressing and Beauty Services
ABS,130082,11630100,The Bees Knees Skincare,Shop 4/ 536 Sydney Rd,Seaforth,NSW,2092,SYDNEY,02 99495814,,,,info@thebeesknees.com.au,www.thebeesknees.com.au,Beauty,9511,Hairdressing and Beauty Services
ABS,130346,11630364,Beach Beauty Spray Tans,,Manly Vale,NSW,2093,SYDNEY,,,0424 562060,,jenbrennan76@gmail.com,,Beauty,9511,Hairdressing and Beauty Services
ABS,130476,11630494,Chase The Sun Tanning AND Beauty,Shop 2 307 Condamine St,Manly Vale,NSW,2093,SYDNEY,02 99496678,,,,info@chasethesun.com.au,www.chasethesun.com.au,Beauty,9511,Hairdressing and Beauty Services
ABS,130963,11630981,KAWII HAIR SALON,387 Sydney Rd,Balgowlah,NSW,2093,SYDNEY,02 99495728,,,,minsukkwon@yahoo.com.au,,Hair,9511,Hairdressing and Beauty Services
ABS,131073,11631091,Mantra Hair,3/ 345 Sydney Rd,Balgowlah,NSW,2093,SYDNEY,02 99496937,,,,mantrahair@optusnet.com.au,,Hair,9511,Hairdressing and Beauty Services
ABS,131239,11631257,Peel & Squeal Beauty Salon,Shop 5/ 345 Sydney Rd,Balgowlah,NSW,2093,SYDNEY,02 99483277,,,,peelandsqueal@hotmail.com,www.peelandsqueal.com.au,Beauty,9511,Hairdressing and Beauty Services
ABS,131434,11631452,SkinSecrets Salons,318 Sydney Rd,Balgowlah,NSW,2093,SYDNEY,,,0450 771558,,tracey.twomey@gmail.com,www.skinsecrets.com.au,Beauty,9511,Hairdressing and Beauty Services
ABS,131443,11631461,Snip Into,301-303 Condamine St,Manly Vale,NSW,2093,SYDNEY,02 99495572,,,,info@snipinto.com.au,www.snipinto.com.au/,Hair,9511,Hairdressing and Beauty Services
ABS,131537,11631555,Taya Dulvey Hair,291 Condamine St,Manly Vale,NSW,2093,SYDNEY,02 99481973,,,,taya.dulvey@gmail.com,,Hair,9511,Hairdressing and Beauty Services
ABS,132187,11632205,Beauty Point Salon,Pacific Point Arc Shop 5 4-10 Sydney Road Shop 5 4-10 Sydney Rd,Manly,NSW,2095,SYDNEY,02 99778557,,,,mybeautypoint@yahoo.com,www.beautypoint.net.au,Beauty,9511,Hairdressing and Beauty Services
ABS,132300,11632318,Captain Sip Sop's Manly,32 Pittwater Rd,Manly,NSW,2095,SYDNEY,,,0478 156652,,captainsipsopmanly@hotmail.com,,Hair,9511,Hairdressing and Beauty Services
ABS,132302,11632320,Carnaby Hair,,Manly,NSW,2095,SYDNEY,,,0422 582719,,Leanne@carnabyhair.com.au,www.carnabyhair.com.au,Hair,9511,Hairdressing and Beauty Services
ABS,132414,11632432,D.L.C Men's Hair Salon,Shop 2 53 Sydney Rd,Manly,NSW,2095,SYDNEY,02 89600594,,,,infomanlydlc@gmail.com,www.fortunatoignazio.com/,Hair,9511,Hairdressing and Beauty Services
ABS,132530,11632548,Excellent Extensions,34 Wood St,Manly,NSW,2095,SYDNEY,,,0422 054274,,m123shell@gmail.com,www.excellentextensions.vpweb.co.uk,Hair,9511,Hairdressing and Beauty Services
ABS,132702,11632720,Honey Body Salon,Lvl 1 Unit 7 18 Whistler St,Manly,NSW,2095,SYDNEY,02 99770349,,,,info@honeybodysalon.com.au,www.honeybodysalon.com.au,Massage and Spa,9511,Hairdressing and Beauty Services
ABS,132707,11632725,Hovan's Group,"Level 2, 22 Darley Road,",Manly,NSW,2095,SYDNEY,02 99776655,,,,info@manukasurgery.com.au,www.cosmetictattooaustralia.com,Beauty,9511,Hairdressing and Beauty Services
ABS,133007,11633025,Manly Creative Hair & Beauty,13 The Corso,Manly,NSW,2095,SYDNEY,02 99762200,,,,info@xtnd.com.au,www.manlycreative.com.au,Beauty,9511,Hairdressing and Beauty Services
ABS,133296,11633314,Omrah Hair,,Manly,NSW,2095,SYDNEY,,,0403 619655,,f-argyriou@hotmail.com,,Hair,9511,Hairdressing and Beauty Services
ABS,133347,11633365,Peninsula College Of Beauty Therapy,"Suite 301, Level 3, 27 Belgrave St",Manly,NSW,2095,SYDNEY,02 99776144,,,,pcbt@optusnet.com.au,www.peninsulacollege.com.au,Beauty,9511,Hairdressing and Beauty Services
ABS,133501,11633519,Salus Beauty & Day Spa,Shop 18/ 74-78 The Corso,Manly,NSW,2095,SYDNEY,02 89669616,,,,salusbeautymanly@live.com,www.salusbeautymanly.com,Beauty,9511,Hairdressing and Beauty Services
ABS,133506,11633524,SamsMakeup.net,38 Condover St,Manly,NSW,2095,SYDNEY,,,0451 005780,,sam@samsmakeup.net,www.samsmakeup.net,Beauty,9511,Hairdressing and Beauty Services
ABS,133518,11633536,Scizzor Sister Home Hair,,Manly,NSW,2095,SYDNEY,,,0434 911527,,info@scizzorsister.com.au,,Hair,9511,Hairdressing and Beauty Services
ABS,133773,11633791,Truth Beauty,Shop 8 Market Pl,Manly,NSW,2095,SYDNEY,02 89578973,,,,truthbeauty88@gmail.com,,Beauty,9511,Hairdressing and Beauty Services
ABS,133784,11633802,Unique Hair Manly,13 Market Lane,Manly,NSW,2095,SYDNEY,02 86685262,,,,unique.hair.manly@gmail.com,www.uniquehairmanly.com,Hair,9511,Hairdressing and Beauty Services
ABS,133982,11634000,Bliss Beauty,Shop 3 31 Brighton St,Curl Curl,NSW,2096,SYDNEY,02 99394439,,,,georgie.blissbeauty@gmail.com,www.bliss-beauty.com.au,Beauty,9511,Hairdressing and Beauty Services
ABS,134714,11634732,Accent On Nails,6/ 18 Aubreen St,Collaroy Plateau,NSW,2097,SYDNEY,02 99816500,,,,accentonnails@bigpond.com,,Nails,9511,Hairdressing and Beauty Services
ABS,134767,11634785,Aroma Ki Day Spa,1121 Pittwater Rd,Collaroy Beach,NSW,2097,SYDNEY,02 99822446,,,,maryanne@aromaki.com.au,www.aromaki.com.au,Massage and Spa,9511,Hairdressing and Beauty Services
ABS,134854,11634873,Chakra Hair & Beauty,Shop 3/ 24 Aubreen St,Collaroy Plateau,NSW,2097,SYDNEY,,,0414 938925,,marinaturpin@bigpond.com,www.chakrahairandbeauty.com/,Beauty,9511,Hairdressing and Beauty Services
ABS,134896,11634915,Collaroy Skin Care & Beauty Retreat,Shop 3/ 1073 Pittwater Rd,Collaroy,NSW,2097,SYDNEY,02 99717895,,,,simone@collaroyskinandbeauty.com.au,www.collaroyskinandbeauty.com.au,Beauty,9511,Hairdressing and Beauty Services
ABS,135059,11635078,Hair by Lauren,35/ 7-11 Collaroy St,Collaroy,NSW,2097,SYDNEY,02 80948522,,0404 042401,,benloz@live.com,,Hair,9511,Hairdressing and Beauty Services
ABS,135060,11635079,Hairazor Creations,Shop 3 1- 5 Collaroy St,Collaroy,NSW,2097,SYDNEY,02 99826600,,,,hairazor@bigpond.com,www.hairazor.com.au,Hair,9511,Hairdressing and Beauty Services
ABS,135117,11635136,Jessie Skin Care & Beauty,6/ 23 Telopea St,Collaroy Plateau,NSW,2097,SYDNEY,02 99384884,,,,jessietao1109@gmail.com,www.jessietao1109.wix.com,Beauty,9511,Hairdressing and Beauty Services
ABS,135226,11635245,Myras Hairdressing,13 Aubreen St,Collaroy Plateau,NSW,2097,SYDNEY,,,0408 009819,,dedman01@optusnet.com,,Hair,9511,Hairdressing and Beauty Services
ABS,135401,11635420,Stacey's Secret,Shop 4D/ 65 Veteran Parade,Collaroy Plateau,NSW,2097,SYDNEY,02 99826298,,0404 042401,,staceychr@yahoo.com,,Hair,9511,Hairdressing and Beauty Services
ABS,135459,11635478,The Hair & Makeup Studio,Shop 4/ 23 Telopea St,Collaroy Plateau,NSW,2097,SYDNEY,02 99824768,,,,info@thehairandmakeupstudio.com.au,www.thehmustudio.com,Hair,9511,Hairdressing and Beauty Services
ABS,135503,11635522,Unity Hair Design,1091 Pitt Water Rd,Collaroy,NSW,2097,SYDNEY,02 99712958,,,,unityhairandbeauty@gmail.com,,Hair,9511,Hairdressing and Beauty Services
ABS,135725,11635744,Angela Yelland Hair Stylists,8/ 70-72 Pitt Rd,North Curl Curl,NSW,2099,SYDNEY,02 99054790,,,,angelayellandhairstylists@outlook.com,www.angelayellandhairstylists.blogspot.com.au/,Hair,9511,Hairdressing and Beauty Services
ABS,135884,11635903,Beautyliscious,Shop 4 142-146 Pitt Rd,North Curl Curl,NSW,2099,SYDNEY,02 99381620,,,,mary@beautyliscious.com,www.beautyliscious.com,Hair,9511,Hairdressing and Beauty Services
ABS,136349,11636368,Dee Why Tanning Studio,850 Pittwater Rd,Dee Why,NSW,2099,SYDNEY,02 99724367,,,,info@sunspa.com.au,www.sunspa.com.au,Solarium and Tanning,9511,Hairdressing and Beauty Services
ABS,136549,11636568,Five Senses Face & Body Rejuvenation,1 Burrawal Pl,Cromer,NSW,2099,SYDNEY,,,0403 946664,,beauty@fivesenses.info,www.fivesenses.info/,Beauty,9511,Hairdressing and Beauty Services
ABS,136712,11636731,Hard Core Nails,,Cromer,NSW,2099,SYDNEY,,,0406 300682,,jonowlan@gmail.com,www.hardcorenails.net,Beauty,9511,Hairdressing and Beauty Services
ABS,136868,11636887,Jewels Hair By Design,Shop 3/ 22 Fisher Rd,Dee Why,NSW,2099,SYDNEY,02 99720440,,,,info@jewelshair.com.au,www.jewelshair.com.au,Hair,9511,Hairdressing and Beauty Services
ABS,137022,11637041,Loooks Skin Consulting,,Dee Why,NSW,2099,SYDNEY,,,0450 233188,,loooks@ymail.com,,Beauty,9511,Hairdressing and Beauty Services
ABS,137355,11637374,"Pamper, Polish and Pout",Quirk St,Dee Why,NSW,2099,SYDNEY,,,0423 834111,,pamperpolishandpout@unwired.com.au,,Beauty,9511,Hairdressing and Beauty Services
ABS,137421,11637440,Pink with Envy,57 Carawa Rd,Cromer,NSW,2099,SYDNEY,02 99829622,,,,kelli@pinkwithenvy.com.au,,Beauty,9511,Hairdressing and Beauty Services
ABS,137897,11637916,The Beauty Plan,1b 675 Pittwater Rd,Dee Why,NSW,2099,SYDNEY,,1300 252737,,,doreen@thebeautyplan.com.au,www.thebeautyplan.com.au,Beauty,9511,Hairdressing and Beauty Services
ABS,138275,11638294,AbsoluteSkin,319 /20 Dale St,Brookvale,NSW,2100,SYDNEY,02 99391060,,,,service@absoluteskin.com.au,www.absoluteskin.com.au,Beauty,9511,Hairdressing and Beauty Services
ABS,138737,11638757,Beauty Lines Cosmetic Tattoo,Suite 2 Level 2 696 Pittwater Rd,Brookvale,NSW,2100,SYDNEY,,1300 886655,,,info@cosmetictattooaustralia.com,www.cosmetictattooaustralia.com,Beauty,9511,Hairdressing and Beauty Services
ABS,139297,11639317,Deelush mobile Hair & Beauty,,Allambie Heights,NSW,2100,SYDNEY,,,0405 035115,,deelushair@gmail.com,,Hair,9511,Hairdressing and Beauty Services
ABS,139460,11639480,Element of Beauty Brookvale,Shop 4/ 650 Pittwater Rd,Brookvale,NSW,2100,SYDNEY,02 99074088,,,,jenny@elementofbeautybrookvale.com.au,www.elementofbeautybrookvale.com.au,Beauty,9511,Hairdressing and Beauty Services
ABS,139463,11639483,Ella Rouge Beauty,"Warringah Mall, Shop 322, Level 1, Cnr Condamine St and Old Pittwater Rd",Brookvale,NSW,2100,SYDNEY,02 99398888,,,,warringahmall@ellarouge.com.au,,Beauty,9511,Hairdressing and Beauty Services
ABS,139465,11639485,Elle Jae Hair Creation,Shop 1/ 475 Pittwater Rd,Brookvale,NSW,2100,SYDNEY,02 99072624,,,,elle-jaehair@optusnet.com.au,,Hair,9511,Hairdressing and Beauty Services
ABS,139690,11639710,Gernetic,Unit 1 252 Allambie Rd,Allambie Heights,NSW,2100,SYDNEY,02 94526230,,,,info@gernetic.com.au,www.gernetic.com.au,Beauty,9511,Hairdressing and Beauty Services
ABS,139791,11639811,Hair & Make up by Angela D,,Beacon Hill,NSW,2100,SYDNEY,,,0404 363639,,micandange@hotmail.com,www.hairmakeupbyangeladonline.vpweb.com.au,Hair,9511,Hairdressing and Beauty Services
ABS,139794,11639814,Hair Fix,2- 4 William St,Brookvale,NSW,2100,SYDNEY,02 99050775,,,,lindafgrant@bigpond.com,,Hair,9511,Hairdressing and Beauty Services
ABS,139917,11639937,House Of Samara,69 Binalong Ave,Allambie Heights,NSW,2100,SYDNEY,,,0402 223911,,sara@houseofsamara.com.au,www.houseofsamara.com.au,Beauty,9511,Hairdressing and Beauty Services
ABS,140018,11640038,Ivy College,20 Dale St,Brookvale,NSW,2100,SYDNEY,02 83552060,,,,info@ivy.edu.au,www.ivy.edu.au,Beauty,9511,Hairdressing and Beauty Services
ABS,140896,11640916,Pure Bronze Spray Tanning,20 Kadigal Pl,Beacon Hill,NSW,2100,SYDNEY,,,0423 327400,,lozzamajozza@hotmail.com,www.purebronzetanning.com.au,Solarium and Tanning,9511,Hairdressing and Beauty Services
ABS,141159,11641179,Skin Sensations,83 Madison Way,Allambie Heights,NSW,2100,SYDNEY,02 99753598,,,,info@skinsensations.com.au,www.skinsensation.com.au,Beauty,9511,Hairdressing and Beauty Services
ABS,141296,11641316,Stylz Hair Design,Warringah Mall Warringah Mall Shop 411 Pittwater Rd,Brookvale,NSW,2100,SYDNEY,02 99073633,,,,warringahmall@stylz.com.au,www.stylz.com.au/stylz-hairdressing-services/,Hair,9511,Hairdressing and Beauty Services
ABS,141636,11641656,Urban Beauty,Shop 1 / 403 Westfield Warringah Mall,Brookvale,NSW,2100,SYDNEY,02 99074644,,,,urbanbeautymall@hotmail.com,www.urbanbeauty.com.au,Beauty,9511,Hairdressing and Beauty Services
ABS,142054,11642074,Earth Angels Unique Beauty,Shop 4B Gondola Rd,North Narrabeen,NSW,2101,SYDNEY,02 99707655,,,,kate_s_lucas@yahoo.com.au,www.microdermabrasion.net.au,Beauty,9511,Hairdressing and Beauty Services
ABS,142151,11642171,Haizels Beauty Spot,Shop 3 47-49 Elanora Rd,Elanora Heights,NSW,2101,SYDNEY,02 99139756,,,,nfo@haizelsbeauty.com.au,www.haizelsbeauty.com.au,Beauty,9511,Hairdressing and Beauty Services
ABS,142174,11642194,Human Hair Extensions,4B Wattle Rd,Ingleside,NSW,2101,SYDNEY,,,,,ashley.anton@humanhairextensiononline.com.au,www.humanhairextensiononline.com.au/,Hair,9511,Hairdressing and Beauty Services
ABS,142217,11642237,Jen's Hair Creations,Shop 3 209 Ocean St,North Narrabeen,NSW,2101,SYDNEY,,,0402 579634,,jenniferhigman@hotmail.com,,Hair,9511,Hairdressing and Beauty Services
ABS,142341,11642361,Nicole Tatar Beauty Therapy,32 Bungoona Ave,Elanora Heights,NSW,2101,SYDNEY,02 99707921,,,,littlebeauty@mac.com,www.nicoletatarbeauty.com.au,Beauty,9511,Hairdressing and Beauty Services
ABS,143065,11643085,Bare Bodz,"Level 1 Bungan Court, 13 Waratah St.",Mona Vale,NSW,2103,SYDNEY,02 99990899,,0424 509019,,barebodz@bigpond.com,www.barebodz.com.au,Beauty,9511,Hairdressing and Beauty Services
ABS,143351,11643371,Ecru Hair Studio,2/8- 10 Waratah St,Mona Vale,NSW,2103,SYDNEY,02 99978399,,,,ecru4hair@hotmail.com,www.ecruhairstudio.com,Hair,9511,Hairdressing and Beauty Services
ABS,143697,11643717,La Mona Beauty & Electrolysis,Shop 12 12-14 Waratah St,Mona Vale,NSW,2103,SYDNEY,02 99971034,,,,info@lamonabeauty.com.au,www.lamonabeauty.com.au,Beauty,9511,Hairdressing and Beauty Services
ABS,144124,11644144,Portfolio Hair,1773 Pittwater Rd,Mona Vale,NSW,2103,SYDNEY,02 99971343,,,,monavale@portfoliohair.com.au,www.portfoliohair.com.au,Hair,9511,Hairdressing and Beauty Services
ABS,144125,11644145,Portfolio Hair Pty Ltd,1/ 1773 Pittwater Rd,Mona Vale,NSW,2103,SYDNEY,02 99971343,,,,enquiries@portfoliohair.com.au,www.portfoliohair.com.au,Hair,9511,Hairdressing and Beauty Services
ABS,144592,11644612,Bodyline Beauty,14 Beaumont Cres,Bayview,NSW,2104,SYDNEY,,,0416 129433,,bodylinebeauty@bigpond.com,www.bodylinebeauty.com.au,Beauty,9511,Hairdressing and Beauty Services
ABS,145094,11645114,Ambience In Hair,42-44 Old Barrenjoey Rd,Avalon Beach,NSW,2107,SYDNEY,02 99182212,,,,ambienceinhair@hotmail.com,,Hair,9511,Hairdressing and Beauty Services
ABS,145258,11645278,Beaches Beauty Avalon,43A Elvina Ave,Avalon Beach,NSW,2107,SYDNEY,02 99188580,,,,beachesbeautyavalon@bigpond.com,www.beachesbeautyavalon.com,Beauty,9511,Hairdressing and Beauty Services
ABS,145820,11645840,Northern Beaches Beauty Salon,30 Whale Beach Rd,Avalon Beach,NSW,2107,SYDNEY,02 99184657,,,,info@northernbeachesbeauty.com.au,www.northernbeachesbeauty.com.au,Beauty,9511,Hairdressing and Beauty Services
ABS,145875,11645895,Pedi Spa Holistic Beauty,18 Old Barrenjoey Rd,Avalon Beach,NSW,2107,SYDNEY,,,0419 997947,,pedispa@optusnet.com.au,www.pedispa.net.au,Beauty,9511,Hairdressing and Beauty Services
ABS,145995,11646015,Scallys,Shop 2 17- 19 Old Barrenjoey Rd,Avalon Beach,NSW,2107,SYDNEY,02 99183324,,,,scallyssalon@iinet.net.au,www.scallys.com.au,Hair,9511,Hairdressing and Beauty Services
ABS,146194,11646214,Weleda Australia,Shop 14 11-13 Avalon Parade,Avalon Beach,NSW,2107,SYDNEY,,1300 551454,,,info@weleda.com.au,www.weleda.com.au,Beauty,9511,Hairdressing and Beauty Services
ABS,146201,11646221,White Lotus Anti Aging,4 Plateau Rd,Avalon Beach,NSW,2107,SYDNEY,07 33398085,,,,markseaton12@hotmail.com,www.whitelotus.com.au,Beauty,9511,Hairdressing and Beauty Services
ABS,146374,11646394,Palm Sanctuary,Corner Nabilla and Barrenjoey Rd,Palm Beach,NSW,2108,SYDNEY,,,0499 283562,,info@palmsanctuary.com.au,www.palmsanctuary.com.au,Beauty,9511,Hairdressing and Beauty Services
ABS,146744,11646764,Heavenly Touch Skin Care,10/ 71-75 Gladesville Rd,Hunters Hill,NSW,2110,SYDNEY,02 98171589,,,,info@heavenlytouchsc.com.au,www.heavenlytouchsc.com.au,Beauty,9511,Hairdressing and Beauty Services
ABS,146752,11646772,Hunters Hill Barber Shop,Shop 8/ 52-56 Gladesville Rd,Hunters Hill,NSW,2110,SYDNEY,,,0424 180545,,sam2412@hotmail.com,,Hair,9511,Hairdressing and Beauty Services
ABS,146865,11646885,Milano Hair & Beauty,Shop 5/ 37 Alexandra St,Hunters Hill,NSW,2110,SYDNEY,02 98164613,,,,milanohair@bigpond.com,www.milanohair.com.au,Hair,9511,Hairdressing and Beauty Services
ABS,147166,11647186,Always Nail & Beauty Supply,Unit 21/ 33-37 College St,Gladesville,NSW,2111,SYDNEY,02 98176988,,,02 98176963,alwaysnail@yahoo.com.au,www.alwaysbeauty.com.au,Beauty,9511,Hairdressing and Beauty Services
ABS,147195,11647215,Arbonne Independent Consultant,,Gladesville,NSW,2111,SYDNEY,,,0410 433765,,belindamirenzi@myarbonne.com.au,www.belindamirenzi.myarbonne.com.au,Beauty,9511,Hairdressing and Beauty Services
ABS,147199,11647219,Artizano Hair Studio,Shop 5 203 Victoria Rd,Gladesville,NSW,2111,SYDNEY,02 98172729,,,,artizanohairstudio@bigpond.com,,Hair,9511,Hairdressing and Beauty Services
ABS,147436,11647457,Colourful Salon Nails & Beauty,Shop 5 225-227 Victoria Rd,Gladesville,NSW,2111,SYDNEY,02 98178110,,,,zorajan@ymail.com,www.colourfulsalon.com.au,Beauty,9511,Hairdressing and Beauty Services
ABS,147550,11647571,Ella Bache Gladesville,"Shop 15 Glades Centre, 225-227 Victoria Rd",Gladesville,NSW,2111,SYDNEY,02 98793211,,,,gladesville@ellabachesalons.com.au,www.gladesville.ellabache.com.au,Beauty,9511,Hairdressing and Beauty Services
ABS,147571,11647592,Facial Attraction,1st Floor 250 Victoria Rd,Gladesville,NSW,2111,SYDNEY,02 82316624,,,,admin@facialattraction.net.au,www.facialattraction.net.au,Beauty,9511,Hairdressing and Beauty Services
ABS,147715,11647736,Hair Rival,3 Albert St,Gladesville,NSW,2111,SYDNEY,02 98162521,,,,sarafina01@optusnet.com.au,www.hairrival.com.au,Hair,9511,Hairdressing and Beauty Services
ABS,147795,11647816,Jean Raymond Electrolysis,144 Pittwater Rd,Gladesville,NSW,2111,SYDNEY,02 98164358,,,,jean@jeanraymond.com.au,www.jeanraymond.com.au,Beauty,9511,Hairdressing and Beauty Services
ABS,148011,11648032,O.B Cuts For Men,223 Victoria Rd,Gladesville,NSW,2111,SYDNEY,02 98177662,,,,sneke8211@yahoo.com.au,,Hair,9511,Hairdressing and Beauty Services
ABS,148245,11648266,SKINN Beauty Bar,,Gladesville,NSW,2111,SYDNEY,,,0405 295850,,judy.skinnbeautybar@yahoo.com.au,,Beauty,9511,Hairdressing and Beauty Services
ABS,148246,11648267,Skinnovation Skincare,9 Massey St,Gladesville,NSW,2111,SYDNEY,,,0413 550867,,skinnovation@outlook.com.au,,Beauty,9511,Hairdressing and Beauty Services
ABS,148349,11648370,The Healing Room,42A Morrison Rd,Gladesville,NSW,2111,SYDNEY,,,0419 251441,,karen@thehealingroom.net.au,www.thehealingroom.net.au,Beauty,9511,Hairdressing and Beauty Services
ABS,148386,11648407,Trendy Hair Cut,Shop 17 225-227 Victoria Rd,Gladesville,NSW,2111,SYDNEY,02 80416314,,,,trendyhaircut1@gmail.com,,Hair,9511,Hairdressing and Beauty Services
ABS,148893,11648914,Ella Rouge,Level 1 shop 4008 Blaxland Rd,Ryde,NSW,2112,SYDNEY,02 98074477,,,,topryde@ellarouge.com.au,www.ellarouge.com.au,Beauty,9511,Hairdressing and Beauty Services
ABS,148897,11648918,Elysian Hair Beauty Spa Pty Ltd,217 Morrison Rd,Putney,NSW,2112,SYDNEY,02 89646343,,,,toni@elysianhairbeautyspa.com.au,www.elysianhairbeautyspa.com.au/,Massage and Spa,9511,Hairdressing and Beauty Services
ABS,148916,11648937,Evolution Laser Clinic,Shop 2034a/ 109-129 Blaxland Rd,Ryde,NSW,2112,SYDNEY,02 80149014,,,,topryde@evolutionlaser.com.au,www.evolutionlaser.com.au,Beauty,9511,Hairdressing and Beauty Services
ABS,149175,11649196,Leanne's Total Hair & Beauty,190 Blaxland Rd,Ryde,NSW,2112,SYDNEY,02 98097799,,,,leannestotalhairandbeauty@hotmail.com,,Beauty,9511,Hairdressing and Beauty Services
ABS,149395,11649416,Professionail Top Ryde,Shop 1011/ 115 Blaxland Rd,Ryde,NSW,2112,SYDNEY,02 98083720,,,,msvinhpham@optusnet.com.au,,Beauty,9511,Hairdressing and Beauty Services
ABS,149503,11649524,Salon 120,120 Charles St,Putney,NSW,2112,SYDNEY,02 98071095,,,,hairproductions120@gmail.com,,Hair,9511,Hairdressing and Beauty Services
ABS,149667,11649688,toma International,,Putney,NSW,2112,SYDNEY,02 88196024,,,,sales@sogho.com.au,www.sogho.com.au,Beauty,9511,Hairdressing and Beauty Services
ABS,150459,11650480,Ella Rouge Beauty,"Macquarie Centre, Shop 106, Level 3, Cnr Herring and Waterloo Rds",North Ryde,NSW,2113,SYDNEY,02 98889211,,,,macquarie@ellarouge.com.au,,Beauty,9511,Hairdressing and Beauty Services
ABS,150580,11650601,Frenchy Brown's Hair & Beauty Studio,Shop 6 Blenheim Rd,North Ryde,NSW,2113,SYDNEY,02 98783792,,,,hairandbeauty@frenchybrowns.com.au,www.frenchybrowns.com.au,Hair,9511,Hairdressing and Beauty Services
ABS,150671,11650692,Hair By Lex,Shop 2 3 /132 Coxs Rd,North Ryde,NSW,2113,SYDNEY,02 98782611,,,,alessandrialopresti@bigpond.com,,Hair,9511,Hairdressing and Beauty Services
ABS,150846,11650867,Just Hair,Shop 5/ 203 Coxs Rd,North Ryde,NSW,2113,SYDNEY,02 98788501,,,,justhair5@yahoo.com.au,www.justhair.com.au,Hair,9511,Hairdressing and Beauty Services
ABS,151289,11651310,Paris Hairdressing Laser & Beauty Services,Shop 3113/ Macquarie Ctr,North Ryde,NSW,2113,SYDNEY,02 98891008,,,,macquarie@parishairdressing.com.au,www.parishairdressing.com.au,Hair,9511,Hairdressing and Beauty Services
ABS,151759,11651780,The Macquarie Barber,Level 2/ Macquarie Shopping Centre/ Shop 2244a/ Herring & Waterloo Rds,North Ryde,NSW,2113,SYDNEY,02 80848587,,,,enquiry@themacquariebarber.com.au,www.themacquariebarber.com.au,Hair,9511,Hairdressing and Beauty Services
ABS,151891,11651912,Wax It Betty,"Shop 113, Level 3, Macquarie Centre",North Ryde,NSW,2113,SYDNEY,02 98894777,,,,contact@waxitbetty.com,www.waxitbetty.com,Beauty,9511,Hairdressing and Beauty Services
ABS,152063,11652084,Cut & Comb West Ryde,5A Chatham Rd West,West Ryde,NSW,2114,SYDNEY,02 98078987,,,,cutandcomb@optusnet.com.au,,Hair,9511,Hairdressing and Beauty Services
ABS,152386,11652408,Skin by Bay Cosmetic Clinic,Shop 6.1b 11 Bay Drive Plza,Meadowbank,NSW,2114,SYDNEY,02 98070240,,,,info@skinby.com.au,,Beauty,9511,Hairdressing and Beauty Services
ABS,152394,11652416,SS Mehendi,Unit 13 24-26 Meadow Cres,Meadowbank,NSW,2114,SYDNEY,,,0420 685765,,ssmehendi.info@gmail.com,www.ssmehendi.com,Beauty,9511,Hairdressing and Beauty Services
ABS,152509,11652531,Angel Star Hair & Beauty,6/39 Bartlett St,Ermington,NSW,2115,SYDNEY,,,0407 400640,,skipnib@hotmail.com,www.angelstarhairbeauty.com,Hair,9511,Hairdressing and Beauty Services
ABS,153721,11653743,Burnside Beauty & Nails,Shop 3 1 Blackwood Pl,Oatlands,NSW,2117,SYDNEY,02 98908218,,,,karen@burnsidebeauty.com.au,www.burnsidebeauty.com.au,Beauty,9511,Hairdressing and Beauty Services
ABS,153829,11653851,Exquisite Bridal Hair,34 Niblick Cres,Oatlands,NSW,2117,SYDNEY,,,0418 456532,,berna@exquisitebridalhair.com.au,www.exquisitebridalhair.com.au,Hair,9511,Hairdressing and Beauty Services
ABS,153976,11653998,Oatlands Hair and Beauty,42a Belmore St East,Oatlands,NSW,2117,SYDNEY,02 96832010,,,,kathy@oatlandshairandbeauty.com.au,www.oatlandshairandbeauty.com.au,Hair,9511,Hairdressing and Beauty Services
ABS,154095,11654118,Td'a Mobile Hairdressing,,Dundas,NSW,2117,SYDNEY,,,0400 322054,,tdamico@mobile-hairdressing.com.au,,Hair,9511,Hairdressing and Beauty Services
ABS,155059,11655082,Rosie's Beauty,Level 3/ Entrance Fitness First/ Pennant Hills Rd,Carlingford Court,NSW,2118,SYDNEY,02 98729417,,,,rosiesnailbeauty@bigpond.com,,Beauty,9511,Hairdressing and Beauty Services
ABS,155060,11655083,Rosie's Beauty,"Level 3 Carlingford Court, Inside Fitness First, Pennant Hills and Cnr Carlingford Road",Carlingford,NSW,2118,SYDNEY,02 98729417,,,,info@rosiesbeauty.com.au,www.rosiesbeauty.com.au,Beauty,9511,Hairdressing and Beauty Services
ABS,155106,11655129,Skin Perfection Boutique,Shop 3 14-20 Carmen Dr,Carlingford,NSW,2118,SYDNEY,02 86771325,,,,skinperfectionboutique@gmail.com,www.skinboutique.com.au,Beauty,9511,Hairdressing and Beauty Services
ABS,155514,11655537,Emma's Secret,Shop 3 6- 8 Hannah St,Beecroft,NSW,2119,SYDNEY,02 94840990,,,,beecroft@urbanspa.com.au,www.urbanspa.com.au,Massage and Spa,9511,Hairdressing and Beauty Services
ABS,155675,11655698,My Beauty Nails Salons,Shop 9/ 6-8 Hannah St,Beecroft,NSW,2119,SYDNEY,02 84112182,,,,mybeautynails.beecroft@gmail.com,,Beauty,9511,Hairdressing and Beauty Services
ABS,155707,11655730,Par Excellence Beecroft,Shop 14a/ 6-8 Hannah St,Beecroft,NSW,2119,SYDNEY,02 98753137,,,,beecroft.par.excellence@gmail.com,www.plus.google.com/100074724285649265543,Hair,9511,Hairdressing and Beauty Services
ABS,156452,11656475,HP Nails & Beauty,1/ 7 Hillcrest Rd,Pennant Hills,NSW,2120,SYDNEY,02 94848193,,,,luudinhhiepvcu@gmail.com,,Nails,9511,Hairdressing and Beauty Services
ABS,157036,11657059,Sydney College Of Skin Care,Level 1 375 Pennant Hills Rd,Pennant Hills,NSW,2120,SYDNEY,02 94817811,,,,school@skincarecollege.com.au,www.skincarecollege.com.au,Beauty,9511,Hairdressing and Beauty Services
ABS,157708,11657732,Hairacy Hair & Make-Up Design,Shop 3/ 49 Pennant Parade,Epping,NSW,2121,SYDNEY,02 98697927,,,02 98686018,info@hairacy.com.au,www.hairacy.com.au,Hair,9511,Hairdressing and Beauty Services
ABS,157878,11657902,Lush Hair & Body Epping,115 Midson Rd,Epping,NSW,2121,SYDNEY,02 98698394,,,,epping@lushlook.com.au,www.lushlook.com.au,Hair,9511,Hairdressing and Beauty Services
ABS,158694,11658719,Confidently Skin,Shop 20 Eastwood Village Sq,Eastwood,NSW,2122,SYDNEY,,,0432 323850,,confidentlyskin@gmail.com,www.confidentlyskin.com,Beauty,9511,Hairdressing and Beauty Services
ABS,158983,11659008,Hairgen Hair Loss Control Centre,2 Rowe St,Eastwood,NSW,2122,SYDNEY,,,0427 427232,,eparkoz@optusnet.com.au,www.hairgen.com.au,Hair,9511,Hairdressing and Beauty Services
ABS,159105,11659130,Kayes Hairstylist,206 Rowe St,Eastwood,NSW,2122,SYDNEY,02 98744910,,,,dana.zh@hotmail.com,www.kayes.com.au,Hair,9511,Hairdressing and Beauty Services
ABS,159136,11659161,Laguna Lady Day Spa,6 East Parade,Eastwood,NSW,2122,SYDNEY,02 99045474,,,,info@lagunadayspa.com.au,www.lagunadayspa.com.au,Massage and Spa,9511,Hairdressing and Beauty Services
ABS,159204,11659229,Madeca Total Beauty,Shop 2/ 1 Trafalgar Pl,Marsfield,NSW,2122,SYDNEY,02 98761660,,,,pamper@madeca.com.au,www.madeca.com.au,Beauty,9511,Hairdressing and Beauty Services
ABS,160228,11660253,MFSpray Tanning,,West Pennant Hills,NSW,2125,SYDNEY,,,0405 743850,,spraytansbymadi@gmail.com,,Solarium and Tanning,9511,Hairdressing and Beauty Services
ABS,160452,11660477,Botanika Skin Studio Beauty & Massage,40 Beechwood Parade,Cherrybrook,NSW,2126,SYDNEY,,,0404 871300,,nicoletierney0335@gmail.com,www.botanikaskin.com,Beauty,9511,Hairdressing and Beauty Services
ABS,160580,11660606,Ella Bache Cherrybrook,"Shop 38, Cherrybrook Shopping Village, 41-47 Shepherds Drive,",Cherrybrook,NSW,2126,SYDNEY,02 94814334,,,,cherrybrook@ellabachesalons.com.au,www.cherrybrook.ellabache.com.au,Beauty,9511,Hairdressing and Beauty Services
ABS,160593,11660619,Fari Hair & Beauty,15 Fernleigh Cl,Cherrybrook,NSW,2126,SYDNEY,,,0430 436026,,maleki_fr2000@yahoo.com,www.farihairandbeauty.com,Hair,9511,Hairdressing and Beauty Services
ABS,160627,11660653,Gorgeous Skin and Beauty - Kay Morris,Francis Greenway Dr,Cherrybrook,NSW,2126,SYDNEY,,,0413 008806,,kay@gorgeousskinandbeauty.com.au,www.gorgeousskinandbeauty.com.au,Beauty,9511,Hairdressing and Beauty Services
ABS,160836,11660862,Royals Hair,Shop 42 Cherrybrook Village,Cherrybrook,NSW,2126,SYDNEY,02 94818844,,,,info@royalshair.com.au,www.royalshair.com.au/,Hair,9511,Hairdressing and Beauty Services
ABS,161200,11661226,SunKissed by Donna,,Sydney Olympic Park,NSW,2127,SYDNEY,,,0415 919644,,sunkissed@hotmail.com.au,www.sunkissedbydonna.com.au,Solarium and Tanning,9511,Hairdressing and Beauty Services
ABS,161544,11661570,Hair Chair The,4A Lackey St,Summer Hill,NSW,2130,SYDNEY,02 97987908,,,,style@thehairchair.com.au,www.thehairchair.com.au,Hair,9511,Hairdressing and Beauty Services
ABS,162052,11662078,Carren Lee Make up,,Ashfield,NSW,2131,SYDNEY,,,0401 541139,,makeup.clee@gmail.com,www.carrenlee.com,Hair,9511,Hairdressing and Beauty Services
ABS,162350,11662376,Jingles Hair Design,217 Liverpool Rd,Ashfield,NSW,2131,SYDNEY,02 97993007,,,,jingleshairdesign@bigpond.com,,Hair,9511,Hairdressing and Beauty Services
ABS,162543,11662569,Oz Hair,Shop 7b Ashfield Mall 206a Liverpool Road,Ashfield,NSW,2131,SYDNEY,02 97998130,,,,elio@ozhair.com.au,www.ozhair.com.au,Hair,9511,Hairdressing and Beauty Services
ABS,163081,11663107,Danielle's Beauty Spot,17 The Strand,Croydon,NSW,2132,SYDNEY,,,0481 293409,,Danielle@daniellesbeautyspot.com.au,www.daniellesbeautyspot.com.au,Beauty,9511,Hairdressing and Beauty Services
ABS,163084,11663110,D'essence of Beauty Therapy,26 The Strand St,Croydon,NSW,2132,SYDNEY,,,0410 791554,,essenceofbeauty@live.com,,Beauty,9511,Hairdressing and Beauty Services
ABS,163285,11663311,Nikki's Beauty Bar,21 Hennessy St,Croydon,NSW,2132,SYDNEY,,,0449 121203,,nikkisbeautybar01@gmail.com,www.nikkisbeautybar.com.au,Beauty,9511,Hairdressing and Beauty Services
ABS,163665,11663691,HairByRay,,Croydon Park,NSW,2133,SYDNEY,,1300 255121,,,ray_vere@hotmail.com,www.hairbyray.com.au,Hair,9511,Hairdressing and Beauty Services
ABS,164127,11664153,Boyz2men Barbershop Burwood,Shop 2 42 Railway Parade,Burwood,NSW,2134,SYDNEY,02 80215237,,,,boyz2menbarbershop@hotmail.com,,Hair,9511,Hairdressing and Beauty Services
ABS,164188,11664214,Burwood Hair & Beauty Warehouse,57 Burwood Rd,Burwood,NSW,2134,SYDNEY,02 97155855,,,,info@tmhairindustry.com,,Hair,9511,Hairdressing and Beauty Services
ABS,164203,11664229,Burwood Paramedical Skin.Body.Beauty,26B Belomre St,Burwood,NSW,2134,SYDNEY,02 97151689,,,,jingwva@yahoo.com.au,www.paramedicalbeauty.com.au,Beauty,9511,Hairdressing and Beauty Services
ABS,164226,11664252,Burwood Skin Care & Electrolysis Centre,Suite 2-7/ 63 Burwood Rd,Burwood,NSW,2134,SYDNEY,02 97448643,,,,burwoodskincare@bigpond.com,www.burwoodskincare.citysearch.com.au,Beauty,9511,Hairdressing and Beauty Services
ABS,164459,11664485,Edge Hair Extensions Beauty Salon,189 Burwood Rd,Burwood,NSW,2134,SYDNEY,02 97155551,,,,mariamakoroma76@yahoo.com,www.edgehairextensions.com.au/,Beauty,9511,Hairdressing and Beauty Services
ABS,164475,11664501,Ella Rouge Beauty,"Burwood Westfield, Shop 211, Level 1, 100 Burwood Rd",Burwood,NSW,2134,SYDNEY,02 97156011,,,,burwood@ellarouge.com.au,,Beauty,9511,Hairdressing and Beauty Services
ABS,164592,11664618,Goddess Slimming Haven,Level 2 66 Burwood Rd,Burwood,NSW,2134,SYDNEY,,,0449 911168,,goddessslimminghaven@hotmail.com.au,www.goddessslimming.com.au,Beauty,9511,Hairdressing and Beauty Services
ABS,164981,11665007,My Princess Nails & Beauty,1 Railway Parade,Burwood,NSW,2134,SYDNEY,02 89648628,,,,gracexia88@gmail.com,,Beauty,9511,Hairdressing and Beauty Services
ABS,165134,11665160,Quickcut & Colour,125 Westfield Burwood Shopping Centre 100 Burwood Rd,Burwood,NSW,2134,SYDNEY,02 80685151,,,,quickcut@hotmail.com,,Hair,9511,Hairdressing and Beauty Services
ABS,165136,11665162,Quinny's Nails,19 Belmore St,Burwood,NSW,2134,SYDNEY,02 97474760,,,,thuytran0502@gmail.com,,Nails,9511,Hairdressing and Beauty Services
ABS,165434,11665461,Unique Hairdressing,7a/1- 17 Elsie St,Burwood,NSW,2134,SYDNEY,02 97446522,,,,hair@uniquehairdressing.com.au,www.uniquehairdressing.com.au,Hair,9511,Hairdressing and Beauty Services
ABS,166655,11666682,Be Bronze Mobile Spray Tanning,,Enfield,NSW,2136,SYDNEY,,,0404 450487,,yvette.gall09@gmail.com,,Solarium and Tanning,9511,Hairdressing and Beauty Services
ABS,166792,11666819,Everafter Beauty,320 Liverpool Rd,Enfield,NSW,2136,SYDNEY,02 97155664,,,,everafterbeauty@bigpond.com,,Beauty,9511,Hairdressing and Beauty Services
ABS,166799,11666826,Focus Beauty,1 Cosgrove Rd,Strathfield South,NSW,2136,SYDNEY,02 97425173,,,,info@focusuniforms.com.au,,Beauty,9511,Hairdressing and Beauty Services
ABS,166936,11666963,Miami Models Hair Studio,478 Liverpool Rd,Strathfield South,NSW,2136,SYDNEY,02 96420789,,,,rachel@miamimodels.com.au,,Hair,9511,Hairdressing and Beauty Services
ABS,166958,11666985,Natural Health Beauty & Spa,238 Liverpool Rd,Enfield,NSW,2136,SYDNEY,02 97152341,,,,natural-health-beauty@hotmail.com,www.nhbspa.com,Beauty,9511,Hairdressing and Beauty Services
ABS,167276,11667303,Australian Academy Of Beauty And Spa Therapy,"Level 2, 18-22 George St Under Fitness First",North Strathfield,NSW,2137,SYDNEY,02 96346416,1300 277785,,,info@australianacademyofbeautytherapy.com,www.australianacademyofbeautytherapy.com,Beauty,9511,Hairdressing and Beauty Services
ABS,167311,11667338,Balance My Temple - Laser Photomedicine,,Breakfast Point,NSW,2137,SYDNEY,,,0432 022235,,treatments@balancemytemple.com.au,www.balancemytemple.com.au,Beauty,9511,Hairdressing and Beauty Services
ABS,167331,11667358,Beauty By Therapy,1/ 71 Majors Bay Rd,Concord,NSW,2137,SYDNEY,02 97065551,,,,beautybytherapy@hotmail.com,www.beautybytherapy.com.au,Beauty,9511,Hairdressing and Beauty Services
ABS,167333,11667360,BeautyWell Concord,78 Majors Bay Road,Concord,NSW,2137,SYDNEY,02 97396498,,,,concord@beautywell.com.au,www.beautywell.com.au,Beauty,9511,Hairdressing and Beauty Services
ABS,167368,11667395,Brass N Sassy Mobile Pampering,1 Hilly St,Mortlake,NSW,2137,SYDNEY,,,0404 031925,,Brass.n.sassy@hotmail.com,,Beauty,9511,Hairdressing and Beauty Services
ABS,167505,11667532,Complete Indulgence Beauty,Shop 5/ 22 George St,North Strathfield,NSW,2137,SYDNEY,02 97466002,,,,marym@completeindulgence.com.au,www.completeindulgence.com.au,Beauty,9511,Hairdressing and Beauty Services
ABS,167606,11667633,Cut 'N' Culture,13 Cabarita Rd,Concord,NSW,2137,SYDNEY,02 97430009,,,,cutnculture@gmail.com,www.cutnculture.com.au,Hair,9511,Hairdressing and Beauty Services
ABS,167621,11667648,Day Spa & Beauty & Weight Loss,Shop A/ 90 Tennyson Rd,Mortlake,NSW,2137,SYDNEY,,,0416 794788,,am.foulch@bigpond.com,,Beauty,9511,Hairdressing and Beauty Services
ABS,168005,11668032,Lusty Nails & Foot Spa,75 Majors Bay Rd,Concord,NSW,2137,SYDNEY,02 97361775,,,,lustynails2015@gmail.com,,Massage and Spa,9511,Hairdressing and Beauty Services
ABS,168047,11668074,MellyAngel,,Breakfast Point,NSW,2137,SYDNEY,,,0421 487935,,mlee@mellyangel.com,www.mellyangel.com,Beauty,9511,Hairdressing and Beauty Services
ABS,168305,11668332,Sass Hair & Body,23 Majors Rd,Concord,NSW,2137,SYDNEY,02 97468363,,,,sasshairandbody@aapt.net.au,www.sasshair.com.au,Hair,9511,Hairdressing and Beauty Services
ABS,168402,11668429,Sunrise Emporium,,Concord,NSW,2137,SYDNEY,,,0423 430554,,sunriseemporium@live.com.au,,Solarium and Tanning,9511,Hairdressing and Beauty Services
ABS,168478,11668505,The Urban Spa Breakfast Point,Shop 2/ 10 Market St,Breakfast Point,NSW,2137,SYDNEY,02 97430334,,,,breakfastpoint@urbanspa.com.au,,Massage and Spa,9511,Hairdressing and Beauty Services
ABS,168542,11668569,Viva Laser & Skin Clinic Pty Ltd,213 Concord Rd,North Strathfield,NSW,2137,SYDNEY,02 97396520,,,,viva@outlook.com.au,www.vivalaserskinclinic.com,Beauty,9511,Hairdressing and Beauty Services
ABS,168634,11668661,Asmita's Hair & Beauty Salon,56-58 Walker St,Rhodes,NSW,2138,SYDNEY,,,0478 719784,,asmit44.2008@gmail.com,,Beauty,9511,Hairdressing and Beauty Services
ABS,168970,11668997,Lavo Laser,shop 3 15-17 Blaxland Rd,Rhodes,NSW,2138,SYDNEY,02 87573369,,0477 043093,,lavolaser@yahoo.com,www.lavolaser.com,Beauty,9511,Hairdressing and Beauty Services
ABS,169012,11669039,Michelle's Hair Studio,86 Queen St,Concord West,NSW,2138,SYDNEY,02 97396850,,,,michelleshairstudio@hotmail.com,www.michellehairstudio.com.au,Hair,9511,Hairdressing and Beauty Services
ABS,169084,11669111,Platform Hair,86 Queen St,Concord West,NSW,2138,SYDNEY,02 97396006,,,,platformhair1@gmail.com,,Hair,9511,Hairdressing and Beauty Services
ABS,169153,11669180,Skin & Slim,Shop 4/ 405 Concord Rd,Concord West,NSW,2138,SYDNEY,02 87658624,,,,info@skinandslim.com.au,www.skinandslim.com.au,Beauty,9511,Hairdressing and Beauty Services
ABS,169407,11669434,Beauty Ful On Rochester,Suite 4/ 9- 11 Rochester St,Homebush,NSW,2140,SYDNEY,02 97645122,,,,beautyonrochester@hotmail.com,,Beauty,9511,Hairdressing and Beauty Services
ABS,169637,11669664,Find Your Inner Glow,,Homebush,NSW,2140,SYDNEY,,,0423 417121,,sjludbrook@gmail.com,,Beauty,9511,Hairdressing and Beauty Services
ABS,170673,11670700,ChemistWorks,70 Jellico St,Lidcombe,NSW,2141,SYDNEY,02 87672100,,,,marketing@chemistworks.com.au,www.chemistworks.com.au,Beauty,9511,Hairdressing and Beauty Services
ABS,170982,11671009,K T Hair,Unit 4/ 25-29 Ann St,Lidcombe,NSW,2141,SYDNEY,,,0412 959776,,katieli9011100@gmail.com,,Beauty,9511,Hairdressing and Beauty Services
ABS,171916,11671943,Chanique Laser Skincare Clinic,Shop 2/ 3-5 Mary St,Granville,NSW,2142,SYDNEY,02 98970017,,,,info@chaniquelaser.com.au,www.chaniquelaser.com.au,Beauty,9511,Hairdressing and Beauty Services
ABS,172066,11672093,Dreamnailbyjess,23/ 4-10 Benedict Ct,Holroyd,NSW,2142,SYDNEY,,,0416 291660,,trammiles@gmail.com,,Beauty,9511,Hairdressing and Beauty Services
ABS,172100,11672127,Escapade Hair-Face-Body,8 Railway Parade,Granville,NSW,2142,SYDNEY,02 96827725,,,,charlie@escapadehfb.com.au,www.escapadehfb.com.au,Hair,9511,Hairdressing and Beauty Services
ABS,172123,11672150,Family Hair Beauty Salon,19 Good St,Granville,NSW,2142,SYDNEY,02 98975565,,,,familyhairbeautysalon@yahoo.com,,Beauty,9511,Hairdressing and Beauty Services
ABS,172507,11672534,Mobile Beauty Treatments,,Rosehill,NSW,2142,SYDNEY,02 97601012,,,,reception@mobilebeautytreatments.com,www.mobilebeautytreatments.com,Hair,9511,Hairdressing and Beauty Services
ABS,173399,11673426,refreshme,122 Cooper St,Birrong,NSW,2143,SYDNEY,,,0416 052033,,karen@refreshme.com.au,www.refreshme.com.au,Beauty,9511,Hairdressing and Beauty Services
ABS,174529,11674556,Leonis Beauty Salon,Shop 8a 1-5 Harrow Rd,Auburn,NSW,2144,SYDNEY,,,0450 694798,,leonisbeautysalon@yahoo.com.au,www.leonisbeautysalon.com.au,Beauty,9511,Hairdressing and Beauty Services
ABS,174579,11674606,Majestic Hair Design & Beauty Products,119 Auburn Rd,Auburn,NSW,2144,SYDNEY,02 97494377,,,,hildao@aapt.net.au,www.majestichairdesign.com.au,Hair,9511,Hairdressing and Beauty Services
ABS,174797,11674824,Perma Nail Laboratories,1-3 Princes Rd East,Auburn,NSW,2144,SYDNEY,02 97387022,,,,sportsmania@permapleat.com.au,www.permanail.com.au,Nails,9511,Hairdressing and Beauty Services
ABS,175692,11675720,Charmed Nails & Beauty,A 694 Merrylands Rd,Greystanes,NSW,2145,SYDNEY,02 97690687,,,,charmaineborg69@gmail.com,,Beauty,9511,Hairdressing and Beauty Services
ABS,175994,11676022,Flores Hair & Beauty,53 Dunmore St,Wentworthville,NSW,2145,SYDNEY,02 90083203,,,,floreshairbeauty@yahoo.com.au,www.floreshairandbeauty.com.au,Hair,9511,Hairdressing and Beauty Services
ABS,176331,11676359,L' Bridal Hair,Shop 18 Greystanes Shopping Centre Merrylands Rd Greystanes shopping center Shop 18 699 Merrylands,Greystanes,NSW,2145,SYDNEY,,,0411 335988,,luscious2216@hotmail.com,,Hair,9511,Hairdressing and Beauty Services
ABS,176340,11676368,L'amour Beauty Studio,3 Nea Dr,Pemulwuy,NSW,2145,SYDNEY,02 96369293,,,,uyen@lamourbeautystudio.com.au,,Beauty,9511,Hairdressing and Beauty Services
ABS,177171,11677199,Vivacious Hair,,Greystanes,NSW,2145,SYDNEY,,,0432 982868,,lauren@vivacioushair.com.au,www.vivacioushair.com.au/,Hair,9511,Hairdressing and Beauty Services
ABS,177406,11677434,Bodi Craft,Shop 3/ 9- 11 Picasso Crst,Toongabbie,NSW,2146,SYDNEY,02 96365611,,,,alscher@bigpond.net.au,,Beauty,9511,Hairdressing and Beauty Services
ABS,177407,11677435,Body Cocoon Hair - Toongabbie,17-19 Aurelia St,Toongabbie,NSW,2146,SYDNEY,02 98960016,,,,bodycocoon1@gmail.com,www.bodycocoon.com.au,Hair,9511,Hairdressing and Beauty Services
ABS,177663,11677691,mobiletan2u,,Toongabbie,NSW,2146,SYDNEY,,,0417 465703,,suziebrennan@bigpond.com,,Solarium and Tanning,9511,Hairdressing and Beauty Services
ABS,178329,11678357,Bodyzen,Centro Shopng Cntr Shop 65a Prospect Hwy,Seven Hills,NSW,2147,SYDNEY,02 86657150,,,,noyolsen1@hotmail.com,,Beauty,9511,Hairdressing and Beauty Services
ABS,178444,11678472,Cocoon Face And Body,1 Plymouth Crst,Kings Langley,NSW,2147,SYDNEY,02 96204241,,,,cocoonfaceandbody@bigpond.com.au,www.cocoonfaceandbody.com.au,Beauty,9511,Hairdressing and Beauty Services
ABS,178746,11678774,Hairdressing at Kings Langley,,Kings Langley,NSW,2147,SYDNEY,,,0434 551883,,khara.k@bigpond.com,,Hair,9511,Hairdressing and Beauty Services
ABS,179441,11679470,Salon First,12/ 35 Foundry Rd,Seven Hills,NSW,2147,SYDNEY,03 95320032,,,,info@salonfirst.com.au,www.salonfirst.com.au,Beauty,9511,Hairdressing and Beauty Services
ABS,179445,11679474,Samantha's Hair Affair,Shop 2/ 36 Johnson Ave,Seven Hills,NSW,2147,SYDNEY,,,0425 204055,,sammylou1879@gmail.com,,Hair,9511,Hairdressing and Beauty Services
ABS,179584,11679613,"Stacie's Mobile Nail, Beauty & Makeup Service",,Seven Hills,NSW,2147,SYDNEY,02 47572445,,0422 380131,,Stacie11184@yahoo.com,www.stacieoliver.vpweb.com.au/default.html,Hair,9511,Hairdressing and Beauty Services
ABS,179797,11679827,Wakht Custom Hair Design,Shop 12 / Centro Seven Hills,Seven Hills,NSW,2147,SYDNEY,02 96218434,,,,wakht.salon@gmail.com,www.wakhthair.com.au,Hair,9511,Hairdressing and Beauty Services
ABS,180149,11680179,Afroconnect Hairdressing Salon,38-40 Railway Rd,Marayong,NSW,2148,SYDNEY,02 96712276,,,,afroconnect@bigpond.com,,Hair,9511,Hairdressing and Beauty Services
ABS,180252,11680282,Allure Hair Design & Beauty,"Shp 20, Quakers Crt Shopng Cntr, Cnr Quakers and Falmouth Rds",Marayong,NSW,2148,SYDNEY,02 96260403,,,,allurehairdesignqc@gmail.com,,Hair,9511,Hairdressing and Beauty Services
ABS,180504,11680534,Avant Garde Hair and Makeup,28 Patrick St,Blacktown,NSW,2148,SYDNEY,,,0450 602219,,celesterussohair@gmail.com,www.celesterusso.com,Hair,9511,Hairdressing and Beauty Services
ABS,180915,11680945,Britztan,Bridge View St,Blacktown,NSW,2148,SYDNEY,,,0421 769729,,britzy.xo@hotmail.com,,Beauty,9511,Hairdressing and Beauty Services
ABS,181172,11681203,Clippers Barber Shop,Shop 13/ 69 Holbeche Rd,Arndell Park,NSW,2148,SYDNEY,02 96712013,,,,clippersbarbershop@bigpond.com,,Hair,9511,Hairdressing and Beauty Services
ABS,181947,11681978,Get threaded Brow and beauty bar,17 Patrick St,Blacktown,NSW,2148,SYDNEY,,1300 796622,,,blacktown@getthreaded.com.au,www.getthreadednow.com,Beauty,9511,Hairdressing and Beauty Services
ABS,182393,11682424,Jessica Mobile Hair and Beauty,,Kings Park,NSW,2148,SYDNEY,,,0452 548842,,jessicaegan@live.com.au,,Hair,9511,Hairdressing and Beauty Services
ABS,182439,11682470,Joyce Salon of the Orient,9 38 Railway Rd,Marayong,NSW,2148,SYDNEY,,,0410 814677,,joyceconde14@yahoo.com,,Hair,9511,Hairdressing and Beauty Services
ABS,182827,11682858,Mantra Beauty & Skin Care,3011/ 17 Patrick St,Blacktown,NSW,2148,SYDNEY,02 86786286,,,,alpana345@gmail.com,www.mantrabeauty.com.au,Beauty,9511,Hairdressing and Beauty Services
ABS,183068,11683099,N J Hair & Beauty Salon,Shop 6/ 5 Patrick St,Blacktown,NSW,2148,SYDNEY,02 96220044,,,,info@njhairandbeauty.com.au,www.njhairandbeauty.com.au,Beauty,9511,Hairdressing and Beauty Services
ABS,183114,11683145,New Life By Lisa Marrie,3 Goulburn St,Kings Park,NSW,2148,SYDNEY,,,0481 327713,,lct5@y7mail.com,www.newlifebylisamarrie.com,Beauty,9511,Hairdressing and Beauty Services
ABS,183326,11683357,Pefume Today,,Blacktown,NSW,2148,SYDNEY,02 86047822,,,,admin@perfumetoday.com.au,www.perfumetoday.com.au,Beauty,9511,Hairdressing and Beauty Services
ABS,183616,11683647,Reef Tanning Studio,9 Balbeek Ave,Blacktown,NSW,2148,SYDNEY,,,0413 747064,,koby.farlow@kirribilliclub.com.au,,Solarium and Tanning,9511,Hairdressing and Beauty Services
ABS,183865,11683896,She's Nailin It!,13 Clinton St,Blacktown,NSW,2148,SYDNEY,,,0411 746682,,nailinit2010@gmail.com,www.blacktownnailsalon.com,Nails,9511,Hairdressing and Beauty Services
ABS,183970,11684001,Spa D'or Beauty,Shop 3065 Westpoint Shopping Centre,Blacktown,NSW,2148,SYDNEY,02 96220111,,,,inquiries@spadorbeauty.com.au,www.spadorbeauty.com.au,Beauty,9511,Hairdressing and Beauty Services
ABS,184464,11684495,Tulips Africana Hair Studio,13 Flushcombe Rd,Blacktown,NSW,2148,SYDNEY,02 86781340,,,,tulipsafricana@gmail.com,www.tulipsafricana.com.au,Hair,9511,Hairdressing and Beauty Services
ABS,184785,11684816,Zohal Pty Ltd,11 Campbell St,Blacktown,NSW,2148,SYDNEY,02 86783599,,,,shabknoor99@hotmail.com,www.zaherashairextensions.com.au,Hair,9511,Hairdressing and Beauty Services
ABS,185306,11685338,Aspire College of Education,1 Wentworth St,Parramatta,NSW,2150,SYDNEY,02 96332416,,,,info@aspirecollege.com.au,www.aspirecollege.com.au,Beauty,9511,Hairdressing and Beauty Services
ABS,185404,11685436,Australian College of Business & Training,Shop 2 144 Marsden St,Parramatta,NSW,2150,SYDNEY,02 96355530,,,,info@auscbt.com.au,www.auscbt.com.au,Beauty,9511,Hairdressing and Beauty Services
ABS,186078,11686111,Cortex Hair,Shop 2106 Level 2 Westfield Shoppingtown,Parramatta,NSW,2150,SYDNEY,02 96353200,,,,info@courtneysbrasserie.com.au,,Hair,9511,Hairdressing and Beauty Services
ABS,186188,11686221,Daniel Lee Hairdressing,9-55 Phillip St,Parramatta,NSW,2150,SYDNEY,02 98913255,,,,billharvey4000@yahoo.co.uk,,Hair,9511,Hairdressing and Beauty Services
ABS,186443,11686476,Elixir Skin and Health Clinic,16 Hunter St,Parramatta,NSW,2150,SYDNEY,02 88726125,,,,kathryn@elixirskin.com.au,www.elixirskin.com.au,Beauty,9511,Hairdressing and Beauty Services
ABS,186446,11686479,Ella Rouge Beauty,"Parramatta Westfield, Shop 4011, Level 4, 159-175 Church St",Parramatta,NSW,2150,SYDNEY,02 96357444,,,,parramatta@ellarouge.com.au,www.ellarouge.com.au,Beauty,9511,Hairdressing and Beauty Services
ABS,186549,11686582,Fair Beauty,"Westfield Shopping Town, Shop 2187A Argyle St",Parramatta,NSW,2150,SYDNEY,02 96358340,,,,enquiries@fairbeauty.com.au,www.fairbeauty.com.au,Beauty,9511,Hairdressing and Beauty Services
ABS,186767,11686800,Glamour Hair Style & Beauty Pty Ltd,2/ 262 Church St,Parramatta,NSW,2150,SYDNEY,02 94848222,,,,glamourhairstyleaj@yahoo.com.au,www.glamourhair.net.au,Hair,9511,Hairdressing and Beauty Services
ABS,186882,11686915,Hair Matters Beauty,Shop 28/ 55-67 George St,Parramatta,NSW,2150,SYDNEY,02 98937384,,,,amma.emelia@yahoo.com.au,,Beauty,9511,Hairdressing and Beauty Services
ABS,187325,11687358,Kaya Beauty,85 Wigram St,Harris Park,NSW,2150,SYDNEY,,,0448 075555,,kayabeauty@live.com,www.kayabeauty.com.au,Beauty,9511,Hairdressing and Beauty Services
ABS,187425,11687458,Lady Lash Parramatta,70 Phillip St,Parramatta,NSW,2150,SYDNEY,,,0428 360096,,info@ladylash.com.au,www.parramattaeyelashextensions.com.au,Beauty,9511,Hairdressing and Beauty Services
ABS,187561,11687594,Lotus hair Extensions,Parramatta Rd,Parramatta,NSW,2150,SYDNEY,,,0402 463886,,angelabrunker@hotmail.com,,Hair,9511,Hairdressing and Beauty Services
ABS,187578,11687611,Lydia Rose Hair & Beauty,89 Masdern St,Parramatta,NSW,2150,SYDNEY,02 80903546,,,,info@lydiarose.com.au,,Hair,9511,Hairdressing and Beauty Services
ABS,187910,11687943,My Hair & Beauty - Parramatta,159-175 Church St,Parramatta,NSW,2150,SYDNEY,02 88313237,,,,info@myhairandbeauty.com.au,www.myhairandbeauty.com.au,Hair,9511,Hairdressing and Beauty Services
ABS,188035,11688068,Nora's Beauty,8/ 459-463 Church St,Parramatta,NSW,2150,SYDNEY,02 86771627,,,,nora@norasbeauty.com.au,www.norasbeauty.com.au,Beauty,9511,Hairdressing and Beauty Services
ABS,188217,11688250,Parralicious Hair & Day Spa,Lvl 1/ 218 Church St,Parramatta,NSW,2150,SYDNEY,02 96879605,,,,parralicious@live.com,,Massage and Spa,9511,Hairdressing and Beauty Services
ABS,188790,11688823,Sanjana Beauty,116 Harris St,Harris Park,NSW,2150,SYDNEY,,,0469 593239,,sridevi.ram.teja@gmail.com,,Beauty,9511,Hairdressing and Beauty Services
ABS,189143,11689176,Sun Bright Beauty,Level 2 Connection Arcade 162-172 Church St,Parramatta,NSW,2150,SYDNEY,02 98912989,,,,info@sunbrightbeauty.com,www.sunbrightbeauty.com,Beauty,9511,Hairdressing and Beauty Services
ABS,189620,11689653,Venus Beauty Therapists Pty Ltd,6g Greenway Arcade Church,Parramatta,NSW,2150,SYDNEY,02 96353285,,,,venus.555@hotmail.com,,Beauty,9511,Hairdressing and Beauty Services
ABS,189817,11689850,Xquisite Hair at Home,Arthur St,Parramatta,NSW,2150,SYDNEY,,,0404 816952,,shantelgitany@hotmail.com,,Hair,9511,Hairdressing and Beauty Services
ABS,189973,11690006,AMAZING MOBILE SPRAY TANNING,Wals Crss,North Parramatta,NSW,2151,SYDNEY,,,0414 896742,,juicylks@gmail.com,,Solarium and Tanning,9511,Hairdressing and Beauty Services
ABS,190159,11690192,Bronze by T,3 2 Bellevue St,North Parramatta,NSW,2151,SYDNEY,,,0414 243337,,info@bronzebyt.com,www.bronzebyt.com,Solarium and Tanning,9511,Hairdressing and Beauty Services
ABS,190392,11690425,Euphoria Beauty,13 Lawndale Ave,North Rocks,NSW,2151,SYDNEY,02 98731772,,,,northrocks@euphoriabeauty.com.au,www.euphoriabeauty.com.au,Beauty,9511,Hairdressing and Beauty Services
ABS,190625,11690658,Karl's Barber Salon,Shop C 312 North Rocks Rd,North Rocks,NSW,2151,SYDNEY,,,0414 146650,,karlsbarbersalon@hotmail.com,,Hair,9511,Hairdressing and Beauty Services
ABS,190626,11690659,Kathy's Place for hair,28A Statham Ave,North Rocks,NSW,2151,SYDNEY,02 98735160,,,,kathy@kathysplaceforhair.com.au,www.kathysplaceforhair.com.au,Hair,9511,Hairdressing and Beauty Services
ABS,190780,11690813,Michaels Hair and Beauty,417A Church St,North Parramatta,NSW,2151,SYDNEY,02 96306490,,,,michaelsbsalon@bigpond.com,,Hair,9511,Hairdressing and Beauty Services
ABS,191599,11691632,Diamond Hair Design - mobile hairdressing,,Northmead,NSW,2152,SYDNEY,,,0405 110109,,diamond_hair1@hotmail.com,,Hair,9511,Hairdressing and Beauty Services
ABS,191834,11691867,NorthWest Tanning,,Northmead,NSW,2152,SYDNEY,,,0405 331077,,info@northwesttanning.com.au,www.northwesttanning.com.au,Beauty,9511,Hairdressing and Beauty Services
ABS,191889,11691922,Pure Blossom,Balmoral Rd,Northmead,NSW,2152,SYDNEY,02 88107091,,,,info@pureblossom.com.au,www.pureblossom.com.au,Beauty,9511,Hairdressing and Beauty Services
ABS,191997,11692030,Tans by Suzie,Wandella Ave,Northmead,NSW,2152,SYDNEY,,,0433 008933,,tansbysuzie@gmail.com,,Solarium and Tanning,9511,Hairdressing and Beauty Services
ABS,192267,11692300,All Tanned Up Solariums,Unit 107/ 10 Century Cct,Baulkham Hills,NSW,2153,SYDNEY,,1300 302881,,,info@alltannedup.com.au,www.alltannedup.com.au,Solarium and Tanning,9511,Hairdressing and Beauty Services
ABS,192405,11692438,Australian Beauty Clinic,375 Windsor Rd,Baulkham Hills,NSW,2153,SYDNEY,02 96391554,,,,bookings@australianbeautyclinic.com.au,www.australianbeautyclinic.com,Beauty,9511,Hairdressing and Beauty Services
ABS,192569,11692602,Bel's Hair & Skin Therapy,102/ 10 Century Cct,Baulkham Hills,NSW,2153,SYDNEY,02 88507060,,,,belshairandskintherapy@gmail.com,,Hair,9511,Hairdressing and Beauty Services
ABS,192601,11692634,Bliss Medispa,Go 1 2-8 Brookhollow Ave,Baulkham Hills,NSW,2153,SYDNEY,02 90378649,,,,bookings@blisswaxing.com.au,www.blissmedispa.com.au,Beauty,9511,Hairdressing and Beauty Services
ABS,192643,11692676,Bridal Hair Stylist - Rhiannon,,Baulkham Hills,NSW,2153,SYDNEY,,,0403 515399,,rhiannonsherer@outlook.com,,Hair,9511,Hairdressing and Beauty Services
ABS,192707,11692741,CABELLO ART,3 2 Old Northern Rd,Baulkham Hills,NSW,2153,SYDNEY,02 88109080,,,,cabelloart@yahoo.com.au,,Hair,9511,Hairdressing and Beauty Services
ABS,193324,11693358,Euphoria Beauty,Shop 65/ 32 Lexington Dr,Bella Vista,NSW,2153,SYDNEY,02 96726344,,,,bellavista@euphoriabeauty.com.au,www.euphoriabeauty.com.au,Beauty,9511,Hairdressing and Beauty Services
ABS,193373,11693407,Fanatics Hair,Shop 116/ 20A Lexington Dr,Bella Vista,NSW,2153,SYDNEY,02 96804992,,,,info@fanaticshair.com.au,www.fanaticshair.com.au,Hair,9511,Hairdressing and Beauty Services
ABS,193414,11693448,Flawless Hair Extensions,,Baulkham Hills,NSW,2153,SYDNEY,,,0488 894247,,info@flawlesshairextensions.com.au,www.flawlesshairextensions.com.au,Hair,9511,Hairdressing and Beauty Services
ABS,193544,11693578,Glamour Spot Beauty Salon & Gift Shop,156 Caroline Chisholm Dr,Winston Hills,NSW,2153,SYDNEY,,,0414 952049,,muriel@glamourspot.com.au,www.glamourspot.com.au,Beauty,9511,Hairdressing and Beauty Services
ABS,193928,11693962,Instincts Body & Skin,Shop 31a Norwest Marketown,Baulkham Hills,NSW,2153,SYDNEY,02 88507274,,,,instincts@iprimus.com.au,www.instincts.net.au,Beauty,9511,Hairdressing and Beauty Services
ABS,194506,11694540,Mont-Ro Skin Care,Norwest Central Suite 2 15 10 Century Cct,Baulkham Hills,NSW,2153,SYDNEY,02 96803393,,,,mont-ro@mont-ro.com,www.mont-ro.com,Beauty,9511,Hairdressing and Beauty Services
ABS,194654,11694688,Norwest Beauty Therapy,Apartment 18/ 20A Lexington Dr,Bella Vista,NSW,2153,SYDNEY,02 88249017,,,,info@norwestbeauty.com.au,www.norwestbeauty.com.au,Beauty,9511,Hairdressing and Beauty Services
ABS,194799,11694833,Pamper Me Beauty Boutique,Shop 3 105 Bella Vista Dr,Bella Vista,NSW,2153,SYDNEY,02 96598062,,,,pampermebeauty@live.com.au,www.pampermebeautyboutique.com.au/,Hair,9511,Hairdressing and Beauty Services
ABS,194800,11694834,Pamprru Mobile Beauty Therapy,,Baulkham Hills,NSW,2153,SYDNEY,,,0401 053654,,sales@pamprru.com.au,www.pamprru.com.au,Beauty,9511,Hairdressing and Beauty Services
ABS,194807,11694841,Par Bella Beauty Salon,Unit 310/ 10 Century Cct,Baulkham Hills,NSW,2153,SYDNEY,02 88507834,,,,parbella@hotmail.com,,Beauty,9511,Hairdressing and Beauty Services
ABS,195007,11695041,Purelash mobile beauty services,,Bella Vista,NSW,2153,SYDNEY,,,0432 258424,,purelash@hotmail.com,,Beauty,9511,Hairdressing and Beauty Services
ABS,195229,11695263,Seema's Unique Beauty Saloon,Shop 49C/ 6 Seven Hills Rd,Baulkham Hills,NSW,2153,SYDNEY,02 96868686,,,,admin@subsalon.com.au,www.subsalon.com.au,Beauty,9511,Hairdressing and Beauty Services
ABS,195440,11695474,Studio Sublime,5 Level 5 25-33 Old Northern Rd,Baulkham Hills,NSW,2153,SYDNEY,,,0407 017898,,bookings@studiosublime.com.au,www.studiosublime.com.au,Beauty,9511,Hairdressing and Beauty Services
ABS,195441,11695475,Studio Three For Hair,2 Olive St,Baulkham Hills,NSW,2153,SYDNEY,02 96395544,,,,info@studiothreeforhair.com.au,www.studiothreeforhair.com.au,Hair,9511,Hairdressing and Beauty Services
ABS,195615,11695651,The Beauty Room by Alexandra,186 Windsor Rd,Winston Hills,NSW,2153,SYDNEY,02 96868934,,,,thebeautyroom@alexandramulder.com.au,www.thebeautyroom.alexandramulder.com.au,Beauty,9511,Hairdressing and Beauty Services
ABS,195634,11695670,The Hill's Beauty Room,53 Buckleys Rd,Winston Hills,NSW,2153,SYDNEY,,,0416 316586,,hillsbeautyroom@optusnet.com.au,,Beauty,9511,Hairdressing and Beauty Services
ABS,195771,11695807,Unique Nail & Beauty Supplies,1 De Villiers Rise,Bella Vista,NSW,2153,SYDNEY,02 88249250,,,,kim@uniquebeauty.com.au,www.nailandbeautysupplies.com.au,Beauty,9511,Hairdressing and Beauty Services
ABS,195809,11695845,Vescada Hair & Beauty,65/ 32 Lexington Dr,Bella Vista,NSW,2153,SYDNEY,02 96726344,,,,info@vescada.com.au,www.vescada.com.au,Hair,9511,Hairdressing and Beauty Services
ABS,196332,11696368,Anella Beauty,7 Anella Ave,Castle Hill,NSW,2154,SYDNEY,02 86260974,,,,anellabeauty@outlook.com,www.anellabeauty.com.au,Beauty,9511,Hairdressing and Beauty Services
ABS,196540,11696576,Bambu Beauty Lash and Brow Bar,Unit 1a/ 7-13 Victoria Ave,Castle Hill,NSW,2154,SYDNEY,02 96346773,,,,claire@bambubeauty.com.au,www.bambubeauty.com.au,Beauty,9511,Hairdressing and Beauty Services
ABS,196597,11696633,Beautiful Feathers,,Castle Hill,NSW,2154,SYDNEY,,,0432 656902,,beautifulfeathers@hotmail.com,,Hair,9511,Hairdressing and Beauty Services
ABS,196648,11696684,Bliss Waxing & Tanning Studio,2 Settlers Cl,Castle Hill,NSW,2154,SYDNEY,,,0416 458025,,info@blisswaxing.com.au,www.blisswaxing.com.au,Beauty,9511,Hairdressing and Beauty Services
ABS,197553,11697589,Ella Bach\u00E9 Castle Hill,3/ 250-254 Old Northern Rd,Castle Hill,NSW,2154,SYDNEY,02 86772275,,,,castlehill@ellabachesalons.com.au,www.castlehill.ellabache.com.au/,Beauty,9511,Hairdressing and Beauty Services
ABS,197554,11697590,Ella Rouge Beauty,"Castle Towers, Shop 501, Level 4, 6-14 Castle St",Castle Hill,NSW,2154,SYDNEY,02 96591772,,,,castletowers@ellarouge.com.au,,Beauty,9511,Hairdressing and Beauty Services
ABS,197853,11697889,GDL Nails,,Castle Hill,NSW,2154,SYDNEY,02 96146989,,,,gdlnails@hotmail.com,,Nails,9511,Hairdressing and Beauty Services
ABS,197976,11698012,Hair & Beauty Club,Castle Hill,Castle Hill,NSW,2154,SYDNEY,,,0422 647673,,nikki_jalilpour@hotmail.com,,Hair,9511,Hairdressing and Beauty Services
ABS,197977,11698013,Hair & Beauty With Imagination,297 Old Northern Rd,Castle Hill,NSW,2154,SYDNEY,02 96803508,,,,imaginationhair@bigpond.com,,Beauty,9511,Hairdressing and Beauty Services
ABS,198058,11698094,Hills Beauty Therapy,,Castle Hill,NSW,2154,SYDNEY,,,0421 934075,,michelle@hillsbeautytherapy.com.au,www.hillsbeautytherapy.com.au,Beauty,9511,Hairdressing and Beauty Services
ABS,198113,11698149,Hills Nails,#NAME?,Castle Hill,NSW,2154,SYDNEY,,,0434 826223,,hills.nails@gmail.com,www.hillsnails.com.au,Nails,9511,Hairdressing and Beauty Services
ABS,198453,11698489,Kelli's Classy Claws,43 Showground Rd,Castle Hill,NSW,2154,SYDNEY,,,0413 931970,,kelli3012@gmail.com,,Nails,9511,Hairdressing and Beauty Services
ABS,198527,11698563,La Vie Laser Clinic,1/ 1 Terminus St,Castle Hill,NSW,2154,SYDNEY,,1300 052843,,,castlehill@lavielaser.com.au,www.lavielaser.com.au,Beauty,9511,Hairdressing and Beauty Services
ABS,199078,11699114,PA Castle Towers,Shop 341 6-14 Castle,Castle Hill,NSW,2154,SYDNEY,02 98993867,,,,bndavid@bigpond.com,www.pacastletowers.com.au/,Hair,9511,Hairdressing and Beauty Services
ABS,199316,11699352,Pure Hair Pure Body,Suite 1/ 15 Terminus St,Castle Hill,NSW,2154,SYDNEY,02 96591766,,,,phpb@phpb.com.au,www.phpb.com.au,Hair,9511,Hairdressing and Beauty Services
ABS,199501,11699537,SASS Spray Tanning Studio,70 Ulundri Dr,Castle Hill,NSW,2154,SYDNEY,,,0435 018601,,sasstanning@hotmail.com,www.sasstanning.com,Solarium and Tanning,9511,Hairdressing and Beauty Services
ABS,199594,11699630,Silky Smooth Waxing,1 Rondelay Dr,Castle Hill,NSW,2154,SYDNEY,,,0404 876616,,sally@silkysmoothwaxing.com,www.silkysmoothwaxing.com,Beauty,9511,Hairdressing and Beauty Services
ABS,200071,11700107,Urban Spa,"Shop 215, Castle Hill Mall Terminus St,",Castle Hill,NSW,2154,SYDNEY,02 96803790,,,,castlehill@urbanspa.com.au,www.urbanspa.com.au,Massage and Spa,9511,Hairdressing and Beauty Services
ABS,200556,11700592,Bliss N Beauty Facial and Body Treatments,16 Dutton Rd,Beaumont Hills,NSW,2155,SYDNEY,,,0404 776690,,hananblissnbeauty@yahoo.com.au,,Beauty,9511,Hairdressing and Beauty Services
ABS,200637,11700673,Caress By Nature P/L,24 Glen Abbey St,Rouse Hill,NSW,2155,SYDNEY,,,0432 428439,,caressedbynature@hotmail.com.au,www.caressbynature.com,Beauty,9511,Hairdressing and Beauty Services
ABS,200698,11700734,COCOA INK Mobile Tanning,,Kellyville Ridge,NSW,2155,SYDNEY,,,0426 969121,,cocoainkmobiletanning@hotmail.com,,Solarium and Tanning,9511,Hairdressing and Beauty Services
ABS,200817,11700853,Divine Beauty Clinic,45 Softwood Ave,Beaumont Hills,NSW,2155,SYDNEY,02 88247329,,,,divinebeautyclinic@hotmail.com,,Beauty,9511,Hairdressing and Beauty Services
ABS,200825,11700861,DNA Beauty Therapy,Level 1 Suite 7 40 Panmure St,Rouse Hill,NSW,2155,SYDNEY,02 98360321,,,,dnabeautytherapy@gmail.com,www.dnabeautytherapy.com.au,Beauty,9511,Hairdressing and Beauty Services
ABS,200882,11700918,Essential Beauty Rouse Hill,Rouse Hill Town Centre Shop Gr 062 Windsor Rd White Hart Drive,Rouse Hill,NSW,2155,SYDNEY,02 88141855,,,,rousehill@essentialbeauty.com.au,www.essentialbeauty.com.au/salons/rouse-hill/,Beauty,9511,Hairdressing and Beauty Services
ABS,201019,11701055,Hair Beauty & Soul,Suite 4 1 Resolution Pl,Rouse Hill,NSW,2155,SYDNEY,02 88247733,,,02 88244195,hbs@internode.on.net,www.hairbeautyandsoul.com.au,Beauty,9511,Hairdressing and Beauty Services
ABS,201021,11701057,hair on braemont,31 Braemont Ave,Kellyville Ridge,NSW,2155,SYDNEY,,,0405 203549,,haironbraemont@optusnet.com,,Hair,9511,Hairdressing and Beauty Services
ABS,201023,11701059,Hair Republic,Shop 3/ 18 Adelphi St,Rouse Hill,NSW,2155,SYDNEY,02 98360140,,,,sam_oconnor@icloud.com,,Hair,9511,Hairdressing and Beauty Services
ABS,201190,11701226,Jai'le Jordan Hair,,Kellyville,NSW,2155,SYDNEY,02 96295642,,,,jailejordanhair@bigpond.com.au,www.jailejordanhair.com.au,Hair,9511,Hairdressing and Beauty Services
ABS,201355,11701391,Limage Hair Salon,,Kellyville,NSW,2155,SYDNEY,,,0419 409993,,limage.hair@bigpond.com,,Hair,9511,Hairdressing and Beauty Services
ABS,201678,11701714,Pure Passion For Hair,Suite 6 Level 1 The Terrace 40 Panmure St,Rouse Hill,NSW,2155,SYDNEY,02 88834912,,,,robinprokop@yahoo.com.au,,Hair,9511,Hairdressing and Beauty Services
ABS,201732,11701768,Rococo Hair Design,Shop 2 64 Windsor Rd,Kellyville,NSW,2155,SYDNEY,02 96260160,,,,rococo_katherine@hotmail.com,,Hair,9511,Hairdressing and Beauty Services
ABS,201736,11701772,RojoPelli,Shop Gr 29 Rouse Hill Town Centre Opposite The Information Desk Windsor Road,Rouse Hill,NSW,2155,SYDNEY,02 88830902,,,,rousehill@rojopelli.com.au,www.rousehill.rojopelli.com.au,Hair,9511,Hairdressing and Beauty Services
ABS,201794,11701830,Salon Thushi,6 Drummond Rd,Beaumont Hills,NSW,2155,SYDNEY,,,0420 554563,,thushi_p@yahoo.com,,Beauty,9511,Hairdressing and Beauty Services
ABS,201847,11701883,Simran beauty salon,26 Chino Pl,Kellyville Ridge,NSW,2155,SYDNEY,,,0420 559399,,ritu_gill81@yahoo.com.au,,Beauty,9511,Hairdressing and Beauty Services
ABS,201876,11701912,Spray Tanning,,Kellyville,NSW,2155,SYDNEY,,,0405 743850,,friedrich_m12@hotmail.com,www.friedrichm12.wix.com/spraytans,Solarium and Tanning,9511,Hairdressing and Beauty Services
ABS,201908,11701944,Summermist Mobile Spray Tanning,7 Tellicherry Cct,Beaumont Hills,NSW,2155,SYDNEY,,,0417 680825,,iss._@hotmail.com,,Solarium and Tanning,9511,Hairdressing and Beauty Services
ABS,201957,11701993,Tan Aura Beauty Spray Tanning Salon,2 Rooke Ct,Kellyville,NSW,2155,SYDNEY,,,0438 979794,,tanaurabeauty@bigpond.com,,Solarium and Tanning,9511,Hairdressing and Beauty Services
ABS,202036,11702072,Total Look Hair Design,44 Monaco Ave,Kellyville,NSW,2155,SYDNEY,02 88245585,,0413 339355,,totalook@bigpond.com,www.totallookhairdesign.com.au,Hair,9511,Hairdressing and Beauty Services
ABS,202732,11702768,My Beautique,103 Kenthurst Rd,Kenthurst,NSW,2156,SYDNEY,,,0410 443232,,mybeautique@hotmail.com,,Beauty,9511,Hairdressing and Beauty Services
ABS,202970,11703006,The Haircut and Colouring Studio,2 Doherty Ave,Glenhaven,NSW,2156,SYDNEY,,,0421 696627,,rosettapav@hotmail.com,www.cutandcolour.com.au/,Hair,9511,Hairdressing and Beauty Services
ABS,202997,11703033,Tres Joli Beauty Centre,Shop 7/ 78 Glenhaven Rd,Glenhaven,NSW,2156,SYDNEY,02 96808999,,,,t_fonsdituri@hotmail.com,www.tresjolibeauty.com.au,Beauty,9511,Hairdressing and Beauty Services
ABS,203075,11703111,Amanda D. AVON Representative & Sales Leader servicing ALL OF AUSTRALIA,,Glenorie,NSW,2157,SYDNEY,,,0410 600473,,amanda_doueihi@hotmail.com,,Beauty,9511,Hairdressing and Beauty Services
ABS,203236,11703272,Laura Jane Hair,Shop 6/ 930 Old Northern Rd,Glenorie,NSW,2157,SYDNEY,02 96521800,,,,laurajanehair@hotmail.com,www.Find us on FB,Hair,9511,Hairdressing and Beauty Services
ABS,203495,11703531,Beauty at Victoria's,Shop 3 2 Kenthurst Rd,Dural,NSW,2158,SYDNEY,02 96514282,,,,victoria@beautyatvictorias.com.au,www.beautyatvictorias.com.au,Beauty,9511,Hairdressing and Beauty Services
ABS,203585,11703621,Chantique,Shop 3/ 7 Ward Pl,Dural,NSW,2158,SYDNEY,02 96513877,,,,chantiquebeauty@live.com.au,www.chantiquebeauty.com,Beauty,9511,Hairdressing and Beauty Services
ABS,204080,11704116,Naturally Skin Deep Beauty Therapies,Village Green 21/ 22-44 Kenthurst Rd,Dural,NSW,2158,SYDNEY,02 96516088,,0414 841380,,naturallyskindeep@hotmail.com.au,,Beauty,9511,Hairdressing and Beauty Services
ABS,204265,11704301,Spa Secrets,,Middle Dural,NSW,2158,SYDNEY,,,0413 017499,,info@spasecrets.com.au,www.spasecrets.com.au,Beauty,9511,Hairdressing and Beauty Services
ABS,204352,11704388,The Salon Ladies' & Gentlemen's Grooming,6/ 6 Kenthurst Rd,Dural,NSW,2158,SYDNEY,02 96517446,,,,thesalongrooming@hotmail.com,www.thesalondural.com.au,Hair,9511,Hairdressing and Beauty Services
ABS,204710,11704746,Ma Petite Salle Hair Studio,31 Halls Rd,Arcadia,NSW,2159,SYDNEY,,,0434 728522,,tonya.turner@bigpond.com.au,,Hair,9511,Hairdressing and Beauty Services
ABS,205021,11705057,Artistry Of Make Up Academy,Level 2 4 McFarlane St,Merrylands,NSW,2160,SYDNEY,02 96822024,,,,info@makeupschool.com.au,www.beautyschoolsydney.com.au,Beauty,9511,Hairdressing and Beauty Services
ABS,205298,11705334,Del La Rouge Hair Body Beauty,142-146 Woodville Rd,Merrylands,NSW,2160,SYDNEY,02 97600550,,,,info@dellarouge.com.au,www.dellarouge.com.au,Beauty,9511,Hairdressing and Beauty Services
ABS,205361,11705397,Ella Rouge Beauty,"Merrylands Stockland, Shop 2012, Level 1, McFarlane Street",Merrylands,NSW,2160,SYDNEY,02 96377993,,,,merrylands@ellarouge.com.au,,Beauty,9511,Hairdressing and Beauty Services
ABS,205512,11705548,Hair Culture,1023 McFarlane St,Merrylands,NSW,2160,SYDNEY,02 96824415,,,,moe_hairculture@hotmail.com,,Hair,9511,Hairdressing and Beauty Services
ABS,205771,11705807,Maison de Cheveux,,Merrylands,NSW,2160,SYDNEY,,,0401 595210,,nwakim.nw@gmail.com,,Hair,9511,Hairdressing and Beauty Services
ABS,205783,11705819,Maryam Beauty Salon,,Merrylands,NSW,2160,SYDNEY,,,0434 488774,,maryambeauty@hotmail.com,,Beauty,9511,Hairdressing and Beauty Services
ABS,206616,11706652,Alyce's Cuts & Styles,121B Fairfield Rd,Guildford West,NSW,2161,SYDNEY,02 96326722,,,,tigani86@hotmail.com,,Hair,9511,Hairdressing and Beauty Services
ABS,206622,11706658,American Beauty Supply (Aust.),549 Woodville Rd Cnr. Rawson Rd,Guildford,NSW,2161,SYDNEY,02 98922888,,,,info@americanbeauty.com.au,www.americanbeauty.com.au,Nails,9511,Hairdressing and Beauty Services
ABS,206967,11707003,De Stressed Therapy and Beauty Care,59 Wisdom St,Guildford,NSW,2161,SYDNEY,,,0427 282036,,carina1@unfranchise.com.au,www.marketaustralia.com.au/carina1,Beauty,9511,Hairdressing and Beauty Services
ABS,208154,11708190,Antonietta's Mobile Beauty Therapy,,Sefton,NSW,2162,SYDNEY,,,0439 606748,,tonywiffin@hotmail.com,,Beauty,9511,Hairdressing and Beauty Services
ABS,208275,11708311,Chester Hill Laser Hair Removal,7/ 11 Chester Hill Rd,Chester Hill,NSW,2162,SYDNEY,02 96444014,,,,GabrielWhite2520@gmail.com,www.saloncentral.com.au/tabid/64/id/1701/Chester-Hill-Laser-And-Beauty.aspx,Beauty,9511,Hairdressing and Beauty Services
ABS,208329,11708365,Dee's Dezign,,Chester Hill,NSW,2162,SYDNEY,,,0406 348485,,dees.dezign@hotmail.com,,Hair,9511,Hairdressing and Beauty Services
ABS,208928,11708964,DBC Hair & Beauty Supplies,Unit 6/ 171 Woodville Rd,Villawood,NSW,2163,SYDNEY,02 97555666,,,02 97555766,dbcsupplies@yahoo.com.au,,Beauty,9511,Hairdressing and Beauty Services
ABS,209068,11709104,Lash studio,,Carramar,NSW,2163,SYDNEY,,,0404 611699,,anny@lashstudio.com.au,www.lashstudio.com.au,Beauty,9511,Hairdressing and Beauty Services
ABS,210887,11710923,Eden Beauty Centre,36 Montrose Ave,Fairfield,NSW,2165,SYDNEY,,,0449 910117,,ellaa_nazha@hotmail.com,,Beauty,9511,Hairdressing and Beauty Services
ABS,211366,11711402,Kakua Multicultural Company,24 Court Rd,Fairfield,NSW,2165,SYDNEY,02 87648189,,,,kakuamulticultural@gmail.com,,Beauty,9511,Hairdressing and Beauty Services
ABS,211448,11711484,Lavish Medi Spa,140-144 Polding St,Fairfield Heights,NSW,2165,SYDNEY,02 96046261,,,,info@lavishmedispa.com.au,www.lavishmedispa.com.au,Beauty,9511,Hairdressing and Beauty Services
ABS,211513,11711549,Lupp Hair,197 Hamilton Rd,Fairfield West,NSW,2165,SYDNEY,02 97279326,,,,info@lupphair.com,www.lupphair.com,Hair,9511,Hairdressing and Beauty Services
ABS,211855,11711891,Razzles Hair & Beauty,Shop 4 39-41 Harris St,Fairfield,NSW,2165,SYDNEY,02 97260726,,,,a_razzles@hotmail.com,www.razzles.webs.com,Hair,9511,Hairdressing and Beauty Services
ABS,211948,11711984,Sands Cosmetic Clinic,Shop 2/ 32 Ware St,Fairfield,NSW,2165,SYDNEY,02 97276817,,,,sandscc@gmail.com,www.sandscosmeticclinic.com.au,Beauty,9511,Hairdressing and Beauty Services
ABS,211959,11711995,SB Beauty,91 The Cresent,Fairfield,NSW,2165,SYDNEY,,,0423 332759,,sb-beauty@hotmail.com,,Beauty,9511,Hairdressing and Beauty Services
ABS,212286,11712322,V&L Nail And Beauty Salon,,Fairfield West,NSW,2165,SYDNEY,02 87981406,,,,ngynvc@yahoo.com.au,,Beauty,9511,Hairdressing and Beauty Services
ABS,212614,11712650,Beauty Services at Home,,Cabramatta,NSW,2166,SYDNEY,,,0404 302677,,cecilia@beautyservicesathome.com.au,,Beauty,9511,Hairdressing and Beauty Services
ABS,212895,11712931,Diamond Nail Supplies,62 Hume Hwy,Lansvale,NSW,2166,SYDNEY,02 97820088,,,,diamondnailsupplies@yahoo.com.au,,Beauty,9511,Hairdressing and Beauty Services
ABS,213556,11713592,Nuevo Cosmetic,230 Cabramatta Rd,Cabramatta,NSW,2166,SYDNEY,02 97281972,,,,info@nuevocosmetic.com,,Beauty,9511,Hairdressing and Beauty Services
ABS,214242,11714278,Belinda Tohmes Nail & Beauty,1 Stirling Pl,Glenfield,NSW,2167,SYDNEY,,,0423 753123,,belindatohme@optusnet.com.au,,Beauty,9511,Hairdressing and Beauty Services
ABS,214323,11714359,Kavita's Beauty Parlour,3 Glory Rd,Glenfield,NSW,2167,SYDNEY,02 87311043,,,,kavitavm@hotmail.com,,Beauty,9511,Hairdressing and Beauty Services
ABS,214329,11714365,Laissez Faire Hair And Beauty,Shop 7 95 Harrow Rd,Glenfield,NSW,2167,SYDNEY,02 98294060,,,,laissezfaireinternational@gmail.com,,Hair,9511,Hairdressing and Beauty Services
ABS,214342,11714378,Nails by Tetyana,11 Matilda Lane,Glenfield,NSW,2167,SYDNEY,,,0439 024123,,tanucik2000@yahoo.co.uk,www.nailsbytetyana.com,Nails,9511,Hairdressing and Beauty Services
ABS,214777,11714813,Jana's House Of Hair,1 Knot Pl,Hinchinbrook,NSW,2168,SYDNEY,02 98250531,,,,janashouseofhair@bigpond.com,,Hair,9511,Hairdressing and Beauty Services
ABS,214927,11714963,Omg Hair & Beauty,Shop 5/ 26 Sinclair Rd,Ashcroft,NSW,2168,SYDNEY,02 96084289,,,,sonickpet@hotmail.com,www.omghairnbeauty.com.au,Hair,9511,Hairdressing and Beauty Services
ABS,215608,11715644,Alist Hair Boutique,5A Theo St,Liverpool,NSW,2170,SYDNEY,,,0416 817288,,lyn@alisthairboutique.com.au,www.alisthairboutique.com.au,Hair,9511,Hairdressing and Beauty Services
ABS,216110,11716146,Beauty By Emma,Mcevoy Close Cct,Hammondville,NSW,2170,SYDNEY,,,0403 146328,,miz_sxc_babygal@hotmail.com,,Beauty,9511,Hairdressing and Beauty Services
ABS,216435,11716471,C Styles,9 Maryvale Ave,Liverpool,NSW,2170,SYDNEY,02 96008771,,,,chueco1313@hotmail.com,,Hair,9511,Hairdressing and Beauty Services
ABS,216766,11716802,CocoTan,,Liverpool,NSW,2170,SYDNEY,,,0407 073079,,spray.tan.908@facebook.com,,Solarium and Tanning,9511,Hairdressing and Beauty Services
ABS,216942,11716978,Crown Hair Studio,Shop 7 101 Nuwarra Rd,Moorebank,NSW,2170,SYDNEY,02 98225553,,,,khoul123@hotmail.com,,Hair,9511,Hairdressing and Beauty Services
ABS,217530,11717566,Fashion Hair & Beauty,38 Railway St,Liverpool,NSW,2170,SYDNEY,02 98214034,,,,fhb_afshan@hotmail.com,,Beauty,9511,Hairdressing and Beauty Services
ABS,217877,11717913,Gloss Beauty Salon,Prestons Shopping Village Above Iga Suite 1/57 Minnamurra Cct,Prestons,NSW,2170,SYDNEY,02 96077277,,,,enquiries@glossbeautysalon.com.au,www.glossbeautysalon.com.au,Beauty,9511,Hairdressing and Beauty Services
ABS,217915,11717951,Gorgeous Beautique,29 Conlon Ave,Moorebank,NSW,2170,SYDNEY,,,0432 816817,,jessiepham87@yahoo.com,,Beauty,9511,Hairdressing and Beauty Services
ABS,217999,11718035,Hair Harmony Unisex Salon,Cnr Epsom Rd and Childs St,Chipping Norton,NSW,2170,SYDNEY,02 97551997,,,,sangwoody@bigpond.com,,Hair,9511,Hairdressing and Beauty Services
ABS,218000,11718036,Hair Insider,51 Moore St,Liverpool,NSW,2170,SYDNEY,02 96024786,,,,hairinsider@yahoo.com.au,,Hair,9511,Hairdressing and Beauty Services
ABS,218353,11718389,iSTYLE Hair & Beauty,39 Moore St,Liverpool,NSW,2170,SYDNEY,,,0405 053251,,mim_syd1987@yahoo.com,,Hair,9511,Hairdressing and Beauty Services
ABS,218681,11718717,Laila's Beauty & Laser,,Prestons,NSW,2170,SYDNEY,,,0433 072276,,lailasbeauty1@gmail.com,,Beauty,9511,Hairdressing and Beauty Services
ABS,218749,11718785,LF Hair & Beauty Supplies,Unit 11 5 Lyn Parade,Prestons,NSW,2170,SYDNEY,02 96085534,,,,sales@lfhair.com.au,www.lfhair.com.au,Hair,9511,Hairdressing and Beauty Services
ABS,219051,11719087,Lush Hair @ Home,,Prestons,NSW,2170,SYDNEY,,,0421 161546,,kirsty@lushhairathome.com.au,,Hair,9511,Hairdressing and Beauty Services
ABS,219339,11719375,Mena Boutique Salon,Shop 8/ 633-639 Hume Hwy,Casula,NSW,2170,SYDNEY,,,0403 806908,,salonmena@gmail.com,,Beauty,9511,Hairdressing and Beauty Services
ABS,219635,11719671,Natasha Day Spa and Thai Massage,66 Marsh Parade,Casula,NSW,2170,SYDNEY,02 96010800,,,,natashadayspa@bigpond.com,www.natashadayspa.com.au/,Massage and Spa,9511,Hairdressing and Beauty Services
ABS,220501,11720537,RTOPartnership,2-1 159-165 Northumberland St St,Liverpool,NSW,2170,SYDNEY,,1300 664908,,,michael.walker@mia.edu.au,www.rtopartnership.com.au/,Beauty,9511,Hairdressing and Beauty Services
ABS,220801,11720837,So Unique Hair & Beauty,Level 1/ 3 Kelso Crst,Moorebank,NSW,2170,SYDNEY,,,0433 794307,,shay450f@hotmail.com,,Beauty,9511,Hairdressing and Beauty Services
ABS,221238,11721274,Team 7 Hairdressing,19/ 58 Bathurst St,Liverpool,NSW,2170,SYDNEY,02 87983809,,,,team7hairdressing@hotmail.com,,Hair,9511,Hairdressing and Beauty Services
ABS,221490,11721526,Ultimate Summer Glow Mobile Spray Tanning,161 Leacocks Lane,Casula,NSW,2170,SYDNEY,,,0414 640603,,ultimateconnection@bigpond.com,,Solarium and Tanning,9511,Hairdressing and Beauty Services
ABS,221786,11721823,Xclusive Nail & Beauty Salon,Unit 3 20 Enterprise Cct,Prestons,NSW,2170,SYDNEY,,,0405 669220,,jchami@bigpond.com,,Beauty,9511,Hairdressing and Beauty Services
ABS,222373,11722410,Marlene K,1 Inverness Cct,Cecil Hills,NSW,2171,SYDNEY,02 98238165,,0414 400454,,info@marlenek.com.au,www.marlenek.com.au,Beauty,9511,Hairdressing and Beauty Services
ABS,222928,11722966,TANtalising Spray Tanning Studio,,Holsworthy,NSW,2173,SYDNEY,,,0411 583399,,kate@tantalising.com.au,www.tantalising.com.au,Solarium and Tanning,9511,Hairdressing and Beauty Services
ABS,223048,11723086,David K Hair Direction,1842 The Horsley Dr,Horsley Park,NSW,2175,SYDNEY,02 96202030,,,,dkairuz@bigpond.net.au,,Hair,9511,Hairdressing and Beauty Services
ABS,223256,11723294,Aqua beauty by Annette,1 Dobson Cl,Edensor Park,NSW,2176,SYDNEY,,,0420 947198,,aquabeautybyannette@bigpond.com,,Beauty,9511,Hairdressing and Beauty Services
ABS,223452,11723490,de'la'bronZa,,Edensor Park,NSW,2176,SYDNEY,,,0404 907262,,ashabilla@hotmail.com,,Beauty,9511,Hairdressing and Beauty Services
ABS,223515,11723553,Everlasting Laser Clinic,3 Bicane Cl,Edensor Park,NSW,2176,SYDNEY,,,0451 115557,,reettzz@hotmail.com,,Beauty,9511,Hairdressing and Beauty Services
ABS,223724,11723762,Lavender Beauty Salon,282 Endensor Rd,Edensor Park,NSW,2176,SYDNEY,,,0423 791289,,info@lavenderbeauty.com.au,www.lavenderbeauty.com.au,Beauty,9511,Hairdressing and Beauty Services
ABS,224362,11724400,Krave Hair Design,Shop 2/ 136 Edensor Rd,Bonnyrigg,NSW,2177,SYDNEY,02 87861141,,,,capellibykrystel@hotmail.com,,Hair,9511,Hairdressing and Beauty Services
ABS,224950,11724988,Fabulicious Salon Sydney,64 Cowpasture Rd,Leppington,NSW,2179,SYDNEY,02 87771282,,,,fabulicious_salon@y7mail.com,,Hair,9511,Hairdressing and Beauty Services
ABS,225731,11725769,Flaunt-it Hair & beauty Womans only,13 Napoleon Rd,Greenacre,NSW,2190,SYDNEY,,,0424 987858,,ttarabay79@gmail.com,,Hair,9511,Hairdressing and Beauty Services
ABS,226694,11726732,Nina Ortuso - Waxing Therapist,,Belfield,NSW,2191,SYDNEY,02 96422228,,,,ninaortuso@optusnet.com.au,,Beauty,9511,Hairdressing and Beauty Services
ABS,227145,11727183,Instyle Hair Cuts,434 Burwood Rd,Belmore,NSW,2192,SYDNEY,,,0402 449000,,instylehaircuts@live.com.au,,Hair,9511,Hairdressing and Beauty Services
ABS,227347,11727385,Rose Beauty Therapy,15 Edison St,Belmore,NSW,2192,SYDNEY,,,0425 262402,,rose@rosetherapy.com.au,www.rosetherapy.com.au,Beauty,9511,Hairdressing and Beauty Services
ABS,227369,11727407,Shom's Henna/ Mehndi Designing Services,,Belmore,NSW,2192,SYDNEY,,,0424 772145,,shom5@hotmail.com,,Beauty,9511,Hairdressing and Beauty Services
ABS,227958,11727996,Legends the Barbershop Sydney,112 Duntroon St,Hurlstone Park,NSW,2193,SYDNEY,,,0426 142763,,brucehathcock@hotmail.com,www.legendsthebarbershop.com,Hair,9511,Hairdressing and Beauty Services
ABS,228038,11728076,Organic Hair Culture,41 King St,Ashbury,NSW,2193,SYDNEY,02 97977375,,,,ohc@organichairculture.com,www.organichairculture.com,Hair,9511,Hairdressing and Beauty Services
ABS,228199,11728237,The Laserderm Clinic,Ste 1 99-105 Canterbury Rd,Canterbury,NSW,2193,SYDNEY,02 97184446,,,,info@laserdermclinic.com,www.laserdermclinic.com,Beauty,9511,Hairdressing and Beauty Services
ABS,229147,11729185,Styla Hair Nails & Beauty,341A Beamish St,Campsie,NSW,2194,SYDNEY,02 80689548,,,,stylahairdressing@gmail.com,,Beauty,9511,Hairdressing and Beauty Services
ABS,229910,11729948,Trulase - Laser Hair Removal,Medical Consulting Rooms 41 Wangee Rd,Lakemba,NSW,2195,SYDNEY,,1300 767141,,,sales@trugradematerials.com.au,,Beauty,9511,Hairdressing and Beauty Services
ABS,230048,11730086,Alannah's Beauty Bar,113 Dreadnought St,Roselands,NSW,2196,SYDNEY,02 97589163,,,,alannahsbeauty@optusnet.com.au,www.alannahsbeautybar.com.au,Beauty,9511,Hairdressing and Beauty Services
ABS,230369,11730407,Ella Bache Roselands,"Shop 72, Centro Roselands",Roselands,NSW,2196,SYDNEY,02 97409900,,,,ellabachepacificfair@yahoo.com.au,www.ellabache.com.au,Beauty,9511,Hairdressing and Beauty Services
ABS,230399,11730437,Fashion Nail,272 The Blv,Punchbowl,NSW,2196,SYDNEY,02 97504281,,,,bnanguyen@yahoo.com,,Beauty,9511,Hairdressing and Beauty Services
ABS,230643,11730681,Le Nails Day Spa & Beauty - Punchbowl,Shop 17A 1 The Broadway,Punchbowl,NSW,2196,SYDNEY,02 87986805,,,,lenails.punchbowl@gmail.com,,Nails,9511,Hairdressing and Beauty Services
ABS,230679,11730717,Makeup on the Boulevarde,Shop 3/ 200 The Blv,Punchbowl,NSW,2196,SYDNEY,02 97406643,,,,info@makeupontheboulevarde.com.au,www.makeupontheboulevarde.com.au,Beauty,9511,Hairdressing and Beauty Services
ABS,230738,11730776,Monita Health & Beauty Salon,Shop L 028 Level 1 32-62 Roselands Shopping Center Ctr,Roselands,NSW,2196,SYDNEY,02 97580168,,,,jenny-au@163.com,,Beauty,9511,Hairdressing and Beauty Services
ABS,231447,11731485,Luksana Thai Massage,99 Cann St,Bass Hill,NSW,2197,SYDNEY,02 97437669,,,,maycy2527@hotmail.com,www.luxsanathai.com.au,Massage and Spa,9511,Hairdressing and Beauty Services
ABS,231593,11731631,White Laser Clinic,Shop 30/ 753 Hume Hwy,Bass Hill,NSW,2197,SYDNEY,,,0450 004500,,k.chalouhi@live.com,www.whitelaserclinic.com.au,Beauty,9511,Hairdressing and Beauty Services
ABS,231828,11731866,Q 8 Hair products,18 Saric Ave,Georges Hall,NSW,2198,SYDNEY,,,0403 491116,,samynach@live.com.au,,Hair,9511,Hairdressing and Beauty Services
ABS,232679,11732717,Ahead Of Hair,3 434 Chapel Rd,Bankstown,NSW,2200,SYDNEY,02 97933978,,,,info@aheadofhair.com.au,www.aheadofhair.com.au,Hair,9511,Hairdressing and Beauty Services
ABS,233031,11733069,Bankstown Cosmetic & Plastic Surgery Centre,4/ 432 Chapel Rd,Bankstown,NSW,2200,SYDNEY,02 97092553,,,,drsatyabhatia@bigpond.com,,Beauty,9511,Hairdressing and Beauty Services
ABS,233170,11733208,Beyond Beauty & Laser,1/ 50 Kitchener Parade,Bankstown,NSW,2200,SYDNEY,,1300 262180,,,beyondbeautylaser@outlook.com,www.beyondbeautyandlaser.com,Beauty,9511,Hairdressing and Beauty Services
ABS,233818,11733856,Ever Nails & Beauty,350 Chapel North Rd,Bankstown,NSW,2200,SYDNEY,02 97095885,,,,inforevernails@gmail.com,,Beauty,9511,Hairdressing and Beauty Services
ABS,233924,11733962,Forever Smooth Laser Clinic,1/ 2 Kitchener Parade,Bankstown,NSW,2200,SYDNEY,,,0415 741859,,enquires@foreversmooth.com.au,www.foreversmooth.com.au,Beauty,9511,Hairdressing and Beauty Services
ABS,234007,11734045,Glamour lash - Sydney eyelash extension expert,241 Northam Ave,Bankstown,NSW,2200,SYDNEY,,,0422 890292,,sydneyglamourlash@gmail.com,www.sydneyglamourlash.com,Beauty,9511,Hairdressing and Beauty Services
ABS,234472,11734510,Ladyz Only,58 Restwell Street St,Bankstown,NSW,2200,SYDNEY,,1300 452399,,,4ladyzonly@gmail.com,www.4ladyzonly.com.au/,Beauty,9511,Hairdressing and Beauty Services
ABS,234489,11734527,Le Beaute Exclusive Pty Ltd,"Shop 17, Centro Bankstown",Bankstown,NSW,2200,SYDNEY,02 97081110,,,,info@lebeaute.com.au,www.lebeaute.com.au,Beauty,9511,Hairdressing and Beauty Services
ABS,234755,11734793,Monica Beauty Salon,15 Lee St,Condell Park,NSW,2200,SYDNEY,02 97860267,,,,info@monicabeautysalon.com,www.monicabeautysalon.com,Beauty,9511,Hairdressing and Beauty Services
ABS,234803,11734841,Nail Central,Bankstown Central/ Shop SP 120/ Rickard Rd,Bankstown,NSW,2200,SYDNEY,02 97939245,,,,nailcentral@hotmail.com,,Beauty,9511,Hairdressing and Beauty Services
ABS,235854,11735892,Violet's Beauty Salon,63 Fenwick St,Bankstown,NSW,2200,SYDNEY,02 97073718,,,,info@violetsbeatysalon.com,,Beauty,9511,Hairdressing and Beauty Services
ABS,236018,11736056,Armandi Hair Studio,1A Hampstead Rd,Dulwich Hill,NSW,2203,SYDNEY,02 95500022,,,,admin@armandi.com.au,www.armandi.com.au,Hair,9511,Hairdressing and Beauty Services
ABS,236262,11736300,J&J Hair And Beauty Salon,407 New Canterbury Rd,Dulwich Hill,NSW,2203,SYDNEY,02 95691223,,,,Free2nite329@yahoo.com.au,,Beauty,9511,Hairdressing and Beauty Services
ABS,236363,11736401,Not Just Another Salon,10 Arlington St,Dulwich Hill,NSW,2203,SYDNEY,,,0406 778850,,notjustanothersalon@gmail.com,www.notjustanothersalon.com.au,Hair,9511,Hairdressing and Beauty Services
ABS,236406,11736444,Pretty Pink Poppies,,Dulwich Hill,NSW,2203,SYDNEY,,,0404 747367,,alexiedavis@prettypinkpoppies.com,,Beauty,9511,Hairdressing and Beauty Services
ABS,236430,11736468,Robert hairdressing,269 Wardell Rd,Dulwich Hill,NSW,2203,SYDNEY,02 95585632,,,,Robertrobert69@hotmail.com,www.roberthairdresing.com,Hair,9511,Hairdressing and Beauty Services
ABS,236925,11736963,BellDonLaqua Cosmetic Beauty Clinic,1a/ 48 Park Rd,Marrickville,NSW,2204,SYDNEY,,1300 303140,,,marrickville@belldonlaqua.com,www.clinic.belldonlaqua.com,Beauty,9511,Hairdressing and Beauty Services
ABS,236978,11737016,Born Pretty Nails & Beauty Care,237 Marrickville Rd,Marrickville,NSW,2204,SYDNEY,,,0487 243333,,bornpretty2005@yahoo.com.au,www.bornpretty.com.au/,Beauty,9511,Hairdressing and Beauty Services
ABS,237419,11737457,Face Affair Day Spa,226 Marrickville Rd,Marrickville,NSW,2204,SYDNEY,02 95694089,,,,info@faceaffair.com.au,www.faceaffair.com.au,Beauty,9511,Hairdressing and Beauty Services
ABS,237601,11737639,Hair by Vicky - Makeup Artist & Hairdresser,,Marrickville,NSW,2204,SYDNEY,,,0422 304765,,vickyarabi0598@yahoo.com,,Hair,9511,Hairdressing and Beauty Services
ABS,237602,11737640,Hair Den,295 Marrickville Rd,Marrickville,NSW,2204,SYDNEY,02 95692664,,,,info@hairden.com.au,www.hairden.com.au/,Hair,9511,Hairdressing and Beauty Services
ABS,237727,11737765,Jacaranda Beauty Room,324 Marrickville Rd,Marrickville,NSW,2204,SYDNEY,,,0402 586957,,jacarandabeautyroom@gmail.com,www.jacarandabeautyroom.com,Beauty,9511,Hairdressing and Beauty Services
ABS,237941,11737979,M DOLL FACE STUDIO,345 Illawarra Rd,Marrickville,NSW,2204,SYDNEY,,,0468 935941,,mdollfacestudio@gmail.com,,Beauty,9511,Hairdressing and Beauty Services
ABS,238294,11738332,Oz Nails & Beauty,237 Marrickville Rd,Marrickville,NSW,2204,SYDNEY,,,0434 224609,,phamhien.sydney@gmail.com,,Nails,9511,Hairdressing and Beauty Services
ABS,239087,11739125,Xcentrik Hair,Shop 65 Marrickville Metro Shopng Cntr,Marrickville,NSW,2204,SYDNEY,02 95503144,,,,xcentrikhair@bigpond.com,,Hair,9511,Hairdressing and Beauty Services
ABS,239412,11739450,Forever Beauty Day Spa,17 35 Arncliffe St St,Wolli Creek,NSW,2205,SYDNEY,02 95670079,,,,beautyswollicreek@gmail.com,www.foreverbeautydayspa.com.au,Massage and Spa,9511,Hairdressing and Beauty Services
ABS,239456,11739494,Helen's Hair Concepts,21b Belmore St,Arncliffe,NSW,2205,SYDNEY,02 95671012,,,02 95447983,hair@hhc.net.au,www.hhc.net.au,Hair,9511,Hairdressing and Beauty Services
ABS,240031,11740070,Beyond Beauty Cosmetics,213 Homer St,Earlwood,NSW,2206,SYDNEY,,,0421 894597,,yolanda@beyond-beauty.com.au,www.beyond-beauty.com.au,Beauty,9511,Hairdressing and Beauty Services
ABS,240300,11740339,Hair and Make up by VixenBel,,Earlwood,NSW,2206,SYDNEY,,,0478 693654,,makeupbybellamack@gmail.com,,Beauty,9511,Hairdressing and Beauty Services
ABS,240549,11740588,RaStA DrEaD LoCk by SaNdY,Homer St,Earlwood,NSW,2206,SYDNEY,,,0431 556784,,sandrauboh@gmail.com,,Hair,9511,Hairdressing and Beauty Services
ABS,241221,11741260,Heavenly Spa & Skin Care,635 Forest Rd,Bexley,NSW,2207,SYDNEY,02 95881838,,,,nia@heavenlyspa.com.au,www.heavenlyspa.com.au,Beauty,9511,Hairdressing and Beauty Services
ABS,241365,11741404,Maren's Hair & Beauty,647 Forest Rd,Bexley,NSW,2207,SYDNEY,02 95874343,,,,maren@marens.com.au,www.marens.com.au,Beauty,9511,Hairdressing and Beauty Services
ABS,241581,11741620,SMZ Hair Creations,374 Forest Rd,Bexley,NSW,2207,SYDNEY,02 89601524,,,,info@smzhaircreations.com,www.smzhaircreations.com,Hair,9511,Hairdressing and Beauty Services
ABS,241685,11741724,Taper's Hairdressers,32 Slade Rd,Bardwell Park,NSW,2207,SYDNEY,02 95992999,,,,admin@tapers.com.au,www.tapers.com.au,Hair,9511,Hairdressing and Beauty Services
ABS,242208,11742248,HBA Hair By Andy,"Shop 2 Grays Arcade, 254 Kingsgrove Rd",Kingsgrove,NSW,2208,SYDNEY,02 80211978,,,,andrew.neofytou@live.com.au,www.hbahairbyandy.com.au/,Hair,9511,Hairdressing and Beauty Services
ABS,243166,11743206,Spray Tans By Ally,,Beverly Hills,NSW,2209,SYDNEY,,,0431 833960,,alison_robertson@msn.com,www.spraytansbyally.com,Solarium and Tanning,9511,Hairdressing and Beauty Services
ABS,243452,11743492,Aqua Beauty And Spa,Shop 2/ 66 Lorraine St,Peakhurst,NSW,2210,SYDNEY,02 95843266,,,,lauren_pentland@hotmail.com,www.botanicaspa.com.au,Beauty,9511,Hairdressing and Beauty Services
ABS,243676,11743716,Christina's Beauty & Day Spa Salon,1022A Forest Rd,Lugarno,NSW,2210,SYDNEY,02 95841246,,,,info@christinasbeautysalon.com.au,www.christinasbeautysalon.com.au,Beauty,9511,Hairdressing and Beauty Services
ABS,244341,11744381,Mary's Stunners Hairdesign,14 Clarke St,Peakhurst,NSW,2210,SYDNEY,,,0418 478076,,acevska73@hotmail.com,,Hair,9511,Hairdressing and Beauty Services
ABS,245615,11745655,In Home Spray Tanning,,Padstow,NSW,2211,SYDNEY,,,0479 030282,,inhomespraytanning@hotmail.com,,Beauty,9511,Hairdressing and Beauty Services
ABS,246127,11746167,To Be Hair Skin & Body,15 Howard Rd,Padstow,NSW,2211,SYDNEY,02 97712325,,,,jotalarico@tobehair.com.au,www.tobehair.com.au,Hair,9511,Hairdressing and Beauty Services
ABS,246277,11746317,All Dolled Up,Shop 6/ 4 Selems Parade,Revesby,NSW,2212,SYDNEY,02 97744113,,,,rebkahh@live.com.au,,Beauty,9511,Hairdressing and Beauty Services
ABS,246381,11746421,Beauty Therapy By Amies,5/ 36 Selems Parade,Revesby,NSW,2212,SYDNEY,02 87644880,,,,beautytherapybyamies@gmail.com,,Beauty,9511,Hairdressing and Beauty Services
ABS,246558,11746598,Designer Nails & Beauty Revesby,Shop 5/ 44-46 Marco Ave,Revesby,NSW,2212,SYDNEY,02 97710408,,,,nailsbeautyrevesby@gmail.com,,Beauty,9511,Hairdressing and Beauty Services
ABS,246599,11746639,Elena's Hair & Makeup,49 Queen St,Revesby,NSW,2212,SYDNEY,,,0478 588156,,Lena_1995@live.com.au,,Hair,9511,Hairdressing and Beauty Services
ABS,247308,11747348,ubeauty treatments,,Revesby,NSW,2212,SYDNEY,02 81180088,,,,ubeautytreatments@hotmail.com,,Beauty,9511,Hairdressing and Beauty Services
ABS,247416,11747456,Artemis's Beauty Room,73 Anderson Ave,Panania,NSW,2213,SYDNEY,,,0435 176895,,arteg1983@gmail.com,,Beauty,9511,Hairdressing and Beauty Services
ABS,247525,11747565,Custom Tan by Amy - Leigh,,Picnic Point,NSW,2213,SYDNEY,,,0403 557322,,amy.cheverton@live.com.au,,Solarium and Tanning,9511,Hairdressing and Beauty Services
ABS,247702,11747742,Leona Jayne Mobile Beauty,,East Hills,NSW,2213,SYDNEY,,,0405 397552,,collinsleona@yahoo.com.au,,Beauty,9511,Hairdressing and Beauty Services
ABS,247717,11747757,Manuela Hair Design,50A Anderson Ave,Panania,NSW,2213,SYDNEY,02 97923748,,,,manuelahair@internode.on.net,www.manuelahair.com.au,Hair,9511,Hairdressing and Beauty Services
ABS,247917,11747957,Tessa's Hair Station,Shop 1/ 100 Park Rd,East Hills,NSW,2213,SYDNEY,02 97722000,,,,tessas.hairstation@hotmail.com,www.tessashairstation.com,Hair,9511,Hairdressing and Beauty Services
ABS,248976,11749016,Christine's L,3 Tramway Arc,Rockdale,NSW,2216,SYDNEY,02 95675702,,,,bookmeinn@gmail.com,,Hair,9511,Hairdressing and Beauty Services
ABS,249022,11749062,Creativity By Geena Hair & Make- Up Academy,8/ 364 Bay St,Brighton-le-sands,NSW,2216,SYDNEY,02 95672928,,,,creativitybygeena@gmail.com,,Beauty,9511,Hairdressing and Beauty Services
ABS,249173,11749213,Expressions Hair Culture,354 Bay St,Brighton-le-sands,NSW,2216,SYDNEY,02 95678793,,,,expressionshairculture@gmail.com,,Beauty,9511,Hairdressing and Beauty Services
ABS,249490,11749530,La Bonita Skin Care,Shop 57 314- 324 Bay St,Brighton-le-sands,NSW,2216,SYDNEY,02 95974460,,,,miketabone@hotmail.com,,Beauty,9511,Hairdressing and Beauty Services
ABS,249600,11749640,Mel's Nail Co.,114 The Grand Parade,Brighton-le-sands,NSW,2216,SYDNEY,,,0415 447533,,Aggelomelissa@gmail.com,,Beauty,9511,Hairdressing and Beauty Services
ABS,250187,11750227,Tassles Hair,114 Grand Parade,Brighton-le-sands,NSW,2216,SYDNEY,02 80840260,,,,tasles@live.com.au,,Hair,9511,Hairdressing and Beauty Services
